"ZIPCode","State","City","County","StateFIPS","CountyFIPS","Latitude","Longitude","Preference","Type"
"24701","WV","Bluefield","Mercer","54","55","37.29","-81.21","A","GD"
"24712","WV","Athens","Mercer","54","55","37.43","-81.01","A","GD"
"24714","WV","Beeson","Mercer","54","55","37.47","-81.18","A","GD"
"24715","WV","Bramwell","Mercer","54","55","37.33","-81.32","A","GD"
"24716","WV","Bud","Wyoming","54","109","37.48","-81.39","A","POB"
"24719","WV","Covel","Wyoming","54","109","37.49","-81.32","A","POB"
"24724","WV","Freeman","Mercer","54","55","37.33","-81.3","A","GD"
"24726","WV","Herndon","Wyoming","54","109","37.52","-81.37","A","GD"
"24729","WV","Hiawatha","Mercer","54","55","37.44","-81.24","A","POB"
"24731","WV","Kegley","Mercer","54","55","37.4","-81.15","A","GD"
"24732","WV","Kellysville","Mercer","54","55","37.34","-80.93","A","POB"
"24733","WV","Lashmeet","Mercer","54","55","37.43","-81.21","A","GD"
"24736","WV","Matoaka","Mercer","54","55","37.43","-81.26","A","GD"
"24737","WV","Montcalm","Mercer","54","55","37.35","-81.25","A","POB"
"24738","WV","Nemours","Mercer","54","55","37.3","-81.31","A","POB"
"24739","WV","Princeton","Mercer","54","55","37.33","-80.97","A","GD"
"24740","WV","Princeton","Mercer","54","55","37.37","-81.07","A","GD"
"24747","WV","Rock","Mercer","54","55","37.39","-81.22","A","GD"
"24751","WV","Wolfe","Mercer","54","55","37.31","-81.33","A","POB"
"24801","WV","Welch","Mcdowell","54","47","37.44","-81.58","A","GD"
"24808","WV","Anawalt","Mcdowell","54","47","37.34","-81.43","A","GD"
"24811","WV","Avondale","Mcdowell","54","47","37.4","-81.78","A","POB"
"24813","WV","Bartley","Mcdowell","54","47","37.35","-81.73","A","POB"
"24815","WV","Berwind","Mcdowell","54","47","37.23","-81.67","A","GD"
"24816","WV","Big Sandy","Mcdowell","54","47","37.46","-81.7","A","POB"
"24817","WV","Bradshaw","Mcdowell","54","47","37.35","-81.8","A","POB"
"24818","WV","Brenton","Wyoming","54","109","37.6","-81.64","A","GD"
"24822","WV","Clear Fork","Wyoming","54","109","37.62","-81.69","A","GD"
"24823","WV","Coal Mountain","Wyoming","54","109","37.66","-81.73","A","GD"
"24826","WV","Cucumber","Mcdowell","54","47","37.29","-81.64","A","POB"
"24827","WV","Cyclone","Wyoming","54","109","37.74","-81.69","A","GD"
"24828","WV","Davy","Mcdowell","54","47","37.48","-81.65","A","GD"
"24829","WV","Eckman","Mcdowell","54","47","37.44","-81.6","A","POB"
"24830","WV","Elbert","Mcdowell","54","47","37.32","-81.54","A","GD"
"24831","WV","Elkhorn","Mcdowell","54","47","37.39","-81.42","A","POB"
"24834","WV","Fanrock","Wyoming","54","109","37.55","-81.62","A","POB"
"24836","WV","Gary","Mcdowell","54","47","37.35","-81.55","A","POB"
"24839","WV","Hanover","Wyoming","54","109","37.57","-81.78","A","GD"
"24843","WV","Hensley","Mcdowell","54","47","37.47","-81.71","A","POB"
"24844","WV","Iaeger","Mcdowell","54","47","37.46","-81.79","A","GD"
"24845","WV","Ikes Fork","Wyoming","54","109","37.53","-81.79","A","POB"
"24846","WV","Isaban","Mcdowell","54","47","37.53","-81.91","A","GD"
"24847","WV","Itmann","Wyoming","54","109","37.57","-81.42","A","POB"
"24848","WV","Jenkinjones","Mcdowell","54","47","37.28","-81.45","A","POB"
"24849","WV","Jesse","Wyoming","54","109","37.67","-81.57","A","GD"
"24850","WV","Jolo","Mcdowell","54","47","37.3","-81.83","A","GD"
"24851","WV","Justice","Mingo","54","59","37.59","-81.83","A","POB"
"24853","WV","Kimball","Mcdowell","54","47","37.42","-81.52","A","POB"
"24854","WV","Kopperston","Wyoming","54","109","37.75","-81.57","A","POB"
"24855","WV","Kyle","Mcdowell","54","47","37.41","-81.43","A","GD"
"24857","WV","Lynco","Wyoming","54","109","37.67","-81.66","A","POB"
"24859","WV","Marianna","Wyoming","54","109","37.62","-81.58","A","POB"
"24860","WV","Matheny","Wyoming","54","109","37.67","-81.6","A","GD"
"24861","WV","Maybeury","Mcdowell","54","47","37.36","-81.37","A","POB"
"24862","WV","Mohawk","Mcdowell","54","47","37.48","-81.95","A","GD"
"24866","WV","Newhall","Mcdowell","54","47","37.26","-81.6","A","POB"
"24867","WV","New Richmond","Wyoming","54","109","37.6","-81.46","A","POB"
"24868","WV","Northfork","Mcdowell","54","47","37.42","-81.42","A","GD"
"24869","WV","North Spring","Wyoming","54","109","37.58","-81.83","A","GD"
"24870","WV","Oceana","Wyoming","54","109","37.71","-81.6","A","GD"
"24871","WV","Pageton","Mcdowell","54","47","37.35","-81.47","A","POB"
"24872","WV","Panther","Mcdowell","54","47","37.46","-81.89","A","GD"
"24873","WV","Paynesville","Mcdowell","54","47","37.36","-81.9","A","GD"
"24874","WV","Pineville","Wyoming","54","109","37.57","-81.53","A","GD"
"24878","WV","Premier","Mcdowell","54","47","37.44","-81.62","A","POB"
"24879","WV","Raysal","Mcdowell","54","47","37.34","-81.77","A","GD"
"24880","WV","Rock View","Wyoming","54","109","37.63","-81.55","A","GD"
"24881","WV","Roderfield","Mcdowell","54","47","37.45","-81.7","A","POB"
"24882","WV","Simon","Wyoming","54","109","37.62","-81.75","A","GD"
"24884","WV","Squire","Mcdowell","54","47","37.25","-81.55","A","GD"
"24887","WV","Switchback","Mcdowell","54","47","37.37","-81.39","A","POB"
"24888","WV","Thorpe","Mcdowell","54","47","37.37","-81.5","A","POB"
"24892","WV","War","Mcdowell","54","47","37.31","-81.69","A","GD"
"24894","WV","Warriormine","Mcdowell","54","47","37.29","-81.69","A","POB"
"24895","WV","Wilcoe","Mcdowell","54","47","37.44","-81.6","A","POB"
"24898","WV","Wyoming","Wyoming","54","109","37.59","-81.6","A","GD"
"24901","WV","Lewisburg","Greenbrier","54","25","37.81","-80.45","A","GD"
"24902","WV","Fairlea","Greenbrier","54","25","37.78","-80.45","A","POB"
"24910","WV","Alderson","Monroe","54","63","37.73","-80.65","A","GD"
"24915","WV","Arbovale","Pocahontas","54","75","38.46","-79.8","A","GD"
"24916","WV","Asbury","Greenbrier","54","25","37.84","-80.57","A","GD"
"24918","WV","Ballard","Monroe","54","63","37.53","-80.75","A","GD"
"24920","WV","Bartow","Pocahontas","54","75","38.56","-79.73","A","GD"
"24924","WV","Buckeye","Pocahontas","54","75","38.19","-80.14","A","GD"
"24925","WV","Caldwell","Greenbrier","54","25","37.77","-80.39","A","GD"
"24927","WV","Cass","Pocahontas","54","75","38.38","-79.94","A","GD"
"24931","WV","Crawley","Greenbrier","54","25","37.93","-80.59","A","GD"
"24934","WV","Dunmore","Pocahontas","54","75","38.34","-79.9","A","GD"
"24935","WV","Forest Hill","Summers","54","89","37.56","-80.79","A","GD"
"24938","WV","Frankford","Greenbrier","54","25","37.92","-80.37","A","GD"
"24941","WV","Gap Mills","Monroe","54","63","37.6","-80.35","A","GD"
"24943","WV","Grassy Meadows","Greenbrier","54","25","37.84","-80.74","A","GD"
"24944","WV","Green Bank","Pocahontas","54","75","38.41","-79.81","A","GD"
"24945","WV","Greenville","Monroe","54","63","37.54","-80.69","A","GD"
"24946","WV","Hillsboro","Pocahontas","54","75","38.14","-80.24","A","GD"
"24951","WV","Lindside","Monroe","54","63","37.48","-80.65","A","GD"
"24954","WV","Marlinton","Pocahontas","54","75","38.22","-80.06","A","GD"
"24957","WV","Maxwelton","Greenbrier","54","25","37.87","-80.41","A","GD"
"24962","WV","Pence Springs","Summers","54","89","37.68","-80.73","A","GD"
"24963","WV","Peterstown","Monroe","54","63","37.43","-80.78","A","GD"
"24966","WV","Renick","Greenbrier","54","25","38.03","-80.37","A","GD"
"24970","WV","Ronceverte","Greenbrier","54","25","37.74","-80.48","A","GD"
"24974","WV","Secondcreek","Monroe","54","63","37.66","-80.44","A","GD"
"24976","WV","Sinks Grove","Monroe","54","63","37.67","-80.53","A","GD"
"24977","WV","Smoot","Greenbrier","54","25","37.91","-80.66","A","GD"
"24981","WV","Talcott","Summers","54","89","37.64","-80.74","A","GD"
"24983","WV","Union","Monroe","54","63","37.57","-80.53","A","GD"
"24984","WV","Waiteville","Monroe","54","63","37.51","-80.4","A","GD"
"24985","WV","Wayside","Monroe","54","63","37.63","-80.7","A","GD"
"24986","WV","White Sulphur Springs","Greenbrier","54","25","37.85","-80.25","A","GD"
"24991","WV","Williamsburg","Greenbrier","54","25","38","-80.5","A","GD"
"24993","WV","Wolfcreek","Monroe","54","63","37.63","-80.61","A","GD"
"25002","WV","Alloy","Fayette","54","19","38.13","-81.26","A","POB"
"25003","WV","Alum Creek","Kanawha","54","39","38.26","-81.79","A","GD"
"25005","WV","Amma","Roane","54","87","38.57","-81.26","A","GD"
"25007","WV","Arnett","Raleigh","54","81","37.83","-81.43","A","GD"
"25008","WV","Artie","Raleigh","54","81","37.93","-81.36","A","GD"
"25009","WV","Ashford","Boone","54","5","38.19","-81.72","A","GD"
"25011","WV","Bancroft","Putnam","54","79","38.51","-81.84","A","POB"
"25015","WV","Belle","Kanawha","54","39","38.22","-81.52","A","GD"
"25019","WV","Bickmore","Clay","54","15","38.38","-81.09","A","GD"
"25021","WV","Bim","Boone","54","5","37.92","-81.69","A","GD"
"25022","WV","Blair","Logan","54","45","37.86","-81.82","A","POB"
"25024","WV","Bloomingrose","Boone","54","5","38.14","-81.63","A","GD"
"25025","WV","Blount","Kanawha","54","39","38.31","-81.4","A","GD"
"25026","WV","Blue Creek","Kanawha","54","39","38.44","-81.46","A","POB"
"25028","WV","Bob White","Boone","54","5","37.95","-81.72","A","GD"
"25030","WV","Bomont","Clay","54","15","38.45","-81.23","A","GD"
"25031","WV","Boomer","Fayette","54","19","38.15","-81.28","A","POB"
"25033","WV","Buffalo","Putnam","54","79","38.61","-81.95","A","GD"
"25035","WV","Cabin Creek","Kanawha","54","39","38.19","-81.5","A","GD"
"25036","WV","Cannelton","Fayette","54","19","38.2","-81.27","A","POB"
"25039","WV","Cedar Grove","Kanawha","54","39","38.24","-81.41","A","GD"
"25040","WV","Charlton Heights","Fayette","54","19","38.13","-81.24","A","POB"
"25043","WV","Clay","Clay","54","15","38.46","-81.02","A","GD"
"25044","WV","Clear Creek","Raleigh","54","81","37.9","-81.35","A","GD"
"25045","WV","Clendenin","Kanawha","54","39","38.46","-81.33","A","GD"
"25047","WV","Clothier","Logan","54","45","37.95","-81.8","A","GD"
"25048","WV","Colcord","Raleigh","54","81","37.94","-81.44","A","GD"
"25049","WV","Comfort","Boone","54","5","38.13","-81.59","A","GD"
"25051","WV","Costa","Boone","54","5","38.16","-81.71","A","GD"
"25053","WV","Danville","Boone","54","5","38.05","-81.85","A","GD"
"25054","WV","Dawes","Kanawha","54","39","38.12","-81.46","A","POB"
"25057","WV","Deep Water","Fayette","54","19","38.13","-81.26","A","POB"
"25059","WV","Dixie","Nicholas","54","67","38.25","-81.2","A","GD"
"25060","WV","Dorothy","Raleigh","54","81","37.95","-81.44","A","GD"
"25061","WV","Drybranch","Kanawha","54","39","38.17","-81.46","A","POB"
"25062","WV","Dry Creek","Raleigh","54","81","37.87","-81.46","A","GD"
"25063","WV","Duck","Clay","54","15","38.58","-80.92","A","GD"
"25064","WV","Dunbar","Kanawha","54","39","38.37","-81.75","A","GD"
"25067","WV","East Bank","Kanawha","54","39","38.21","-81.43","A","GD"
"25070","WV","Eleanor","Putnam","54","79","38.54","-81.93","A","POB"
"25071","WV","Elkview","Kanawha","54","39","38.44","-81.47","A","GD"
"25075","WV","Eskdale","Kanawha","54","39","38.06","-81.44","A","GD"
"25076","WV","Ethel","Logan","54","45","37.86","-81.92","A","POB"
"25079","WV","Falling Rock","Kanawha","54","39","38.47","-81.39","A","GD"
"25081","WV","Foster","Boone","54","5","38.1","-81.78","A","GD"
"25082","WV","Fraziers Bottom","Putnam","54","79","38.62","-82.01","A","GD"
"25083","WV","Gallagher","Kanawha","54","39","38.08","-81.37","A","GD"
"25085","WV","Gauley Bridge","Fayette","54","19","38.17","-81.19","A","GD"
"25086","WV","Glasgow","Kanawha","54","39","38.21","-81.42","A","POB"
"25088","WV","Glen","Clay","54","15","38.39","-81.22","A","GD"
"25090","WV","Glen Ferris","Fayette","54","19","38.15","-81.21","A","POB"
"25093","WV","Gordon","Boone","54","5","37.99","-81.67","A","GD"
"25102","WV","Handley","Kanawha","54","39","38.19","-81.37","A","POB"
"25103","WV","Hansford","Kanawha","54","39","38.2","-81.39","A","GD"
"25106","WV","Henderson","Mason","54","53","38.81","-82.1","A","GD"
"25107","WV","Hernshaw","Kanawha","54","39","38.23","-81.64","A","GD"
"25108","WV","Hewett","Boone","54","5","37.95","-81.87","A","GD"
"25109","WV","Hometown","Putnam","54","79","38.53","-81.86","A","POB"
"25110","WV","Hugheston","Kanawha","54","39","38.21","-81.34","A","POB"
"25111","WV","Indore","Clay","54","15","38.37","-81.14","A","GD"
"25112","WV","Institute","Kanawha","54","39","38.38","-81.77","A","POB"
"25113","WV","Ivydale","Clay","54","15","38.56","-81.04","A","GD"
"25114","WV","Jeffrey","Boone","54","5","37.98","-81.82","A","GD"
"25115","WV","Kanawha Falls","Fayette","54","19","38.13","-81.2","A","GD"
"25118","WV","Kimberly","Fayette","54","19","38.13","-81.3","A","GD"
"25119","WV","Kincaid","Fayette","54","19","38.04","-81.26","A","GD"
"25121","WV","Lake","Logan","54","45","37.93","-81.89","A","GD"
"25123","WV","Leon","Mason","54","53","38.73","-81.91","A","GD"
"25124","WV","Liberty","Putnam","54","79","38.62","-81.76","A","GD"
"25125","WV","Lizemores","Clay","54","15","38.31","-81.18","A","GD"
"25126","WV","London","Kanawha","54","39","38.2","-81.37","A","POB"
"25130","WV","Madison","Boone","54","5","38.04","-81.8","A","GD"
"25132","WV","Mammoth","Kanawha","54","39","38.29","-81.36","A","GD"
"25133","WV","Maysel","Clay","54","15","38.49","-81.12","A","GD"
"25134","WV","Miami","Kanawha","54","39","38.16","-81.46","A","POB"
"25136","WV","Montgomery","Fayette","54","19","38.18","-81.33","A","GD"
"25139","WV","Mount Carbon","Fayette","54","19","38.14","-81.29","A","GD"
"25140","WV","Naoma","Raleigh","54","81","37.87","-81.51","A","GD"
"25141","WV","Nebo","Clay","54","15","38.63","-81.04","A","GD"
"25142","WV","Nellis","Boone","54","5","38.15","-81.73","A","GD"
"25143","WV","Nitro","Kanawha","54","39","38.42","-81.83","A","GD"
"25148","WV","Orgas","Boone","54","5","38.05","-81.58","A","GD"
"25149","WV","Ottawa","Boone","54","5","37.95","-81.81","A","POB"
"25152","WV","Page","Fayette","54","19","38.05","-81.27","A","POB"
"25154","WV","Peytona","Boone","54","5","38.12","-81.69","A","GD"
"25156","WV","Pinch","Kanawha","54","39","38.19","-81.34","A","POB"
"25159","WV","Poca","Putnam","54","79","38.49","-81.79","A","GD"
"25160","WV","Pond Gap","Kanawha","54","39","38.3","-81.29","A","GD"
"25161","WV","Powellton","Fayette","54","19","38.07","-81.34","A","GD"
"25162","WV","Pratt","Kanawha","54","39","38.21","-81.39","A","POB"
"25164","WV","Procious","Clay","54","15","38.5","-81.19","A","GD"
"25165","WV","Racine","Boone","54","5","38.14","-81.65","A","GD"
"25168","WV","Red House","Putnam","54","79","38.56","-81.9","A","GD"
"25169","WV","Ridgeview","Boone","54","5","38.13","-81.78","A","GD"
"25173","WV","Robson","Fayette","54","19","38.09","-81.23","A","GD"
"25174","WV","Rock Creek","Raleigh","54","81","37.85","-81.45","A","GD"
"25177","WV","Saint Albans","Kanawha","54","39","38.38","-81.83","A","GD"
"25180","WV","Saxon","Raleigh","54","81","37.8","-81.42","A","GD"
"25181","WV","Seth","Boone","54","5","38.07","-81.63","A","GD"
"25183","WV","Sharples","Logan","54","45","37.91","-81.82","A","POB"
"25185","WV","Mount Olive","Fayette","54","19","38.24","-81.24","A","PVT"
"25186","WV","Smithers","Fayette","54","19","38.18","-81.3","A","POB"
"25187","WV","Southside","Mason","54","53","38.75","-82.02","A","GD"
"25193","WV","Sylvester","Boone","54","5","38.03","-81.53","A","GD"
"25201","WV","Tad","Kanawha","54","39","38.34","-81.49","A","POB"
"25202","WV","Tornado","Kanawha","54","39","38.32","-81.84","A","GD"
"25203","WV","Turtle Creek","Boone","54","5","38.01","-81.89","A","GD"
"25204","WV","Twilight","Boone","54","5","37.93","-81.61","A","GD"
"25205","WV","Uneeda","Boone","54","5","38.02","-81.77","A","POB"
"25206","WV","Van","Boone","54","5","37.97","-81.71","A","GD"
"25208","WV","Wharton","Boone","54","5","37.87","-81.64","A","GD"
"25209","WV","Whitesville","Boone","54","5","37.97","-81.53","A","GD"
"25211","WV","Widen","Clay","54","15","38.46","-80.88","A","POB"
"25213","WV","Winfield","Putnam","54","79","38.51","-81.9","A","GD"
"25214","WV","Winifrede","Kanawha","54","39","38.19","-81.56","A","GD"
"25231","WV","Advent","Jackson","54","35","38.62","-81.57","A","GD"
"25234","WV","Arnoldsburg","Calhoun","54","13","38.81","-81.15","A","GD"
"25235","WV","Chloe","Calhoun","54","13","38.66","-81.08","A","GD"
"25239","WV","Cottageville","Jackson","54","35","38.86","-81.84","A","GD"
"25241","WV","Evans","Jackson","54","35","38.79","-81.81","A","GD"
"25243","WV","Gandeeville","Roane","54","87","38.69","-81.46","A","GD"
"25244","WV","Gay","Jackson","54","35","38.77","-81.55","A","GD"
"25245","WV","Given","Jackson","54","35","38.7","-81.76","A","GD"
"25247","WV","Hartford","Mason","54","53","39.01","-81.99","A","POB"
"25248","WV","Kenna","Jackson","54","35","38.63","-81.62","A","GD"
"25251","WV","Left Hand","Roane","54","87","38.6","-81.22","A","GD"
"25252","WV","Le Roy","Jackson","54","35","38.87","-81.55","A","GD"
"25253","WV","Letart","Mason","54","53","38.92","-81.96","A","GD"
"25259","WV","Looneyville","Roane","54","87","38.67","-81.25","A","GD"
"25260","WV","Mason","Mason","54","53","39.02","-82.03","A","GD"
"25261","WV","Millstone","Calhoun","54","13","38.83","-81.09","A","GD"
"25262","WV","Millwood","Jackson","54","35","38.91","-81.83","A","GD"
"25264","WV","Mount Alto","Mason","54","53","38.86","-81.9","A","GD"
"25265","WV","New Haven","Mason","54","53","38.99","-81.96","A","POB"
"25266","WV","Newton","Roane","54","87","38.6","-81.16","A","GD"
"25267","WV","Normantown","Gilmer","54","21","38.85","-80.95","A","GD"
"25268","WV","Orma","Calhoun","54","13","38.74","-81.1","A","GD"
"25270","WV","Reedy","Roane","54","87","38.88","-81.43","A","GD"
"25271","WV","Ripley","Jackson","54","35","38.8","-81.7","A","GD"
"25275","WV","Sandyville","Jackson","54","35","38.92","-81.62","A","GD"
"25276","WV","Spencer","Roane","54","87","38.8","-81.34","A","GD"
"25285","WV","Wallback","Clay","54","15","38.54","-81.12","A","GD"
"25286","WV","Walton","Roane","54","87","38.62","-81.41","A","GD"
"25287","WV","West Columbia","Mason","54","53","38.96","-82.07","A","GD"
"25301","WV","Charleston","Kanawha","54","39","38.35","-81.63","A","GD"
"25302","WV","Charleston","Kanawha","54","39","38.37","-81.63","A","GD"
"25303","WV","South Charleston","Kanawha","54","39","38.36","-81.69","A","GD"
"25304","WV","Charleston","Kanawha","54","39","38.32","-81.59","A","GD"
"25305","WV","Charleston","Kanawha","54","39","38.34","-81.61","A","GD"
"25306","WV","Charleston","Kanawha","54","39","38.31","-81.53","A","GD"
"25309","WV","South Charleston","Kanawha","54","39","38.33","-81.74","A","GD"
"25311","WV","Charleston","Kanawha","54","39","38.36","-81.58","A","GD"
"25312","WV","Charleston","Kanawha","54","39","38.43","-81.67","A","GD"
"25313","WV","Charleston","Kanawha","54","39","38.42","-81.76","A","GD"
"25314","WV","Charleston","Kanawha","54","39","38.33","-81.66","A","GD"
"25315","WV","Charleston","Kanawha","54","39","38.24","-81.56","A","GD"
"25317","WV","Charleston","Kanawha","54","39","38.36","-81.57","A","PVT"
"25320","WV","Charleston","Kanawha","54","39","38.53","-81.63","A","GD"
"25321","WV","Charleston","Kanawha","54","39","38.35","-81.63","A","POB"
"25322","WV","Charleston","Kanawha","54","39","38.35","-81.63","A","POB"
"25323","WV","Charleston","Kanawha","54","39","38.35","-81.63","A","POB"
"25324","WV","Charleston","Kanawha","54","39","38.35","-81.63","A","POB"
"25325","WV","Charleston","Kanawha","54","39","38.35","-81.63","A","POB"
"25326","WV","Charleston","Kanawha","54","39","38.33","-81.6","A","POB"
"25327","WV","Charleston","Kanawha","54","39","38.35","-81.63","A","POB"
"25328","WV","Charleston","Kanawha","54","39","38.35","-81.63","A","POB"
"25329","WV","Charleston","Kanawha","54","39","38.35","-81.63","A","POB"
"25330","WV","Charleston","Kanawha","54","39","38.35","-81.63","A","POB"
"25331","WV","Charleston","Kanawha","54","39","38.35","-81.63","A","POB"
"25332","WV","Charleston","Kanawha","54","39","38.35","-81.63","A","POB"
"25333","WV","Charleston","Kanawha","54","39","38.35","-81.63","A","POB"
"25334","WV","Charleston","Kanawha","54","39","38.35","-81.63","A","POB"
"25335","WV","Charleston","Kanawha","54","39","38.35","-81.63","A","POB"
"25336","WV","Charleston","Kanawha","54","39","38.35","-81.63","A","POB"
"25337","WV","Charleston","Kanawha","54","39","38.35","-81.63","A","POB"
"25338","WV","Charleston","Kanawha","54","39","38.35","-81.63","A","POB"
"25339","WV","Charleston","Kanawha","54","39","38.35","-81.63","A","POB"
"25350","WV","Charleston","Kanawha","54","39","38.35","-81.63","A","POB"
"25356","WV","Charleston","Kanawha","54","39","38.45","-81.75","A","POB"
"25357","WV","Charleston","Kanawha","54","39","38.42","-81.69","A","POB"
"25358","WV","Charleston","Kanawha","54","39","38.33","-81.75","A","POB"
"25360","WV","Charleston","Kanawha","54","39","38.45","-81.67","A","POB"
"25361","WV","Charleston","Kanawha","54","39","38.36","-81.55","A","POB"
"25362","WV","Charleston","Kanawha","54","39","38.4","-81.59","A","POB"
"25364","WV","Charleston","Kanawha","54","39","38.32","-81.6","A","POB"
"25365","WV","Charleston","Kanawha","54","39","38.23","-81.57","A","POB"
"25375","WV","Charleston","Kanawha","54","39","38.35","-81.63","A","POB"
"25387","WV","Charleston","Kanawha","54","39","38.35","-81.63","A","GD"
"25389","WV","Charleston","Kanawha","54","39","38.37","-81.67","A","GD"
"25392","WV","Charleston","Kanawha","54","39","38.35","-81.63","A","PVT"
"25396","WV","Charleston","Kanawha","54","39","38.35","-81.63","A","PVT"
"25401","WV","Martinsburg","Berkeley","54","3","39.46","-77.97","A","GD"
"25402","WV","Martinsburg","Berkeley","54","3","39.46","-77.97","A","POB"
"25403","WV","Martinsburg","Berkeley","54","3","39.49","-77.99","A","GD"
"25404","WV","Martinsburg","Berkeley","54","3","39.48","-77.93","A","GD"
"25405","WV","Martinsburg","Berkeley","54","3","39.42","-77.96","A","GD"
"25410","WV","Bakerton","Jefferson","54","37","39.33","-77.78","A","POB"
"25411","WV","Berkeley Springs","Morgan","54","65","39.57","-78.23","A","GD"
"25413","WV","Bunker Hill","Berkeley","54","3","39.32","-78.05","A","GD"
"25414","WV","Charles Town","Jefferson","54","37","39.27","-77.86","A","GD"
"25419","WV","Falling Waters","Berkeley","54","3","39.59","-77.89","A","GD"
"25420","WV","Gerrardstown","Berkeley","54","3","39.38","-78.11","A","GD"
"25421","WV","Glengary","Berkeley","54","3","39.38","-78.14","A","GD"
"25422","WV","Great Cacapon","Morgan","54","65","39.56","-78.36","A","GD"
"25423","WV","Halltown","Jefferson","54","37","39.31","-77.8","A","POB"
"25425","WV","Harpers Ferry","Jefferson","54","37","39.28","-77.78","A","GD"
"25427","WV","Hedgesville","Berkeley","54","3","39.54","-78.06","A","GD"
"25428","WV","Inwood","Berkeley","54","3","39.37","-78.03","A","GD"
"25430","WV","Kearneysville","Jefferson","54","37","39.35","-77.92","A","GD"
"25431","WV","Levels","Hampshire","54","27","39.49","-78.57","A","GD"
"25432","WV","Millville","Jefferson","54","37","39.31","-77.78","A","GD"
"25434","WV","Paw Paw","Morgan","54","65","39.47","-78.45","A","GD"
"25437","WV","Points","Hampshire","54","27","39.43","-78.58","A","GD"
"25438","WV","Ranson","Jefferson","54","37","39.31","-77.86","A","GD"
"25440","WV","Ridgeway","Berkeley","54","3","39.3","-78.07","A","POB"
"25441","WV","Rippon","Jefferson","54","37","39.23","-77.92","A","POB"
"25442","WV","Shenandoah Junction","Jefferson","54","37","39.36","-77.83","A","GD"
"25443","WV","Shepherdstown","Jefferson","54","37","39.44","-77.81","A","GD"
"25444","WV","Slanesville","Hampshire","54","27","39.41","-78.52","A","GD"
"25446","WV","Summit Point","Jefferson","54","37","39.24","-77.96","A","GD"
"25501","WV","Alkol","Lincoln","54","43","38.16","-81.94","A","GD"
"25502","WV","Apple Grove","Mason","54","53","38.66","-82.14","A","GD"
"25503","WV","Ashton","Mason","54","53","38.61","-82.13","A","GD"
"25504","WV","Barboursville","Cabell","54","11","38.39","-82.29","A","GD"
"25505","WV","Big Creek","Logan","54","45","38.01","-82.04","A","GD"
"25506","WV","Branchland","Lincoln","54","43","38.21","-82.19","A","GD"
"25507","WV","Ceredo","Wayne","54","99","38.4","-82.56","A","POB"
"25508","WV","Chapmanville","Logan","54","45","37.97","-82.02","A","GD"
"25510","WV","Culloden","Cabell","54","11","38.4","-82.06","A","GD"
"25511","WV","Dunlow","Wayne","54","99","38.04","-82.35","A","GD"
"25512","WV","East Lynn","Wayne","54","99","38.18","-82.33","A","GD"
"25514","WV","Fort Gay","Wayne","54","99","38.11","-82.56","A","GD"
"25515","WV","Gallipolis Ferry","Mason","54","53","38.76","-82.17","A","GD"
"25517","WV","Genoa","Wayne","54","99","38.11","-82.47","A","GD"
"25520","WV","Glenwood","Mason","54","53","38.58","-82.17","A","GD"
"25521","WV","Griffithsville","Lincoln","54","43","38.23","-82","A","GD"
"25523","WV","Hamlin","Lincoln","54","43","38.28","-82.09","A","GD"
"25524","WV","Harts","Lincoln","54","43","38.02","-82.12","A","GD"
"25526","WV","Hurricane","Putnam","54","79","38.43","-81.99","A","GD"
"25529","WV","Julian","Boone","54","5","38.15","-81.85","A","GD"
"25530","WV","Kenova","Wayne","54","99","38.39","-82.57","A","GD"
"25534","WV","Kiahsville","Wayne","54","99","38.09","-82.28","A","GD"
"25535","WV","Lavalette","Wayne","54","99","38.31","-82.43","A","GD"
"25537","WV","Lesage","Cabell","54","11","38.53","-82.28","A","GD"
"25540","WV","Midkiff","Lincoln","54","43","38.16","-82.14","A","GD"
"25541","WV","Milton","Cabell","54","11","38.44","-82.13","A","GD"
"25544","WV","Myra","Lincoln","54","43","38.23","-82.13","A","GD"
"25545","WV","Ona","Cabell","54","11","38.43","-82.22","A","GD"
"25547","WV","Pecks Mill","Logan","54","45","37.93","-81.97","A","GD"
"25550","WV","Point Pleasant","Mason","54","53","38.87","-82.11","A","GD"
"25555","WV","Prichard","Wayne","54","99","38.24","-82.56","A","GD"
"25557","WV","Ranger","Lincoln","54","43","38.09","-82.15","A","GD"
"25559","WV","Salt Rock","Cabell","54","11","38.33","-82.23","A","GD"
"25560","WV","Scott Depot","Putnam","54","79","38.45","-81.9","A","GD"
"25562","WV","Shoals","Wayne","54","99","38.33","-82.48","A","POB"
"25564","WV","Sod","Lincoln","54","43","38.27","-81.89","A","GD"
"25565","WV","Spurlockville","Lincoln","54","43","38.1","-81.96","A","GD"
"25567","WV","Sumerco","Lincoln","54","43","38.22","-81.88","A","GD"
"25569","WV","Teays","Putnam","54","79","38.45","-81.93","A","POB"
"25570","WV","Wayne","Wayne","54","99","38.22","-82.43","A","GD"
"25571","WV","West Hamlin","Lincoln","54","43","38.3","-82.17","A","GD"
"25572","WV","Woodville","Boone","54","5","38.16","-81.89","A","GD"
"25573","WV","Yawkey","Lincoln","54","43","38.22","-81.94","A","GD"
"25601","WV","Logan","Logan","54","45","37.86","-81.99","A","GD"
"25606","WV","Accoville","Logan","54","45","37.77","-81.84","A","POB"
"25607","WV","Amherstdale","Logan","54","45","37.79","-81.8","A","GD"
"25608","WV","Baisden","Mingo","54","59","37.56","-81.9","A","GD"
"25611","WV","Bruno","Logan","54","45","37.69","-81.85","A","POB"
"25612","WV","Chauncey","Logan","54","45","37.77","-81.99","A","GD"
"25614","WV","Cora","Logan","54","45","37.85","-81.99","A","POB"
"25617","WV","Davin","Logan","54","45","37.73","-81.79","A","GD"
"25621","WV","Gilbert","Mingo","54","59","37.62","-81.89","A","GD"
"25624","WV","Henlawson","Logan","54","45","37.9","-81.98","A","POB"
"25625","WV","Holden","Logan","54","45","37.82","-82.08","A","GD"
"25628","WV","Kistler","Logan","54","45","37.76","-81.86","A","POB"
"25630","WV","Lorado","Logan","54","45","37.8","-81.71","A","POB"
"25632","WV","Lyburn","Logan","54","45","37.77","-81.92","A","GD"
"25634","WV","Mallory","Logan","54","45","37.73","-81.86","A","POB"
"25635","WV","Man","Logan","54","45","37.73","-81.88","A","GD"
"25637","WV","Mount Gay","Logan","54","45","37.85","-82.02","A","POB"
"25638","WV","Omar","Logan","54","45","37.73","-82.01","A","GD"
"25639","WV","Peach Creek","Logan","54","45","37.88","-81.97","A","POB"
"25644","WV","Sarah Ann","Logan","54","45","37.71","-82.01","A","POB"
"25646","WV","Stollings","Logan","54","45","37.82","-81.91","A","POB"
"25647","WV","Switzer","Logan","54","45","37.79","-81.99","A","POB"
"25649","WV","Verdunville","Logan","54","45","37.86","-82.07","A","POB"
"25650","WV","Verner","Mingo","54","59","37.67","-81.85","A","GD"
"25651","WV","Wharncliffe","Mingo","54","59","37.57","-81.97","A","GD"
"25652","WV","Whitman","Logan","54","45","37.8","-82.05","A","POB"
"25653","WV","Wilkinson","Logan","54","45","37.83","-82","A","POB"
"25654","WV","Yolyn","Logan","54","45","37.82","-81.88","A","GD"
"25661","WV","Williamson","Mingo","54","59","37.71","-82.28","A","GD"
"25665","WV","Borderland","Mingo","54","59","37.71","-82.31","A","POB"
"25666","WV","Breeden","Mingo","54","59","37.92","-82.25","A","GD"
"25667","WV","Chattaroy","Mingo","54","59","37.71","-82.27","A","POB"
"25669","WV","Crum","Wayne","54","99","37.92","-82.45","A","GD"
"25670","WV","Delbarton","Mingo","54","59","37.71","-82.14","A","GD"
"25671","WV","Dingess","Mingo","54","59","37.88","-82.19","A","GD"
"25672","WV","Edgarton","Mingo","54","59","37.57","-82.13","A","GD"
"25674","WV","Kermit","Mingo","54","59","37.86","-82.38","A","GD"
"25676","WV","Lenore","Mingo","54","59","37.82","-82.23","A","GD"
"25678","WV","Matewan","Mingo","54","59","37.6","-82.14","A","GD"
"25685","WV","Naugatuck","Mingo","54","59","37.81","-82.27","A","POB"
"25686","WV","Newtown","Mingo","54","59","37.65","-82.13","A","POB"
"25688","WV","North Matewan","Mingo","54","59","37.63","-82.15","A","POB"
"25690","WV","Ragland","Mingo","54","59","37.7","-82.13","A","POB"
"25691","WV","Rawl","Mingo","54","59","37.65","-82.22","A","POB"
"25692","WV","Red Jacket","Mingo","54","59","37.64","-82.12","A","POB"
"25696","WV","Varney","Mingo","54","59","37.67","-82.12","A","POB"
"25699","WV","Wilsondale","Wayne","54","99","37.97","-82.34","A","GD"
"25701","WV","Huntington","Cabell","54","11","38.4","-82.44","A","GD"
"25702","WV","Huntington","Cabell","54","11","38.43","-82.37","A","GD"
"25703","WV","Huntington","Cabell","54","11","38.42","-82.42","A","GD"
"25704","WV","Huntington","Wayne","54","99","38.38","-82.51","A","GD"
"25705","WV","Huntington","Cabell","54","11","38.41","-82.37","A","GD"
"25706","WV","Huntington","Cabell","54","11","38.4","-82.45","A","POB"
"25707","WV","Huntington","Cabell","54","11","38.4","-82.45","A","POB"
"25708","WV","Huntington","Cabell","54","11","38.42","-82.44","A","POB"
"25709","WV","Huntington","Cabell","54","11","38.42","-82.44","A","POB"
"25710","WV","Huntington","Cabell","54","11","38.42","-82.44","A","POB"
"25711","WV","Huntington","Cabell","54","11","38.4","-82.45","A","POB"
"25712","WV","Huntington","Cabell","54","11","38.4","-82.45","A","POB"
"25713","WV","Huntington","Cabell","54","11","38.4","-82.45","A","POB"
"25714","WV","Huntington","Cabell","54","11","38.4","-82.45","A","POB"
"25715","WV","Huntington","Cabell","54","11","38.4","-82.45","A","POB"
"25716","WV","Huntington","Cabell","54","11","38.4","-82.45","A","POB"
"25717","WV","Huntington","Cabell","54","11","38.42","-82.44","A","POB"
"25718","WV","Huntington","Cabell","54","11","38.42","-82.44","A","POB"
"25719","WV","Huntington","Cabell","54","11","38.42","-82.44","A","POB"
"25720","WV","Huntington","Cabell","54","11","38.4","-82.45","A","POB"
"25721","WV","Huntington","Cabell","54","11","38.42","-82.44","A","POB"
"25722","WV","Huntington","Cabell","54","11","38.42","-82.44","A","POB"
"25723","WV","Huntington","Cabell","54","11","38.42","-82.44","A","POB"
"25724","WV","Huntington","Cabell","54","11","38.42","-82.44","A","POB"
"25725","WV","Huntington","Cabell","54","11","38.4","-82.45","A","POB"
"25726","WV","Huntington","Cabell","54","11","38.42","-82.48","A","POB"
"25727","WV","Huntington","Cabell","54","11","38.42","-82.48","A","POB"
"25728","WV","Huntington","Cabell","54","11","38.4","-82.45","A","POB"
"25729","WV","Huntington","Cabell","54","11","38.4","-82.45","A","POB"
"25755","WV","Huntington","Cabell","54","11","38.42","-82.45","A","PVT"
"25770","WV","Huntington","Cabell","54","11","38.34","-82.52","A","POB"
"25771","WV","Huntington","Cabell","54","11","38.34","-82.52","A","POB"
"25772","WV","Huntington","Cabell","54","11","38.42","-82.48","A","POB"
"25773","WV","Huntington","Cabell","54","11","38.42","-82.48","A","POB"
"25774","WV","Huntington","Cabell","54","11","38.42","-82.48","A","POB"
"25775","WV","Huntington","Cabell","54","11","38.42","-82.48","A","POB"
"25776","WV","Huntington","Cabell","54","11","38.42","-82.48","A","POB"
"25777","WV","Huntington","Cabell","54","11","38.42","-82.48","A","POB"
"25778","WV","Huntington","Cabell","54","11","38.42","-82.48","A","POB"
"25779","WV","Huntington","Cabell","54","11","38.34","-82.52","A","POB"
"25801","WV","Beckley","Raleigh","54","81","37.79","-81.2","A","GD"
"25802","WV","Beckley","Raleigh","54","81","37.79","-81.22","A","POB"
"25810","WV","Allen Junction","Wyoming","54","109","37.59","-81.35","A","POB"
"25811","WV","Amigo","Wyoming","54","109","37.59","-81.31","A","GD"
"25812","WV","Ansted","Fayette","54","19","38.14","-81.11","A","GD"
"25813","WV","Beaver","Raleigh","54","81","37.76","-81.14","A","GD"
"25817","WV","Bolt","Raleigh","54","81","37.76","-81.41","A","GD"
"25818","WV","Bradley","Raleigh","54","81","37.86","-81.19","A","POB"
"25820","WV","Camp Creek","Mercer","54","55","37.5","-81.12","A","GD"
"25823","WV","Coal City","Raleigh","54","81","37.66","-81.2","A","GD"
"25825","WV","Cool Ridge","Raleigh","54","81","37.65","-81.09","A","GD"
"25826","WV","Corinne","Wyoming","54","109","37.57","-81.36","A","POB"
"25827","WV","Crab Orchard","Raleigh","54","81","37.74","-81.24","A","GD"
"25831","WV","Danese","Fayette","54","19","37.95","-80.92","A","GD"
"25832","WV","Daniels","Raleigh","54","81","37.73","-81.11","A","GD"
"25833","WV","Dothan","Fayette","54","19","37.99","-81.21","A","POB"
"25836","WV","Eccles","Raleigh","54","81","37.78","-81.27","A","POB"
"25837","WV","Edmond","Fayette","54","19","38.05","-81.02","A","GD"
"25839","WV","Fairdale","Raleigh","54","81","37.78","-81.37","A","GD"
"25840","WV","Fayetteville","Fayette","54","19","38.05","-81.11","A","GD"
"25841","WV","Flat Top","Mercer","54","55","37.55","-81.07","A","GD"
"25843","WV","Ghent","Raleigh","54","81","37.62","-81.11","A","GD"
"25844","WV","Glen Daniel","Raleigh","54","81","37.79","-81.36","A","GD"
"25845","WV","Glen Fork","Wyoming","54","109","37.69","-81.53","A","GD"
"25846","WV","Glen Jean","Fayette","54","19","37.92","-81.15","A","GD"
"25848","WV","Glen Rogers","Wyoming","54","109","37.72","-81.43","A","GD"
"25849","WV","Glen White","Raleigh","54","81","37.73","-81.28","A","POB"
"25851","WV","Harper","Raleigh","54","81","37.8","-81.26","A","POB"
"25853","WV","Helen","Raleigh","54","81","37.64","-81.31","A","POB"
"25854","WV","Hico","Fayette","54","19","38.13","-80.99","A","GD"
"25855","WV","Hilltop","Fayette","54","19","37.94","-81.16","A","GD"
"25857","WV","Josephine","Raleigh","54","81","37.61","-81.26","A","GD"
"25860","WV","Lanark","Raleigh","54","81","37.83","-81.15","A","POB"
"25862","WV","Lansing","Fayette","54","19","38.08","-81.06","A","GD"
"25864","WV","Layland","Fayette","54","19","37.88","-81.04","A","GD"
"25865","WV","Lester","Raleigh","54","81","37.74","-81.33","A","GD"
"25866","WV","Lochgelly","Fayette","54","19","38.01","-81.15","A","POB"
"25868","WV","Lookout","Fayette","54","19","38.07","-80.96","A","GD"
"25870","WV","Maben","Wyoming","54","109","37.63","-81.39","A","GD"
"25871","WV","Mabscott","Raleigh","54","81","37.77","-81.21","A","POB"
"25873","WV","Mac Arthur","Raleigh","54","81","37.75","-81.22","A","POB"
"25875","WV","Mc Graws","Wyoming","54","109","37.68","-81.46","A","POB"
"25876","WV","Saulsville","Wyoming","54","109","37.64","-81.44","A","GD"
"25878","WV","Midway","Raleigh","54","81","37.72","-81.23","A","POB"
"25879","WV","Minden","Fayette","54","19","37.98","-81.11","A","POB"
"25880","WV","Mount Hope","Fayette","54","19","37.88","-81.2","A","GD"
"25882","WV","Mullens","Wyoming","54","109","37.6","-81.38","A","GD"
"25888","WV","Mount Hope","Fayette","54","19","37.89","-81.17","A","PVT"
"25901","WV","Oak Hill","Fayette","54","19","37.98","-81.14","A","GD"
"25902","WV","Odd","Raleigh","54","81","37.6","-81.21","A","GD"
"25904","WV","Pax","Fayette","54","19","37.92","-81.27","A","POB"
"25906","WV","Piney View","Raleigh","54","81","37.84","-81.11","A","POB"
"25907","WV","Prince","Fayette","54","19","37.86","-81.07","A","POB"
"25908","WV","Princewick","Raleigh","54","81","37.68","-81.25","A","GD"
"25909","WV","Prosperity","Raleigh","54","81","37.83","-81.21","A","POB"
"25911","WV","Raleigh","Raleigh","54","81","37.76","-81.17","A","POB"
"25913","WV","Ravencliff","Wyoming","54","109","37.7","-81.48","A","GD"
"25915","WV","Rhodell","Raleigh","54","81","37.62","-81.29","A","GD"
"25916","WV","Sabine","Wyoming","54","109","37.68","-81.5","A","POB"
"25917","WV","Scarbro","Fayette","54","19","37.97","-81.24","A","GD"
"25918","WV","Shady Spring","Raleigh","54","81","37.75","-81.01","A","GD"
"25919","WV","Skelton","Raleigh","54","81","37.8","-81.18","A","POB"
"25920","WV","Slab Fork","Raleigh","54","81","37.69","-81.34","A","GD"
"25921","WV","Sophia","Raleigh","54","81","37.69","-81.27","A","POB"
"25922","WV","Spanishburg","Mercer","54","55","37.47","-81.1","A","GD"
"25927","WV","Stanaford","Raleigh","54","81","37.82","-81.16","A","POB"
"25928","WV","Stephenson","Wyoming","54","109","37.56","-81.34","A","GD"
"25932","WV","Surveyor","Raleigh","54","81","37.77","-81.32","A","GD"
"25936","WV","Thurmond","Fayette","54","19","37.93","-81.06","A","GD"
"25938","WV","Victor","Fayette","54","19","38.14","-81.05","A","GD"
"25942","WV","Winona","Fayette","54","19","38.04","-81","A","POB"
"25943","WV","Wyco","Wyoming","54","109","37.6","-81.34","A","POB"
"25951","WV","Hinton","Summers","54","89","37.66","-80.86","A","GD"
"25958","WV","Charmco","Greenbrier","54","25","38.01","-80.74","A","GD"
"25962","WV","Rainelle","Greenbrier","54","25","37.97","-80.79","A","GD"
"25966","WV","Green Sulphur Springs","Summers","54","89","37.8","-80.83","A","POB"
"25969","WV","Jumping Branch","Summers","54","89","37.62","-80.99","A","GD"
"25971","WV","Lerona","Mercer","54","55","37.49","-81","A","GD"
"25972","WV","Leslie","Greenbrier","54","25","38.04","-80.73","A","POB"
"25976","WV","Meadow Bridge","Fayette","54","19","37.85","-80.83","A","GD"
"25977","WV","Meadow Creek","Summers","54","89","37.8","-80.9","A","GD"
"25978","WV","Nimitz","Summers","54","89","37.62","-80.94","A","GD"
"25979","WV","Pipestem","Summers","54","89","37.53","-80.93","A","GD"
"25981","WV","Quinwood","Greenbrier","54","25","38.07","-80.7","A","GD"
"25984","WV","Rupert","Greenbrier","54","25","37.99","-80.64","A","GD"
"25985","WV","Sandstone","Summers","54","89","37.78","-80.85","A","GD"
"25986","WV","Spring Dale","Fayette","54","19","37.87","-80.81","A","POB"
"25989","WV","White Oak","Raleigh","54","81","37.68","-81.07","A","GD"
"26003","WV","Wheeling","Ohio","54","69","40.07","-80.69","A","GD"
"26030","WV","Beech Bottom","Brooke","54","9","40.23","-80.65","A","POB"
"26031","WV","Benwood","Marshall","54","51","40.01","-80.73","A","GD"
"26032","WV","Bethany","Brooke","54","9","40.2","-80.55","A","GD"
"26033","WV","Cameron","Marshall","54","51","39.83","-80.58","A","GD"
"26034","WV","Chester","Hancock","54","29","40.61","-80.56","A","GD"
"26035","WV","Colliers","Brooke","54","9","40.36","-80.56","A","GD"
"26036","WV","Dallas","Marshall","54","51","39.98","-80.54","A","GD"
"26037","WV","Follansbee","Brooke","54","9","40.33","-80.59","A","GD"
"26038","WV","Glen Dale","Marshall","54","51","39.95","-80.75","A","GD"
"26039","WV","Glen Easton","Marshall","54","51","39.8","-80.67","A","GD"
"26040","WV","Mcmechen","Marshall","54","51","39.99","-80.73","A","GD"
"26041","WV","Moundsville","Marshall","54","51","39.91","-80.73","A","GD"
"26047","WV","New Cumberland","Hancock","54","29","40.52","-80.6","A","GD"
"26050","WV","Newell","Hancock","54","29","40.62","-80.61","A","GD"
"26055","WV","Proctor","Marshall","54","51","39.77","-80.8","A","GD"
"26056","WV","New Manchester","Hancock","54","29","40.53","-80.58","A","POB"
"26058","WV","Short Creek","Brooke","54","9","40.19","-80.67","A","POB"
"26059","WV","Triadelphia","Ohio","54","69","40.06","-80.61","A","GD"
"26060","WV","Valley Grove","Ohio","54","69","40.1","-80.55","A","GD"
"26062","WV","Weirton","Hancock","54","29","40.41","-80.58","A","GD"
"26070","WV","Wellsburg","Brooke","54","9","40.27","-80.6","A","GD"
"26074","WV","West Liberty","Ohio","54","69","40.17","-80.6","A","POB"
"26075","WV","Windsor Heights","Brooke","54","9","40.19","-80.67","A","POB"
"26101","WV","Parkersburg","Wood","54","107","39.26","-81.55","A","GD"
"26102","WV","Parkersburg","Wood","54","107","39.24","-81.52","A","POB"
"26103","WV","Parkersburg","Wood","54","107","39.25","-81.56","A","POB"
"26104","WV","Parkersburg","Wood","54","107","39.28","-81.5","A","GD"
"26105","WV","Vienna","Wood","54","107","39.33","-81.54","A","GD"
"26106","WV","Parkersburg","Wood","54","107","39.32","-81.5","A","PVT"
"26120","WV","Mineral Wells","Wood","54","107","39.17","-81.49","A","PVT"
"26121","WV","Mineral Wells","Wood","54","107","39.17","-81.49","A","PVT"
"26133","WV","Belleville","Wood","54","107","39.13","-81.69","A","GD"
"26134","WV","Belmont","Pleasants","54","73","39.37","-81.28","A","GD"
"26136","WV","Big Bend","Calhoun","54","13","38.96","-81.16","A","GD"
"26137","WV","Big Springs","Calhoun","54","13","39.01","-81.05","A","GD"
"26138","WV","Brohard","Wirt","54","105","39.03","-81.2","A","GD"
"26141","WV","Creston","Wirt","54","105","38.92","-81.26","A","GD"
"26142","WV","Davisville","Wood","54","107","39.21","-81.45","A","GD"
"26143","WV","Elizabeth","Wirt","54","105","39.07","-81.38","A","GD"
"26146","WV","Friendly","Tyler","54","95","39.46","-81.05","A","GD"
"26147","WV","Grantsville","Calhoun","54","13","38.91","-81.07","A","GD"
"26148","WV","Macfarlan","Ritchie","54","85","39.06","-81.18","A","GD"
"26149","WV","Middlebourne","Tyler","54","95","39.47","-80.9","A","GD"
"26150","WV","Mineral Wells","Wood","54","107","39.17","-81.53","A","GD"
"26151","WV","Mount Zion","Calhoun","54","13","38.88","-81.16","A","GD"
"26152","WV","Munday","Calhoun","54","13","39.01","-81.2","A","GD"
"26155","WV","New Martinsville","Wetzel","54","103","39.64","-80.82","A","GD"
"26159","WV","Paden City","Wetzel","54","103","39.6","-80.93","A","GD"
"26160","WV","Palestine","Wirt","54","105","38.98","-81.41","A","GD"
"26161","WV","Petroleum","Ritchie","54","85","39.16","-81.26","A","GD"
"26162","WV","Porters Falls","Wetzel","54","103","39.58","-80.77","A","GD"
"26164","WV","Ravenswood","Jackson","54","35","38.97","-81.74","A","GD"
"26167","WV","Reader","Wetzel","54","103","39.56","-80.73","A","GD"
"26169","WV","Rockport","Wood","54","107","39.07","-81.57","A","GD"
"26170","WV","Saint Marys","Pleasants","54","73","39.37","-81.19","A","GD"
"26175","WV","Sistersville","Tyler","54","95","39.55","-80.98","A","GD"
"26178","WV","Smithville","Ritchie","54","85","39.07","-81.05","A","GD"
"26180","WV","Walker","Wood","54","107","39.19","-81.38","A","GD"
"26181","WV","Washington","Wood","54","107","39.23","-81.67","A","GD"
"26184","WV","Waverly","Wood","54","107","39.31","-81.37","A","GD"
"26187","WV","Williamstown","Wood","54","107","39.38","-81.45","A","GD"
"26201","WV","Buckhannon","Upshur","54","97","38.99","-80.21","A","GD"
"26202","WV","Fenwick","Nicholas","54","67","38.22","-80.61","A","GD"
"26203","WV","Erbacon","Webster","54","101","38.53","-80.58","A","GD"
"26205","WV","Craigsville","Nicholas","54","67","38.33","-80.65","A","GD"
"26206","WV","Cowen","Webster","54","101","38.42","-80.54","A","GD"
"26208","WV","Camden On Gauley","Webster","54","101","38.34","-80.54","A","GD"
"26209","WV","Snowshoe","Pocahontas","54","75","38.42","-80","A","POB"
"26210","WV","Adrian","Upshur","54","97","38.92","-80.3","A","GD"
"26215","WV","Cleveland","Upshur","54","97","38.71","-80.4","A","GD"
"26217","WV","Diana","Webster","54","101","38.6","-80.47","A","GD"
"26218","WV","French Creek","Upshur","54","97","38.85","-80.28","A","GD"
"26219","WV","Frenchton","Upshur","54","97","38.84","-80.26","A","POB"
"26222","WV","Hacker Valley","Webster","54","101","38.66","-80.38","A","GD"
"26224","WV","Helvetia","Randolph","54","83","38.73","-80.18","A","GD"
"26228","WV","Kanawha Head","Upshur","54","97","38.75","-80.38","A","GD"
"26229","WV","Lorentz","Upshur","54","97","39.01","-80.3","A","POB"
"26230","WV","Pickens","Randolph","54","83","38.66","-80.22","A","GD"
"26234","WV","Rock Cave","Upshur","54","97","38.78","-80.32","A","GD"
"26236","WV","Selbyville","Upshur","54","97","38.75","-80.23","A","GD"
"26237","WV","Tallmansville","Upshur","54","97","38.85","-80.16","A","GD"
"26238","WV","Volga","Barbour","54","1","39.1","-80.16","A","GD"
"26241","WV","Elkins","Randolph","54","83","38.92","-79.84","A","GD"
"26250","WV","Belington","Barbour","54","1","39.03","-79.95","A","GD"
"26253","WV","Beverly","Randolph","54","83","38.82","-79.88","A","GD"
"26254","WV","Bowden","Randolph","54","83","38.89","-79.66","A","GD"
"26257","WV","Coalton","Randolph","54","83","38.91","-79.98","A","GD"
"26259","WV","Dailey","Randolph","54","83","38.8","-79.9","A","POB"
"26260","WV","Davis","Tucker","54","93","39.1","-79.43","A","GD"
"26261","WV","Richwood","Nicholas","54","67","38.22","-80.55","A","GD"
"26263","WV","Dryfork","Randolph","54","83","38.97","-79.47","A","GD"
"26264","WV","Durbin","Pocahontas","54","75","38.55","-79.83","A","GD"
"26266","WV","Upperglade","Webster","54","101","38.41","-80.5","A","GD"
"26267","WV","Ellamore","Randolph","54","83","38.92","-80.07","A","GD"
"26268","WV","Glady","Randolph","54","83","38.76","-79.74","A","GD"
"26269","WV","Hambleton","Tucker","54","93","39.1","-79.63","A","GD"
"26270","WV","Harman","Randolph","54","83","38.9","-79.55","A","GD"
"26271","WV","Hendricks","Tucker","54","93","39.05","-79.58","A","GD"
"26273","WV","Huttonsville","Randolph","54","83","38.66","-79.94","A","GD"
"26275","WV","Junior","Barbour","54","1","38.98","-79.95","A","POB"
"26276","WV","Kerens","Randolph","54","83","39.01","-79.78","A","GD"
"26278","WV","Mabie","Randolph","54","83","38.83","-80.01","A","GD"
"26280","WV","Mill Creek","Randolph","54","83","38.74","-79.99","A","GD"
"26282","WV","Monterville","Randolph","54","83","38.52","-80.15","A","GD"
"26283","WV","Montrose","Randolph","54","83","39.05","-79.82","A","GD"
"26285","WV","Norton","Randolph","54","83","38.92","-79.95","A","POB"
"26287","WV","Parsons","Tucker","54","93","39.15","-79.69","A","GD"
"26288","WV","Webster Springs","Webster","54","101","38.5","-80.38","A","GD"
"26289","WV","Red Creek","Tucker","54","93","39.02","-79.57","A","GD"
"26291","WV","Slatyfork","Pocahontas","54","75","38.41","-80.12","A","GD"
"26292","WV","Thomas","Tucker","54","93","39.15","-79.51","A","GD"
"26293","WV","Valley Bend","Randolph","54","83","38.78","-79.93","A","GD"
"26294","WV","Valley Head","Randolph","54","83","38.53","-80.04","A","GD"
"26296","WV","Whitmer","Randolph","54","83","38.76","-79.55","A","POB"
"26298","WV","Bergoo","Webster","54","101","38.48","-80.27","A","POB"
"26301","WV","Clarksburg","Harrison","54","33","39.28","-80.35","A","GD"
"26302","WV","Clarksburg","Harrison","54","33","39.27","-80.31","A","POB"
"26306","WV","Clarksburg","Harrison","54","33","39.28","-80.33","A","PVT"
"26320","WV","Alma","Tyler","54","95","39.42","-80.82","A","GD"
"26321","WV","Alum Bridge","Lewis","54","41","39.05","-80.69","A","GD"
"26323","WV","Anmoore","Harrison","54","33","39.26","-80.29","A","POB"
"26325","WV","Auburn","Ritchie","54","85","39.1","-80.86","A","GD"
"26327","WV","Berea","Ritchie","54","85","39.12","-80.94","A","GD"
"26330","WV","Bridgeport","Harrison","54","33","39.3","-80.24","A","GD"
"26335","WV","Burnsville","Braxton","54","7","38.85","-80.66","A","GD"
"26337","WV","Cairo","Ritchie","54","85","39.23","-81.16","A","GD"
"26338","WV","Camden","Lewis","54","41","39.08","-80.62","A","GD"
"26339","WV","Center Point","Doddridge","54","17","39.41","-80.6","A","GD"
"26342","WV","Coxs Mills","Gilmer","54","21","39.02","-80.87","A","GD"
"26343","WV","Crawford","Lewis","54","41","38.84","-80.42","A","GD"
"26346","WV","Ellenboro","Ritchie","54","85","39.28","-81.07","A","GD"
"26347","WV","Flemington","Taylor","54","91","39.25","-80.13","A","GD"
"26348","WV","Folsom","Wetzel","54","103","39.46","-80.55","A","GD"
"26349","WV","Galloway","Barbour","54","1","39.24","-80.13","A","POB"
"26351","WV","Glenville","Gilmer","54","21","38.94","-80.85","A","GD"
"26354","WV","Grafton","Taylor","54","91","39.34","-80.03","A","GD"
"26361","WV","Gypsy","Harrison","54","33","39.37","-80.32","A","POB"
"26362","WV","Harrisville","Ritchie","54","85","39.17","-81.05","A","GD"
"26366","WV","Haywood","Harrison","54","33","39.38","-80.34","A","POB"
"26369","WV","Hepzibah","Harrison","54","33","39.34","-80.33","A","POB"
"26372","WV","Horner","Lewis","54","41","38.97","-80.37","A","GD"
"26374","WV","Independence","Preston","54","77","39.45","-79.88","A","GD"
"26376","WV","Ireland","Lewis","54","41","38.77","-80.45","A","GD"
"26377","WV","Jacksonburg","Wetzel","54","103","39.5","-80.65","A","GD"
"26378","WV","Jane Lew","Lewis","54","41","39.11","-80.42","A","GD"
"26384","WV","Linn","Gilmer","54","21","38.98","-80.71","A","GD"
"26385","WV","Lost Creek","Harrison","54","33","39.16","-80.36","A","GD"
"26386","WV","Lumberport","Harrison","54","33","39.38","-80.37","A","GD"
"26404","WV","Meadowbrook","Harrison","54","33","39.34","-80.32","A","GD"
"26405","WV","Moatsville","Barbour","54","1","39.23","-79.91","A","GD"
"26408","WV","Mount Clare","Harrison","54","33","39.21","-80.3","A","GD"
"26410","WV","Newburg","Preston","54","77","39.4","-79.83","A","GD"
"26411","WV","New Milton","Doddridge","54","17","39.17","-80.71","A","GD"
"26412","WV","Orlando","Lewis","54","41","38.88","-80.59","A","GD"
"26415","WV","Pennsboro","Ritchie","54","85","39.29","-80.95","A","GD"
"26416","WV","Philippi","Barbour","54","1","39.16","-80.04","A","GD"
"26419","WV","Pine Grove","Wetzel","54","103","39.55","-80.67","A","GD"
"26421","WV","Pullman","Ritchie","54","85","39.18","-80.92","A","GD"
"26422","WV","Reynoldsville","Harrison","54","33","39.29","-80.44","A","POB"
"26424","WV","Rosemont","Taylor","54","91","39.27","-80.17","A","POB"
"26425","WV","Rowlesburg","Preston","54","77","39.32","-79.69","A","GD"
"26426","WV","Salem","Harrison","54","33","39.29","-80.56","A","GD"
"26430","WV","Sand Fork","Gilmer","54","21","38.89","-80.74","A","GD"
"26431","WV","Shinnston","Harrison","54","33","39.39","-80.29","A","GD"
"26434","WV","Shirley","Tyler","54","95","39.4","-80.77","A","POB"
"26435","WV","Simpson","Taylor","54","91","39.27","-80.09","A","POB"
"26436","WV","Smithburg","Doddridge","54","17","39.29","-80.74","A","POB"
"26437","WV","Smithfield","Wetzel","54","103","39.52","-80.54","A","GD"
"26438","WV","Spelter","Harrison","54","33","39.35","-80.32","A","POB"
"26440","WV","Thornton","Taylor","54","91","39.33","-79.9","A","GD"
"26443","WV","Troy","Gilmer","54","21","39.06","-80.77","A","GD"
"26444","WV","Tunnelton","Preston","54","77","39.36","-79.77","A","GD"
"26447","WV","Walkersville","Lewis","54","41","38.91","-80.48","A","GD"
"26448","WV","Wallace","Harrison","54","33","39.41","-80.49","A","GD"
"26451","WV","West Milford","Harrison","54","33","39.2","-80.4","A","GD"
"26452","WV","Weston","Lewis","54","41","39.04","-80.48","A","GD"
"26456","WV","West Union","Doddridge","54","17","39.29","-80.77","A","GD"
"26463","WV","Wyatt","Harrison","54","33","39.43","-80.35","A","POB"
"26501","WV","Morgantown","Monongalia","54","61","39.63","-79.99","A","GD"
"26502","WV","Morgantown","Monongalia","54","61","39.65","-79.92","A","POB"
"26504","WV","Morgantown","Monongalia","54","61","39.67","-79.98","A","POB"
"26505","WV","Morgantown","Monongalia","54","61","39.65","-79.95","A","GD"
"26506","WV","Morgantown","Monongalia","54","61","39.62","-79.97","A","GD"
"26507","WV","Morgantown","Monongalia","54","61","39.62","-79.91","A","POB"
"26508","WV","Morgantown","Monongalia","54","61","39.61","-79.9","A","GD"
"26519","WV","Albright","Preston","54","77","39.55","-79.64","A","GD"
"26520","WV","Arthurdale","Preston","54","77","39.5","-79.82","A","POB"
"26521","WV","Blacksville","Monongalia","54","61","39.72","-80.22","A","GD"
"26524","WV","Bretz","Preston","54","77","39.54","-79.8","A","GD"
"26525","WV","Bruceton Mills","Preston","54","77","39.65","-79.59","A","GD"
"26527","WV","Cassville","Monongalia","54","61","39.66","-80.06","A","POB"
"26531","WV","Dellslow","Monongalia","54","61","39.61","-79.89","A","POB"
"26534","WV","Granville","Monongalia","54","61","39.65","-79.99","A","POB"
"26537","WV","Kingwood","Preston","54","77","39.48","-79.7","A","GD"
"26541","WV","Maidsville","Monongalia","54","61","39.69","-80.08","A","GD"
"26542","WV","Masontown","Preston","54","77","39.56","-79.79","A","GD"
"26543","WV","Osage","Monongalia","54","61","39.66","-80","A","POB"
"26544","WV","Pentress","Monongalia","54","61","39.71","-80.17","A","POB"
"26546","WV","Pursglove","Monongalia","54","61","39.7","-80.07","A","GD"
"26547","WV","Reedsville","Preston","54","77","39.51","-79.8","A","GD"
"26554","WV","Fairmont","Marion","54","49","39.47","-80.14","A","GD"
"26555","WV","Fairmont","Marion","54","49","39.47","-80.15","A","POB"
"26559","WV","Barrackville","Marion","54","49","39.5","-80.17","A","POB"
"26560","WV","Baxter","Marion","54","49","39.54","-80.14","A","GD"
"26561","WV","Big Run","Wetzel","54","103","39.59","-80.57","A","GD"
"26562","WV","Burton","Wetzel","54","103","39.66","-80.42","A","GD"
"26563","WV","Carolina","Marion","54","49","39.48","-80.27","A","POB"
"26566","WV","Colfax","Marion","54","49","39.44","-80.13","A","POB"
"26568","WV","Enterprise","Harrison","54","33","39.42","-80.28","A","GD"
"26570","WV","Fairview","Marion","54","49","39.64","-80.22","A","GD"
"26571","WV","Farmington","Marion","54","49","39.51","-80.25","A","GD"
"26572","WV","Four States","Marion","54","49","39.48","-80.31","A","POB"
"26574","WV","Grant Town","Marion","54","49","39.56","-80.18","A","POB"
"26575","WV","Hundred","Wetzel","54","103","39.69","-80.45","A","GD"
"26576","WV","Idamay","Marion","54","49","39.5","-80.26","A","POB"
"26578","WV","Kingmont","Marion","54","49","39.45","-80.17","A","POB"
"26581","WV","Littleton","Wetzel","54","103","39.67","-80.55","A","GD"
"26582","WV","Mannington","Marion","54","49","39.53","-80.35","A","GD"
"26585","WV","Metz","Marion","54","49","39.61","-80.41","A","GD"
"26586","WV","Montana Mines","Marion","54","49","39.52","-80.1","A","GD"
"26587","WV","Rachel","Marion","54","49","39.52","-80.3","A","GD"
"26588","WV","Rivesville","Marion","54","49","39.55","-80.13","A","GD"
"26590","WV","Wana","Monongalia","54","61","39.68","-80.31","A","GD"
"26591","WV","Worthington","Marion","54","49","39.45","-80.28","A","GD"
"26601","WV","Sutton","Braxton","54","7","38.64","-80.68","A","GD"
"26610","WV","Birch River","Nicholas","54","67","38.49","-80.74","A","GD"
"26611","WV","Cedarville","Gilmer","54","21","38.84","-80.82","A","GD"
"26615","WV","Copen","Braxton","54","7","38.85","-80.73","A","GD"
"26617","WV","Dille","Clay","54","15","38.49","-80.82","A","GD"
"26619","WV","Exchange","Braxton","54","7","38.77","-80.75","A","GD"
"26621","WV","Flatwoods","Braxton","54","7","38.72","-80.58","A","GD"
"26623","WV","Frametown","Braxton","54","7","38.64","-80.86","A","GD"
"26624","WV","Gassaway","Braxton","54","7","38.69","-80.79","A","GD"
"26627","WV","Heaters","Braxton","54","7","38.76","-80.6","A","GD"
"26629","WV","Little Birch","Braxton","54","7","38.57","-80.71","A","GD"
"26631","WV","Napier","Braxton","54","7","38.79","-80.56","A","GD"
"26636","WV","Rosedale","Gilmer","54","21","38.75","-80.94","A","GD"
"26638","WV","Shock","Gilmer","54","21","38.77","-81.02","A","GD"
"26651","WV","Summersville","Nicholas","54","67","38.31","-80.87","A","GD"
"26656","WV","Belva","Nicholas","54","67","38.25","-81.16","A","GD"
"26660","WV","Calvin","Nicholas","54","67","38.35","-80.7","A","GD"
"26662","WV","Canvas","Nicholas","54","67","38.26","-80.76","A","GD"
"26667","WV","Drennen","Nicholas","54","67","38.25","-81.01","A","POB"
"26671","WV","Gilboa","Nicholas","54","67","38.3","-80.97","A","POB"
"26675","WV","Keslers Cross Lanes","Nicholas","54","67","38.24","-80.93","A","POB"
"26676","WV","Leivasy","Nicholas","54","67","38.15","-80.67","A","GD"
"26678","WV","Mount Lookout","Nicholas","54","67","38.16","-80.91","A","GD"
"26679","WV","Mount Nebo","Nicholas","54","67","38.19","-80.82","A","GD"
"26680","WV","Nallen","Fayette","54","19","38.09","-80.87","A","GD"
"26681","WV","Nettie","Nicholas","54","67","38.23","-80.7","A","GD"
"26684","WV","Pool","Nicholas","54","67","38.16","-80.85","A","GD"
"26690","WV","Swiss","Nicholas","54","67","38.23","-81.13","A","GD"
"26691","WV","Tioga","Nicholas","54","67","38.41","-80.67","A","GD"
"26704","WV","Augusta","Hampshire","54","27","39.29","-78.59","A","GD"
"26705","WV","Aurora","Preston","54","77","39.32","-79.56","A","GD"
"26707","WV","Bayard","Grant","54","23","39.26","-79.38","A","POB"
"26710","WV","Burlington","Mineral","54","57","39.32","-78.92","A","GD"
"26711","WV","Capon Bridge","Hampshire","54","27","39.28","-78.46","A","GD"
"26714","WV","Delray","Hampshire","54","27","39.18","-78.63","A","GD"
"26716","WV","Eglon","Preston","54","77","39.26","-79.51","A","GD"
"26717","WV","Elk Garden","Mineral","54","57","39.35","-79.17","A","GD"
"26719","WV","Fort Ashby","Mineral","54","57","39.5","-78.77","A","GD"
"26720","WV","Gormania","Grant","54","23","39.28","-79.34","A","GD"
"26722","WV","Green Spring","Hampshire","54","27","39.51","-78.64","A","GD"
"26726","WV","Keyser","Mineral","54","57","39.43","-78.97","A","GD"
"26731","WV","Lahmansville","Grant","54","23","39.16","-79.07","A","GD"
"26739","WV","Mount Storm","Grant","54","23","39.23","-79.27","A","GD"
"26743","WV","New Creek","Mineral","54","57","39.3","-79.06","A","GD"
"26750","WV","Piedmont","Mineral","54","57","39.48","-79.05","A","GD"
"26753","WV","Ridgeley","Mineral","54","57","39.58","-78.79","A","GD"
"26755","WV","Rio","Hampshire","54","27","39.15","-78.73","A","GD"
"26757","WV","Romney","Hampshire","54","27","39.33","-78.75","A","GD"
"26761","WV","Shanks","Hampshire","54","27","39.29","-78.69","A","GD"
"26763","WV","Springfield","Hampshire","54","27","39.45","-78.69","A","GD"
"26764","WV","Terra Alta","Preston","54","77","39.45","-79.54","A","GD"
"26767","WV","Wiley Ford","Mineral","54","57","39.61","-78.77","A","GD"
"26801","WV","Baker","Hardy","54","31","39.05","-78.79","A","GD"
"26802","WV","Brandywine","Pendleton","54","71","38.63","-79.2","A","GD"
"26804","WV","Circleville","Pendleton","54","71","38.63","-79.53","A","GD"
"26807","WV","Franklin","Pendleton","54","71","38.64","-79.35","A","GD"
"26808","WV","High View","Hampshire","54","27","39.21","-78.44","A","GD"
"26810","WV","Lost City","Hardy","54","31","38.97","-78.74","A","GD"
"26812","WV","Mathias","Hardy","54","31","38.88","-78.88","A","GD"
"26814","WV","Riverton","Pendleton","54","71","38.75","-79.45","A","GD"
"26815","WV","Sugar Grove","Pendleton","54","71","38.49","-79.36","A","GD"
"26817","WV","Bloomery","Hampshire","54","27","39.36","-78.37","A","GD"
"26818","WV","Fisher","Hardy","54","31","39.06","-79.02","A","GD"
"26823","WV","Capon Springs","Hampshire","54","27","39.14","-78.49","A","POB"
"26833","WV","Maysville","Grant","54","23","39.1","-79.2","A","GD"
"26836","WV","Moorefield","Hardy","54","31","39.02","-78.97","A","GD"
"26838","WV","Milam","Hardy","54","31","38.8","-79.07","A","GD"
"26845","WV","Old Fields","Hardy","54","31","39.16","-78.95","A","GD"
"26847","WV","Petersburg","Grant","54","23","38.96","-79.14","A","GD"
"26851","WV","Wardensville","Hardy","54","31","39.08","-78.62","A","GD"
"26852","WV","Purgitsville","Hampshire","54","27","39.25","-78.91","A","GD"
"26855","WV","Cabins","Grant","54","23","38.99","-79.25","A","GD"
"26865","WV","Yellow Spring","Hampshire","54","27","39.21","-78.49","A","GD"
"26866","WV","Upper Tract","Pendleton","54","71","38.8","-79.25","A","GD"
"26884","WV","Seneca Rocks","Pendleton","54","71","38.85","-79.38","A","GD"
"26886","WV","Onego","Pendleton","54","71","38.82","-79.48","A","POB"
