"ZIPCode","State","City","County","StateFIPS","CountyFIPS","Latitude","Longitude","Preference","Type"
"50001","IA","Ackworth","Warren","19","181","41.37","-93.43","A","GD"
"50002","IA","Adair","Adair","19","1","41.51","-94.65","A","GD"
"50003","IA","Adel","Dallas","19","49","41.61","-94.03","A","GD"
"50005","IA","Albion","Marshall","19","127","42.12","-93.01","A","GD"
"50006","IA","Alden","Hardin","19","83","42.52","-93.4","A","GD"
"50007","IA","Alleman","Polk","19","153","41.81","-93.6","A","GD"
"50008","IA","Allerton","Wayne","19","185","40.69","-93.38","A","GD"
"50009","IA","Altoona","Polk","19","153","41.65","-93.47","A","GD"
"50010","IA","Ames","Story","19","169","42.03","-93.61","A","GD"
"50011","IA","Ames","Story","19","169","42.02","-93.64","A","PVT"
"50012","IA","Ames","Story","19","169","42.03","-93.64","A","PVT"
"50013","IA","Ames","Story","19","169","42.02","-93.64","A","PVT"
"50014","IA","Ames","Story","19","169","42.03","-93.67","A","GD"
"50020","IA","Anita","Cass","19","29","41.45","-94.76","A","GD"
"50021","IA","Ankeny","Polk","19","153","41.73","-93.58","A","GD"
"50022","IA","Atlantic","Cass","19","29","41.42","-95.01","A","GD"
"50023","IA","Ankeny","Polk","19","153","41.72","-93.63","A","GD"
"50025","IA","Audubon","Audubon","19","9","41.74","-94.93","A","GD"
"50026","IA","Bagley","Guthrie","19","77","41.85","-94.44","A","GD"
"50027","IA","Barnes City","Mahaska","19","123","41.48","-92.48","A","GD"
"50028","IA","Baxter","Jasper","19","99","41.82","-93.15","A","GD"
"50029","IA","Bayard","Guthrie","19","77","41.84","-94.56","A","GD"
"50031","IA","Beaver","Boone","19","15","42.04","-94.11","A","POB"
"50032","IA","Berwick","Polk","19","153","41.67","-93.54","A","POB"
"50033","IA","Bevington","Madison","19","121","41.36","-93.79","A","GD"
"50034","IA","Blairsburg","Hamilton","19","79","42.51","-93.64","A","GD"
"50035","IA","Bondurant","Polk","19","153","41.7","-93.46","A","GD"
"50036","IA","Boone","Boone","19","15","42.07","-93.88","A","GD"
"50037","IA","Boone","Boone","19","15","42.05","-93.88","A","POB"
"50038","IA","Booneville","Dallas","19","49","41.53","-93.9","A","GD"
"50039","IA","Bouton","Dallas","19","49","41.84","-94.01","A","GD"
"50040","IA","Boxholm","Boone","19","15","42.17","-94.11","A","POB"
"50041","IA","Bradford","Franklin","19","69","42.63","-93.24","A","POB"
"50042","IA","Brayton","Audubon","19","9","41.53","-94.91","A","GD"
"50043","IA","Buckeye","Hardin","19","83","42.51","-93.41","A","POB"
"50044","IA","Bussey","Marion","19","125","41.2","-92.88","A","GD"
"50046","IA","Cambridge","Story","19","169","41.9","-93.54","A","GD"
"50047","IA","Carlisle","Warren","19","181","41.49","-93.49","A","GD"
"50048","IA","Casey","Guthrie","19","77","41.51","-94.52","A","GD"
"50049","IA","Chariton","Lucas","19","117","41.02","-93.3","A","GD"
"50050","IA","Churdan","Greene","19","73","42.16","-94.5","A","GD"
"50051","IA","Clemons","Marshall","19","127","42.13","-93.15","A","GD"
"50052","IA","Clio","Wayne","19","185","40.64","-93.45","A","GD"
"50054","IA","Colfax","Jasper","19","99","41.68","-93.24","A","GD"
"50055","IA","Collins","Story","19","169","41.88","-93.3","A","GD"
"50056","IA","Colo","Story","19","169","42.01","-93.32","A","GD"
"50057","IA","Columbia","Marion","19","125","41.17","-93.17","A","GD"
"50058","IA","Coon Rapids","Carroll","19","27","41.87","-94.69","A","GD"
"50059","IA","Cooper","Greene","19","73","41.9","-94.34","A","GD"
"50060","IA","Corydon","Wayne","19","185","40.76","-93.32","A","GD"
"50061","IA","Cumming","Warren","19","181","41.5","-93.78","A","GD"
"50062","IA","Melcher Dallas","Marion","19","125","41.23","-93.24","A","GD"
"50063","IA","Dallas Center","Dallas","19","49","41.69","-93.96","A","GD"
"50064","IA","Dana","Greene","19","73","42.11","-94.24","A","GD"
"50065","IA","Davis City","Decatur","19","53","40.62","-93.8","A","GD"
"50066","IA","Dawson","Dallas","19","49","41.83","-94.23","A","GD"
"50067","IA","Decatur","Decatur","19","53","40.73","-93.85","A","GD"
"50068","IA","Derby","Lucas","19","117","40.95","-93.47","A","GD"
"50069","IA","De Soto","Dallas","19","49","41.53","-94.01","A","GD"
"50070","IA","Dexter","Dallas","19","49","41.49","-94.24","A","GD"
"50071","IA","Dows","Wright","19","197","42.65","-93.5","A","GD"
"50072","IA","Earlham","Madison","19","121","41.48","-94.12","A","GD"
"50073","IA","Elkhart","Polk","19","153","41.79","-93.52","A","GD"
"50074","IA","Ellston","Ringgold","19","159","40.85","-94.08","A","GD"
"50075","IA","Ellsworth","Hamilton","19","79","42.33","-93.57","A","GD"
"50076","IA","Exira","Audubon","19","9","41.59","-94.87","A","GD"
"50078","IA","Ferguson","Marshall","19","127","41.94","-92.86","A","POB"
"50099","IA","Boone","Boone","19","15","42.05","-93.85","A","GD"
"50101","IA","Galt","Wright","19","197","42.68","-93.61","A","GD"
"50102","IA","Garden City","Hardin","19","83","42.24","-93.4","A","POB"
"50103","IA","Garden Grove","Decatur","19","53","40.8","-93.61","A","GD"
"50104","IA","Gibson","Keokuk","19","107","41.48","-92.39","A","GD"
"50105","IA","Gilbert","Story","19","169","42.11","-93.64","A","GD"
"50106","IA","Gilman","Marshall","19","127","41.88","-92.81","A","GD"
"50107","IA","Grand Junction","Greene","19","73","42.04","-94.23","A","GD"
"50108","IA","Grand River","Decatur","19","53","40.83","-93.96","A","GD"
"50109","IA","Granger","Dallas","19","49","41.75","-93.8","A","GD"
"50110","IA","Gray","Audubon","19","9","41.84","-94.98","A","POB"
"50111","IA","Grimes","Polk","19","153","41.68","-93.79","A","GD"
"50112","IA","Grinnell","Poweshiek","19","157","41.73","-92.72","A","GD"
"50115","IA","Guthrie Center","Guthrie","19","77","41.69","-94.53","A","GD"
"50116","IA","Hamilton","Marion","19","125","41.18","-92.95","A","GD"
"50117","IA","Hamlin","Audubon","19","9","41.67","-94.85","A","GD"
"50118","IA","Hartford","Warren","19","181","41.45","-93.38","A","GD"
"50119","IA","Harvey","Marion","19","125","41.31","-92.94","A","GD"
"50120","IA","Haverhill","Marshall","19","127","41.93","-92.97","A","GD"
"50122","IA","Hubbard","Hardin","19","83","42.31","-93.31","A","GD"
"50123","IA","Humeston","Wayne","19","185","40.85","-93.51","A","GD"
"50124","IA","Huxley","Story","19","169","41.89","-93.6","A","GD"
"50125","IA","Indianola","Warren","19","181","41.35","-93.58","A","GD"
"50126","IA","Iowa Falls","Hardin","19","83","42.52","-93.26","A","GD"
"50127","IA","Ira","Jasper","19","99","41.78","-93.21","A","GD"
"50128","IA","Jamaica","Guthrie","19","77","41.86","-94.3","A","GD"
"50129","IA","Jefferson","Greene","19","73","42.02","-94.38","A","GD"
"50130","IA","Jewell","Hamilton","19","79","42.3","-93.65","A","GD"
"50131","IA","Johnston","Polk","19","153","41.68","-93.71","A","GD"
"50132","IA","Kamrar","Hamilton","19","79","42.39","-93.71","A","GD"
"50133","IA","Kellerton","Ringgold","19","159","40.7","-94.06","A","GD"
"50134","IA","Kelley","Story","19","169","41.94","-93.66","A","GD"
"50135","IA","Kellogg","Jasper","19","99","41.72","-92.88","A","GD"
"50136","IA","Keswick","Keokuk","19","107","41.48","-92.27","A","GD"
"50137","IA","Killduff","Jasper","19","99","41.61","-92.9","A","GD"
"50138","IA","Knoxville","Marion","19","125","41.32","-93.1","A","GD"
"50139","IA","Lacona","Warren","19","181","41.2","-93.37","A","GD"
"50140","IA","Lamoni","Decatur","19","53","40.63","-93.97","A","GD"
"50141","IA","Laurel","Marshall","19","127","41.87","-92.95","A","GD"
"50142","IA","Le Grand","Marshall","19","127","42.01","-92.78","A","POB"
"50143","IA","Leighton","Mahaska","19","123","41.33","-92.8","A","GD"
"50144","IA","Leon","Decatur","19","53","40.74","-93.75","A","GD"
"50145","IA","Liberty Center","Warren","19","181","41.21","-93.5","A","POB"
"50146","IA","Linden","Dallas","19","49","41.67","-94.25","A","GD"
"50147","IA","Lineville","Wayne","19","185","40.61","-93.53","A","GD"
"50148","IA","Liscomb","Marshall","19","127","42.19","-93","A","GD"
"50149","IA","Lorimor","Union","19","175","41.15","-94.08","A","GD"
"50150","IA","Lovilia","Monroe","19","135","41.13","-92.93","A","GD"
"50151","IA","Lucas","Lucas","19","117","41.06","-93.5","A","GD"
"50152","IA","Luther","Boone","19","15","42","-93.86","A","POB"
"50153","IA","Lynnville","Jasper","19","99","41.58","-92.79","A","GD"
"50154","IA","Mc Callsburg","Story","19","169","42.17","-93.39","A","GD"
"50155","IA","Macksburg","Madison","19","121","41.21","-94.2","A","GD"
"50156","IA","Madrid","Boone","19","15","41.88","-93.81","A","GD"
"50157","IA","Malcom","Poweshiek","19","157","41.73","-92.56","A","GD"
"50158","IA","Marshalltown","Marshall","19","127","42.04","-92.91","A","GD"
"50160","IA","Martensdale","Warren","19","181","41.37","-93.74","A","POB"
"50161","IA","Maxwell","Story","19","169","41.87","-93.4","A","GD"
"50162","IA","Melbourne","Marshall","19","127","41.93","-93.08","A","GD"
"50163","IA","Melcher Dallas","Marion","19","125","41.22","-93.24","A","POB"
"50164","IA","Menlo","Guthrie","19","77","41.51","-94.43","A","GD"
"50165","IA","Millerton","Wayne","19","185","40.85","-93.3","A","GD"
"50166","IA","Milo","Warren","19","181","41.28","-93.43","A","GD"
"50167","IA","Minburn","Dallas","19","49","41.75","-94.05","A","GD"
"50168","IA","Mingo","Jasper","19","99","41.78","-93.27","A","GD"
"50169","IA","Mitchellville","Polk","19","153","41.66","-93.35","A","GD"
"50170","IA","Monroe","Jasper","19","99","41.53","-93.11","A","GD"
"50171","IA","Montezuma","Poweshiek","19","157","41.59","-92.54","A","GD"
"50173","IA","Montour","Tama","19","171","41.98","-92.71","A","GD"
"50174","IA","Murray","Clarke","19","39","41.04","-93.96","A","GD"
"50201","IA","Nevada","Story","19","169","42.02","-93.45","A","GD"
"50206","IA","New Providence","Hardin","19","83","42.24","-93.18","A","GD"
"50207","IA","New Sharon","Mahaska","19","123","41.44","-92.65","A","GD"
"50208","IA","Newton","Jasper","19","99","41.7","-93.04","A","GD"
"50210","IA","New Virginia","Warren","19","181","41.19","-93.71","A","GD"
"50211","IA","Norwalk","Warren","19","181","41.47","-93.68","A","GD"
"50212","IA","Ogden","Boone","19","15","42.05","-94.05","A","GD"
"50213","IA","Osceola","Clarke","19","39","41.03","-93.77","A","GD"
"50214","IA","Otley","Marion","19","125","41.45","-93.07","A","GD"
"50216","IA","Panora","Guthrie","19","77","41.7","-94.37","A","GD"
"50217","IA","Paton","Greene","19","73","42.17","-94.25","A","GD"
"50218","IA","Patterson","Madison","19","121","41.35","-93.88","A","GD"
"50219","IA","Pella","Marion","19","125","41.41","-92.91","A","GD"
"50220","IA","Perry","Dallas","19","49","41.85","-94.11","A","GD"
"50222","IA","Peru","Madison","19","121","41.22","-93.94","A","GD"
"50223","IA","Pilot Mound","Boone","19","15","42.16","-94.04","A","GD"
"50225","IA","Pleasantville","Marion","19","125","41.38","-93.28","A","GD"
"50226","IA","Polk City","Polk","19","153","41.78","-93.71","A","GD"
"50227","IA","Popejoy","Franklin","19","69","42.6","-93.43","A","GD"
"50228","IA","Prairie City","Jasper","19","99","41.59","-93.24","A","GD"
"50229","IA","Prole","Warren","19","181","41.38","-93.79","A","GD"
"50230","IA","Radcliffe","Hardin","19","83","42.3","-93.45","A","GD"
"50231","IA","Randall","Hamilton","19","79","42.24","-93.6","A","POB"
"50232","IA","Reasnor","Jasper","19","99","41.56","-92.98","A","GD"
"50233","IA","Redfield","Dallas","19","49","41.61","-94.21","A","GD"
"50234","IA","Rhodes","Marshall","19","127","41.89","-93.18","A","GD"
"50235","IA","Rippey","Greene","19","73","41.93","-94.21","A","GD"
"50236","IA","Roland","Story","19","169","42.17","-93.49","A","GD"
"50237","IA","Runnells","Polk","19","153","41.54","-93.37","A","GD"
"50238","IA","Russell","Lucas","19","117","40.96","-93.18","A","GD"
"50239","IA","Saint Anthony","Marshall","19","127","42.14","-93.2","A","GD"
"50240","IA","Saint Charles","Madison","19","121","41.3","-93.8","A","GD"
"50241","IA","Saint Marys","Warren","19","181","41.31","-93.73","A","POB"
"50242","IA","Searsboro","Poweshiek","19","157","41.57","-92.69","A","GD"
"50243","IA","Sheldahl","Polk","19","153","41.86","-93.7","A","POB"
"50244","IA","Slater","Story","19","169","41.87","-93.67","A","GD"
"50246","IA","Stanhope","Hamilton","19","79","42.28","-93.79","A","GD"
"50247","IA","State Center","Marshall","19","127","42.02","-93.16","A","GD"
"50248","IA","Story City","Story","19","169","42.19","-93.6","A","GD"
"50249","IA","Stratford","Hamilton","19","79","42.27","-93.92","A","GD"
"50250","IA","Stuart","Guthrie","19","77","41.5","-94.33","A","GD"
"50251","IA","Sully","Jasper","19","99","41.58","-92.86","A","GD"
"50252","IA","Swan","Marion","19","125","41.46","-93.31","A","GD"
"50254","IA","Thayer","Union","19","175","40.99","-94.06","A","GD"
"50255","IA","Thornburg","Keokuk","19","107","41.46","-92.33","A","POB"
"50256","IA","Tracy","Marion","19","125","41.28","-92.9","A","GD"
"50257","IA","Truro","Madison","19","121","41.19","-93.85","A","GD"
"50258","IA","Union","Hardin","19","83","42.24","-93.07","A","GD"
"50259","IA","Gifford","Hardin","19","83","42.25","-93.06","A","GD"
"50261","IA","Van Meter","Dallas","19","49","41.48","-93.94","A","GD"
"50262","IA","Van Wert","Decatur","19","53","40.86","-93.8","A","GD"
"50263","IA","Waukee","Dallas","19","49","41.59","-93.86","A","GD"
"50264","IA","Weldon","Decatur","19","53","40.9","-93.71","A","GD"
"50265","IA","West Des Moines","Polk","19","153","41.57","-93.74","A","GD"
"50266","IA","West Des Moines","Polk","19","153","41.58","-93.79","A","GD"
"50268","IA","What Cheer","Keokuk","19","107","41.4","-92.35","A","GD"
"50269","IA","Whitten","Hardin","19","83","42.25","-93.06","A","POB"
"50271","IA","Williams","Hamilton","19","79","42.49","-93.54","A","GD"
"50272","IA","Williamson","Lucas","19","117","41.09","-93.26","A","POB"
"50273","IA","Winterset","Madison","19","121","41.33","-94.03","A","GD"
"50274","IA","Wiota","Cass","19","29","41.39","-94.86","A","GD"
"50275","IA","Woodburn","Clarke","19","39","41.02","-93.59","A","GD"
"50276","IA","Woodward","Dallas","19","49","41.86","-93.92","A","GD"
"50277","IA","Yale","Guthrie","19","77","41.77","-94.35","A","GD"
"50278","IA","Zearing","Story","19","169","42.16","-93.3","A","GD"
"50301","IA","Des Moines","Polk","19","153","41.6","-93.63","A","POB"
"50302","IA","Des Moines","Polk","19","153","41.61","-93.63","A","POB"
"50303","IA","Des Moines","Polk","19","153","41.6","-93.63","A","POB"
"50304","IA","Des Moines","Polk","19","153","41.6","-93.63","A","POB"
"50305","IA","Des Moines","Polk","19","153","41.6","-93.63","A","POB"
"50306","IA","Des Moines","Polk","19","153","41.6","-93.63","A","POB"
"50307","IA","Des Moines","Polk","19","153","41.59","-93.6","A","GD"
"50308","IA","Des Moines","Polk","19","153","41.58","-93.62","A","GD"
"50309","IA","Des Moines","Polk","19","153","41.59","-93.62","A","GD"
"50310","IA","Des Moines","Polk","19","153","41.62","-93.68","A","GD"
"50311","IA","Des Moines","Polk","19","153","41.6","-93.67","A","GD"
"50312","IA","Des Moines","Polk","19","153","41.59","-93.67","A","GD"
"50313","IA","Des Moines","Polk","19","153","41.64","-93.62","A","GD"
"50314","IA","Des Moines","Polk","19","153","41.6","-93.63","A","GD"
"50315","IA","Des Moines","Polk","19","153","41.55","-93.62","A","GD"
"50316","IA","Des Moines","Polk","19","153","41.61","-93.6","A","GD"
"50317","IA","Des Moines","Polk","19","153","41.61","-93.56","A","GD"
"50318","IA","Des Moines","Polk","19","153","41.58","-93.62","A","POB"
"50319","IA","Des Moines","Polk","19","153","41.59","-93.61","A","GD"
"50320","IA","Des Moines","Polk","19","153","41.54","-93.58","A","GD"
"50321","IA","Des Moines","Polk","19","153","41.54","-93.66","A","GD"
"50322","IA","Urbandale","Polk","19","153","41.63","-93.73","A","GD"
"50323","IA","Urbandale","Polk","19","153","41.63","-93.81","A","GD"
"50324","IA","Windsor Heights","Polk","19","153","41.6","-93.71","A","GD"
"50325","IA","Clive","Polk","19","153","41.61","-93.79","A","GD"
"50327","IA","Pleasant Hill","Polk","19","153","41.59","-93.5","A","GD"
"50328","IA","Des Moines","Polk","19","153","41.59","-93.64","A","PVT"
"50329","IA","Des Moines","Polk","19","153","41.59","-93.64","A","PVT"
"50330","IA","Des Moines","Polk","19","153","41.59","-93.64","A","PVT"
"50331","IA","Des Moines","Polk","19","153","41.59","-93.64","A","PVT"
"50332","IA","Des Moines","Polk","19","153","41.59","-93.64","A","PVT"
"50333","IA","Des Moines","Polk","19","153","41.68","-93.61","A","POB"
"50334","IA","Des Moines","Polk","19","153","41.63","-93.71","A","PVT"
"50335","IA","Des Moines","Polk","19","153","41.6","-93.62","A","PVT"
"50336","IA","Des Moines","Polk","19","153","41.57","-93.72","A","POB"
"50339","IA","Des Moines","Polk","19","153","41.6","-93.75","A","PVT"
"50340","IA","Des Moines","Polk","19","153","41.58","-93.62","A","POB"
"50359","IA","Des Moines","Polk","19","153","41.6","-93.77","A","PVT"
"50360","IA","Des Moines","Polk","19","153","41.6","-93.77","A","PVT"
"50361","IA","Des Moines","Polk","19","153","41.6","-93.77","A","PVT"
"50362","IA","Des Moines","Polk","19","153","41.6","-93.77","A","PVT"
"50363","IA","Des Moines","Polk","19","153","41.6","-93.77","A","PVT"
"50364","IA","Des Moines","Polk","19","153","41.6","-93.77","A","PVT"
"50367","IA","Des Moines","Polk","19","153","41.6","-93.77","A","PVT"
"50368","IA","Des Moines","Polk","19","153","41.6","-93.77","A","POB"
"50369","IA","Des Moines","Polk","19","153","41.59","-93.75","A","PVT"
"50380","IA","Des Moines","Polk","19","153","41.58","-93.64","A","PVT"
"50381","IA","Des Moines","Polk","19","153","41.58","-93.64","A","PVT"
"50391","IA","Des Moines","Polk","19","153","41.59","-93.62","A","GD"
"50392","IA","Des Moines","Polk","19","153","41.59","-93.63","A","PVT"
"50393","IA","Des Moines","Polk","19","153","41.58","-93.62","A","POB"
"50394","IA","Des Moines","Polk","19","153","41.63","-93.67","A","POB"
"50395","IA","Des Moines","Polk","19","153","41.6","-93.63","A","GD"
"50396","IA","Des Moines","Polk","19","153","41.58","-93.61","A","PVT"
"50398","IA","Urbandale","Polk","19","153","41.58","-93.71","A","PVT"
"50401","IA","Mason City","Cerro Gordo","19","33","43.15","-93.2","A","GD"
"50402","IA","Mason City","Cerro Gordo","19","33","43.15","-93.2","A","POB"
"50420","IA","Alexander","Franklin","19","69","42.81","-93.47","A","GD"
"50421","IA","Belmond","Wright","19","197","42.85","-93.62","A","GD"
"50423","IA","Britt","Hancock","19","81","43.1","-93.8","A","GD"
"50424","IA","Buffalo Center","Winnebago","19","189","43.39","-93.94","A","GD"
"50426","IA","Carpenter","Mitchell","19","131","43.42","-93.02","A","GD"
"50427","IA","Chapin","Franklin","19","69","42.84","-93.22","A","GD"
"50428","IA","Clear Lake","Cerro Gordo","19","33","43.14","-93.38","A","GD"
"50430","IA","Corwith","Hancock","19","81","42.99","-93.96","A","GD"
"50431","IA","Coulter","Franklin","19","69","42.74","-93.37","A","POB"
"50432","IA","Crystal Lake","Hancock","19","81","43.22","-93.79","A","POB"
"50433","IA","Dougherty","Cerro Gordo","19","33","42.92","-93.04","A","GD"
"50434","IA","Fertile","Worth","19","195","43.26","-93.43","A","GD"
"50435","IA","Floyd","Floyd","19","67","43.15","-92.76","A","GD"
"50436","IA","Forest City","Winnebago","19","189","43.26","-93.66","A","GD"
"50438","IA","Garner","Hancock","19","81","43.1","-93.61","A","GD"
"50439","IA","Goodell","Hancock","19","81","42.93","-93.63","A","GD"
"50440","IA","Grafton","Worth","19","195","43.33","-93.07","A","GD"
"50441","IA","Hampton","Franklin","19","69","42.74","-93.21","A","GD"
"50444","IA","Hanlontown","Worth","19","195","43.28","-93.38","A","GD"
"50446","IA","Joice","Worth","19","195","43.35","-93.45","A","GD"
"50447","IA","Kanawha","Hancock","19","81","42.93","-93.81","A","GD"
"50448","IA","Kensett","Worth","19","195","43.35","-93.24","A","GD"
"50449","IA","Klemme","Hancock","19","81","43","-93.58","A","GD"
"50450","IA","Lake Mills","Winnebago","19","189","43.42","-93.52","A","GD"
"50451","IA","Lakota","Kossuth","19","109","43.37","-94.09","A","GD"
"50452","IA","Latimer","Franklin","19","69","42.78","-93.37","A","GD"
"50453","IA","Leland","Winnebago","19","189","43.36","-93.65","A","GD"
"50454","IA","Little Cedar","Mitchell","19","131","43.38","-92.73","A","GD"
"50455","IA","Mc Intire","Mitchell","19","131","43.45","-92.62","A","GD"
"50456","IA","Manly","Worth","19","195","43.29","-93.21","A","GD"
"50457","IA","Meservey","Cerro Gordo","19","33","42.92","-93.49","A","GD"
"50458","IA","Nora Springs","Floyd","19","67","43.15","-93","A","GD"
"50459","IA","Northwood","Worth","19","195","43.44","-93.24","A","GD"
"50460","IA","Orchard","Mitchell","19","131","43.22","-92.72","A","GD"
"50461","IA","Osage","Mitchell","19","131","43.29","-92.82","A","GD"
"50464","IA","Plymouth","Cerro Gordo","19","33","43.25","-93.1","A","GD"
"50465","IA","Rake","Winnebago","19","189","43.49","-93.92","A","POB"
"50466","IA","Riceville","Howard","19","89","43.37","-92.54","A","GD"
"50467","IA","Rock Falls","Cerro Gordo","19","33","43.21","-93.08","A","GD"
"50468","IA","Rockford","Floyd","19","67","43.05","-92.95","A","GD"
"50469","IA","Rockwell","Cerro Gordo","19","33","42.99","-93.2","A","GD"
"50470","IA","Rowan","Wright","19","197","42.74","-93.56","A","GD"
"50471","IA","Rudd","Floyd","19","67","43.15","-92.89","A","GD"
"50472","IA","Saint Ansgar","Mitchell","19","131","43.41","-92.95","A","GD"
"50473","IA","Scarville","Winnebago","19","189","43.47","-93.67","A","GD"
"50475","IA","Sheffield","Franklin","19","69","42.88","-93.22","A","GD"
"50476","IA","Stacyville","Mitchell","19","131","43.44","-92.78","A","GD"
"50477","IA","Swaledale","Cerro Gordo","19","33","42.99","-93.33","A","GD"
"50478","IA","Thompson","Winnebago","19","189","43.39","-93.78","A","GD"
"50479","IA","Thornton","Cerro Gordo","19","33","42.93","-93.39","A","GD"
"50480","IA","Titonka","Kossuth","19","109","43.24","-94.04","A","GD"
"50481","IA","Toeterville","Mitchell","19","131","43.43","-92.92","A","GD"
"50482","IA","Ventura","Cerro Gordo","19","33","43.12","-93.48","A","GD"
"50483","IA","Wesley","Kossuth","19","109","43.1","-94","A","GD"
"50484","IA","Woden","Hancock","19","81","43.23","-93.91","A","GD"
"50501","IA","Fort Dodge","Webster","19","187","42.5","-94.18","A","GD"
"50510","IA","Albert City","Buena Vista","19","21","42.76","-94.96","A","GD"
"50511","IA","Algona","Kossuth","19","109","43.07","-94.23","A","GD"
"50514","IA","Armstrong","Emmet","19","63","43.42","-94.47","A","GD"
"50515","IA","Ayrshire","Palo Alto","19","147","43.03","-94.85","A","GD"
"50516","IA","Badger","Webster","19","187","42.62","-94.14","A","GD"
"50517","IA","Bancroft","Kossuth","19","109","43.29","-94.22","A","GD"
"50518","IA","Barnum","Webster","19","187","42.51","-94.38","A","GD"
"50519","IA","Bode","Humboldt","19","91","42.89","-94.28","A","GD"
"50520","IA","Bradgate","Humboldt","19","91","42.8","-94.41","A","GD"
"50521","IA","Burnside","Webster","19","187","42.35","-94.11","A","POB"
"50522","IA","Burt","Kossuth","19","109","43.19","-94.19","A","GD"
"50523","IA","Callender","Webster","19","187","42.37","-94.3","A","GD"
"50524","IA","Clare","Webster","19","187","42.6","-94.35","A","GD"
"50525","IA","Clarion","Wright","19","197","42.74","-93.74","A","GD"
"50526","IA","Clarion","Wright","19","197","42.73","-93.73","A","PVT"
"50527","IA","Curlew","Palo Alto","19","147","42.96","-94.79","A","GD"
"50528","IA","Cylinder","Palo Alto","19","147","43.12","-94.55","A","GD"
"50529","IA","Dakota City","Humboldt","19","91","42.72","-94.2","A","GD"
"50530","IA","Dayton","Webster","19","187","42.26","-94.05","A","GD"
"50531","IA","Dolliver","Emmet","19","63","43.46","-94.62","A","GD"
"50532","IA","Duncombe","Webster","19","187","42.46","-94","A","GD"
"50533","IA","Eagle Grove","Wright","19","197","42.66","-93.91","A","GD"
"50535","IA","Early","Sac","19","161","42.45","-95.16","A","GD"
"50536","IA","Emmetsburg","Palo Alto","19","147","43.11","-94.69","A","GD"
"50538","IA","Farnhamville","Calhoun","19","25","42.28","-94.42","A","GD"
"50539","IA","Fenton","Kossuth","19","109","43.22","-94.43","A","GD"
"50540","IA","Fonda","Pocahontas","19","151","42.59","-94.84","A","GD"
"50541","IA","Gilmore City","Pocahontas","19","151","42.71","-94.45","A","GD"
"50542","IA","Goldfield","Wright","19","197","42.75","-93.94","A","GD"
"50543","IA","Gowrie","Webster","19","187","42.28","-94.3","A","GD"
"50544","IA","Harcourt","Webster","19","187","42.26","-94.17","A","GD"
"50545","IA","Hardy","Humboldt","19","91","42.81","-94.07","A","GD"
"50546","IA","Havelock","Pocahontas","19","151","42.84","-94.71","A","GD"
"50548","IA","Humboldt","Humboldt","19","91","42.72","-94.23","A","GD"
"50551","IA","Jolley","Calhoun","19","25","42.48","-94.75","A","GD"
"50552","IA","Knierim","Calhoun","19","25","42.46","-94.46","A","POB"
"50554","IA","Laurens","Pocahontas","19","151","42.84","-94.84","A","GD"
"50556","IA","Ledyard","Kossuth","19","109","43.45","-94.2","A","GD"
"50557","IA","Lehigh","Webster","19","187","42.36","-94.06","A","GD"
"50558","IA","Livermore","Humboldt","19","91","42.87","-94.18","A","GD"
"50559","IA","Lone Rock","Kossuth","19","109","43.2","-94.32","A","GD"
"50560","IA","Lu Verne","Kossuth","19","109","42.95","-94.11","A","GD"
"50561","IA","Lytton","Calhoun","19","25","42.43","-94.85","A","GD"
"50562","IA","Mallard","Palo Alto","19","147","42.96","-94.66","A","GD"
"50563","IA","Manson","Calhoun","19","25","42.52","-94.53","A","GD"
"50565","IA","Marathon","Buena Vista","19","21","42.86","-94.99","A","GD"
"50566","IA","Moorland","Webster","19","187","42.44","-94.32","A","GD"
"50567","IA","Nemaha","Sac","19","161","42.53","-95.1","A","GD"
"50568","IA","Newell","Buena Vista","19","21","42.61","-95","A","GD"
"50569","IA","Otho","Webster","19","187","42.41","-94.14","A","GD"
"50570","IA","Ottosen","Humboldt","19","91","42.9","-94.37","A","GD"
"50571","IA","Palmer","Pocahontas","19","151","42.64","-94.59","A","GD"
"50573","IA","Plover","Pocahontas","19","151","42.88","-94.62","A","POB"
"50574","IA","Pocahontas","Pocahontas","19","151","42.72","-94.68","A","GD"
"50575","IA","Pomeroy","Calhoun","19","25","42.56","-94.69","A","GD"
"50576","IA","Rembrandt","Buena Vista","19","21","42.81","-95.17","A","GD"
"50577","IA","Renwick","Humboldt","19","91","42.85","-93.98","A","GD"
"50578","IA","Ringsted","Emmet","19","63","43.31","-94.54","A","GD"
"50579","IA","Rockwell City","Calhoun","19","25","42.4","-94.64","A","GD"
"50581","IA","Rolfe","Pocahontas","19","151","42.84","-94.53","A","GD"
"50582","IA","Rutland","Humboldt","19","91","42.78","-94.3","A","GD"
"50583","IA","Sac City","Sac","19","161","42.43","-94.99","A","GD"
"50585","IA","Sioux Rapids","Buena Vista","19","21","42.91","-95.14","A","GD"
"50586","IA","Somers","Calhoun","19","25","42.4","-94.44","A","GD"
"50588","IA","Storm Lake","Buena Vista","19","21","42.65","-95.19","A","GD"
"50590","IA","Swea City","Kossuth","19","109","43.39","-94.31","A","GD"
"50591","IA","Thor","Humboldt","19","91","42.68","-94.05","A","GD"
"50592","IA","Truesdale","Buena Vista","19","21","42.73","-95.18","A","POB"
"50593","IA","Varina","Pocahontas","19","151","42.66","-94.9","A","POB"
"50594","IA","Vincent","Webster","19","187","42.58","-94.03","A","GD"
"50595","IA","Webster City","Hamilton","19","79","42.46","-93.82","A","GD"
"50597","IA","West Bend","Palo Alto","19","147","42.98","-94.45","A","GD"
"50598","IA","Whittemore","Kossuth","19","109","43.07","-94.42","A","GD"
"50599","IA","Woolstock","Wright","19","197","42.58","-93.8","A","GD"
"50601","IA","Ackley","Hardin","19","83","42.57","-93.06","A","GD"
"50602","IA","Allison","Butler","19","23","42.75","-92.8","A","GD"
"50603","IA","Alta Vista","Chickasaw","19","37","43.19","-92.46","A","GD"
"50604","IA","Aplington","Butler","19","23","42.61","-92.9","A","GD"
"50605","IA","Aredale","Butler","19","23","42.83","-93.01","A","GD"
"50606","IA","Arlington","Fayette","19","65","42.75","-91.67","A","GD"
"50607","IA","Aurora","Buchanan","19","19","42.62","-91.75","A","GD"
"50608","IA","Austinville","Butler","19","23","42.6","-92.97","A","GD"
"50609","IA","Beaman","Grundy","19","75","42.23","-92.81","A","GD"
"50611","IA","Bristow","Butler","19","23","42.8","-92.9","A","GD"
"50612","IA","Buckingham","Tama","19","171","42.28","-92.4","A","GD"
"50613","IA","Cedar Falls","Black Hawk","19","13","42.53","-92.46","A","GD"
"50614","IA","Cedar Falls","Black Hawk","19","13","42.51","-92.46","A","PVT"
"50616","IA","Charles City","Floyd","19","67","43.07","-92.67","A","GD"
"50619","IA","Clarksville","Butler","19","23","42.79","-92.67","A","GD"
"50620","IA","Colwell","Floyd","19","67","43.16","-92.59","A","GD"
"50621","IA","Conrad","Grundy","19","75","42.25","-92.9","A","GD"
"50622","IA","Denver","Bremer","19","17","42.67","-92.34","A","GD"
"50623","IA","Dewar","Black Hawk","19","13","42.53","-92.21","A","POB"
"50624","IA","Dike","Grundy","19","75","42.47","-92.65","A","GD"
"50625","IA","Dumont","Butler","19","23","42.75","-92.98","A","GD"
"50626","IA","Dunkerton","Black Hawk","19","13","42.58","-92.17","A","GD"
"50627","IA","Eldora","Hardin","19","83","42.36","-93.1","A","GD"
"50628","IA","Elma","Howard","19","89","43.26","-92.41","A","GD"
"50629","IA","Fairbank","Buchanan","19","19","42.63","-92.07","A","GD"
"50630","IA","Fredericksburg","Chickasaw","19","37","42.96","-92.21","A","GD"
"50631","IA","Frederika","Bremer","19","17","42.8","-92.27","A","POB"
"50632","IA","Garwin","Tama","19","171","42.08","-92.71","A","GD"
"50633","IA","Geneva","Franklin","19","69","42.67","-93.14","A","GD"
"50634","IA","Gilbertville","Black Hawk","19","13","42.42","-92.21","A","POB"
"50635","IA","Gladbrook","Tama","19","171","42.19","-92.71","A","GD"
"50636","IA","Greene","Butler","19","23","42.89","-92.81","A","GD"
"50638","IA","Grundy Center","Grundy","19","75","42.36","-92.79","A","GD"
"50641","IA","Hazleton","Buchanan","19","19","42.6","-91.91","A","GD"
"50642","IA","Holland","Grundy","19","75","42.43","-92.8","A","GD"
"50643","IA","Hudson","Black Hawk","19","13","42.38","-92.47","A","GD"
"50644","IA","Independence","Buchanan","19","19","42.47","-91.89","A","GD"
"50645","IA","Ionia","Chickasaw","19","37","43.03","-92.47","A","GD"
"50647","IA","Janesville","Bremer","19","17","42.65","-92.47","A","GD"
"50648","IA","Jesup","Buchanan","19","19","42.45","-92.09","A","GD"
"50649","IA","Kesley","Butler","19","23","42.69","-92.85","A","GD"
"50650","IA","Lamont","Buchanan","19","19","42.6","-91.65","A","GD"
"50651","IA","La Porte City","Black Hawk","19","13","42.32","-92.19","A","GD"
"50652","IA","Lincoln","Tama","19","171","42.26","-92.69","A","POB"
"50653","IA","Marble Rock","Floyd","19","67","42.97","-92.88","A","GD"
"50654","IA","Masonville","Delaware","19","55","42.47","-91.6","A","GD"
"50655","IA","Maynard","Fayette","19","65","42.77","-91.88","A","GD"
"50657","IA","Morrison","Grundy","19","75","42.37","-92.79","A","GD"
"50658","IA","Nashua","Chickasaw","19","37","42.96","-92.53","A","GD"
"50659","IA","New Hampton","Chickasaw","19","37","43.07","-92.32","A","GD"
"50660","IA","New Hartford","Butler","19","23","42.58","-92.64","A","GD"
"50661","IA","North Washington","Chickasaw","19","37","43.06","-92.31","A","POB"
"50662","IA","Oelwein","Fayette","19","65","42.68","-91.92","A","GD"
"50664","IA","Oran","Fayette","19","65","42.7","-92.08","A","GD"
"50665","IA","Parkersburg","Butler","19","23","42.58","-92.78","A","GD"
"50666","IA","Plainfield","Bremer","19","17","42.85","-92.5","A","GD"
"50667","IA","Raymond","Black Hawk","19","13","42.47","-92.22","A","GD"
"50668","IA","Readlyn","Bremer","19","17","42.69","-92.23","A","GD"
"50669","IA","Reinbeck","Grundy","19","75","42.33","-92.61","A","GD"
"50670","IA","Shell Rock","Butler","19","23","42.71","-92.59","A","GD"
"50671","IA","Stanley","Buchanan","19","19","42.64","-91.81","A","GD"
"50672","IA","Steamboat Rock","Hardin","19","83","42.41","-93.07","A","GD"
"50673","IA","Stout","Grundy","19","75","42.53","-92.71","A","POB"
"50674","IA","Sumner","Bremer","19","17","42.85","-92.12","A","GD"
"50675","IA","Traer","Tama","19","171","42.2","-92.49","A","GD"
"50676","IA","Tripoli","Bremer","19","17","42.81","-92.26","A","GD"
"50677","IA","Waverly","Bremer","19","17","42.74","-92.46","A","GD"
"50680","IA","Wellsburg","Grundy","19","75","42.44","-92.93","A","GD"
"50681","IA","Westgate","Fayette","19","65","42.78","-92","A","GD"
"50682","IA","Winthrop","Buchanan","19","19","42.45","-91.71","A","GD"
"50701","IA","Waterloo","Black Hawk","19","13","42.47","-92.36","A","GD"
"50702","IA","Waterloo","Black Hawk","19","13","42.47","-92.33","A","GD"
"50703","IA","Waterloo","Black Hawk","19","13","42.52","-92.33","A","GD"
"50704","IA","Waterloo","Black Hawk","19","13","42.53","-92.27","A","POB"
"50707","IA","Evansdale","Black Hawk","19","13","42.48","-92.28","A","GD"
"50801","IA","Creston","Union","19","175","41.07","-94.38","A","GD"
"50830","IA","Afton","Union","19","175","41.03","-94.2","A","GD"
"50831","IA","Arispe","Union","19","175","40.98","-94.07","A","POB"
"50833","IA","Bedford","Taylor","19","173","40.67","-94.71","A","GD"
"50835","IA","Benton","Ringgold","19","159","40.71","-94.36","A","GD"
"50836","IA","Blockton","Taylor","19","173","40.62","-94.48","A","GD"
"50837","IA","Bridgewater","Adair","19","1","41.24","-94.67","A","GD"
"50839","IA","Carbon","Adams","19","3","41.05","-94.82","A","GD"
"50840","IA","Clearfield","Taylor","19","173","40.8","-94.48","A","GD"
"50841","IA","Corning","Adams","19","3","41","-94.75","A","GD"
"50842","IA","Cromwell","Union","19","175","41.04","-94.46","A","GD"
"50843","IA","Cumberland","Cass","19","29","41.24","-94.89","A","GD"
"50845","IA","Diagonal","Ringgold","19","159","40.81","-94.35","A","GD"
"50846","IA","Fontanelle","Adair","19","1","41.3","-94.56","A","GD"
"50847","IA","Grant","Montgomery","19","137","41.14","-94.98","A","POB"
"50848","IA","Gravity","Taylor","19","173","40.78","-94.76","A","GD"
"50849","IA","Greenfield","Adair","19","1","41.3","-94.44","A","GD"
"50851","IA","Lenox","Taylor","19","173","40.89","-94.54","A","GD"
"50853","IA","Massena","Cass","19","29","41.25","-94.77","A","GD"
"50854","IA","Mount Ayr","Ringgold","19","159","40.7","-94.23","A","GD"
"50857","IA","Nodaway","Adams","19","3","40.93","-94.88","A","GD"
"50858","IA","Orient","Adair","19","1","41.21","-94.4","A","GD"
"50859","IA","Prescott","Adams","19","3","41.05","-94.6","A","GD"
"50860","IA","Redding","Ringgold","19","159","40.62","-94.35","A","GD"
"50861","IA","Shannon City","Union","19","175","40.9","-94.26","A","GD"
"50862","IA","Sharpsburg","Taylor","19","173","40.81","-94.65","A","GD"
"50863","IA","Tingley","Ringgold","19","159","40.85","-94.19","A","GD"
"50864","IA","Villisca","Montgomery","19","137","40.96","-94.99","A","GD"
"50936","IA","Des Moines","Polk","19","153","41.58","-93.64","A","PVT"
"50940","IA","Des Moines","Polk","19","153","41.58","-93.63","A","PVT"
"50947","IA","Des Moines","Polk","19","153","41.58","-93.63","A","PVT"
"50950","IA","Des Moines","Polk","19","153","41.58","-93.63","A","PVT"
"50980","IA","Des Moines","Polk","19","153","41.58","-93.64","A","PVT"
"50981","IA","Des Moines","Polk","19","153","41.58","-93.64","A","PVT"
"50982","IA","Des Moines","Polk","19","153","41.6","-93.61","A","PVT"
"50983","IA","Des Moines","Polk","19","153","41.6","-93.61","A","PVT"
"51001","IA","Akron","Plymouth","19","149","42.87","-96.62","A","GD"
"51002","IA","Alta","Buena Vista","19","21","42.69","-95.32","A","GD"
"51003","IA","Alton","Sioux","19","167","42.98","-96","A","GD"
"51004","IA","Anthon","Woodbury","19","193","42.38","-95.89","A","GD"
"51005","IA","Aurelia","Cherokee","19","35","42.71","-95.43","A","GD"
"51006","IA","Battle Creek","Ida","19","93","42.32","-95.61","A","GD"
"51007","IA","Bronson","Woodbury","19","193","42.41","-96.2","A","GD"
"51008","IA","Brunsville","Plymouth","19","149","42.81","-96.27","A","POB"
"51009","IA","Calumet","Obrien","19","141","42.95","-95.55","A","POB"
"51010","IA","Castana","Monona","19","133","42.08","-95.91","A","GD"
"51011","IA","Chatsworth","Sioux","19","167","42.92","-96.52","A","GD"
"51012","IA","Cherokee","Cherokee","19","35","42.75","-95.56","A","GD"
"51014","IA","Cleghorn","Cherokee","19","35","42.79","-95.71","A","GD"
"51015","IA","Climbing Hill","Woodbury","19","193","42.35","-96.09","A","GD"
"51016","IA","Correctionville","Woodbury","19","193","42.47","-95.81","A","GD"
"51018","IA","Cushing","Woodbury","19","193","42.45","-95.68","A","GD"
"51019","IA","Danbury","Woodbury","19","193","42.26","-95.73","A","GD"
"51020","IA","Galva","Ida","19","93","42.51","-95.41","A","GD"
"51022","IA","Granville","Sioux","19","167","42.97","-95.85","A","GD"
"51023","IA","Hawarden","Sioux","19","167","43","-96.55","A","GD"
"51024","IA","Hinton","Plymouth","19","149","42.61","-96.26","A","GD"
"51025","IA","Holstein","Ida","19","93","42.49","-95.55","A","GD"
"51026","IA","Hornick","Woodbury","19","193","42.25","-96.08","A","GD"
"51027","IA","Ireton","Sioux","19","167","42.97","-96.33","A","GD"
"51028","IA","Kingsley","Plymouth","19","149","42.6","-95.99","A","GD"
"51029","IA","Larrabee","Cherokee","19","35","42.88","-95.54","A","GD"
"51030","IA","Lawton","Woodbury","19","193","42.5","-96.19","A","GD"
"51031","IA","Le Mars","Plymouth","19","149","42.8","-96.18","A","GD"
"51033","IA","Linn Grove","Buena Vista","19","21","42.91","-95.25","A","GD"
"51034","IA","Mapleton","Monona","19","133","42.17","-95.79","A","GD"
"51035","IA","Marcus","Cherokee","19","35","42.8","-95.8","A","GD"
"51036","IA","Maurice","Sioux","19","167","42.97","-96.19","A","GD"
"51037","IA","Meriden","Cherokee","19","35","42.82","-95.64","A","GD"
"51038","IA","Merrill","Plymouth","19","149","42.7","-96.29","A","GD"
"51039","IA","Moville","Woodbury","19","193","42.47","-96.06","A","GD"
"51040","IA","Onawa","Monona","19","133","42.03","-96.1","A","GD"
"51041","IA","Orange City","Sioux","19","167","43.02","-96.07","A","GD"
"51044","IA","Oto","Woodbury","19","193","42.3","-95.91","A","GD"
"51045","IA","Oyens","Plymouth","19","149","42.82","-96.06","A","POB"
"51046","IA","Paullina","Obrien","19","141","42.97","-95.68","A","GD"
"51047","IA","Peterson","Clay","19","41","42.92","-95.35","A","GD"
"51048","IA","Pierson","Woodbury","19","193","42.57","-95.86","A","GD"
"51049","IA","Quimby","Cherokee","19","35","42.63","-95.64","A","GD"
"51050","IA","Remsen","Plymouth","19","149","42.79","-95.95","A","GD"
"51051","IA","Rodney","Monona","19","133","42.21","-95.96","A","GD"
"51052","IA","Salix","Woodbury","19","193","42.31","-96.29","A","GD"
"51053","IA","Schaller","Sac","19","161","42.51","-95.28","A","GD"
"51054","IA","Sergeant Bluff","Woodbury","19","193","42.39","-96.35","A","GD"
"51055","IA","Sloan","Woodbury","19","193","42.22","-96.25","A","GD"
"51056","IA","Smithland","Woodbury","19","193","42.23","-95.94","A","GD"
"51058","IA","Sutherland","Obrien","19","141","42.98","-95.48","A","GD"
"51060","IA","Ute","Monona","19","133","42.04","-95.7","A","GD"
"51061","IA","Washta","Cherokee","19","35","42.58","-95.72","A","GD"
"51062","IA","Westfield","Plymouth","19","149","42.73","-96.54","A","GD"
"51063","IA","Whiting","Monona","19","133","42.14","-96.17","A","GD"
"51101","IA","Sioux City","Woodbury","19","193","42.49","-96.4","A","GD"
"51102","IA","Sioux City","Woodbury","19","193","42.42","-96.34","A","POB"
"51103","IA","Sioux City","Woodbury","19","193","42.51","-96.43","A","GD"
"51104","IA","Sioux City","Woodbury","19","193","42.52","-96.4","A","GD"
"51105","IA","Sioux City","Woodbury","19","193","42.51","-96.38","A","GD"
"51106","IA","Sioux City","Woodbury","19","193","42.47","-96.35","A","GD"
"51108","IA","Sioux City","Woodbury","19","193","42.55","-96.36","A","GD"
"51109","IA","Sioux City","Woodbury","19","193","42.52","-96.48","A","GD"
"51111","IA","Sioux City","Woodbury","19","193","42.41","-96.38","A","GD"
"51201","IA","Sheldon","Obrien","19","141","43.18","-95.85","A","GD"
"51230","IA","Alvord","Lyon","19","119","43.37","-96.31","A","GD"
"51231","IA","Archer","Obrien","19","141","43.1","-95.74","A","GD"
"51232","IA","Ashton","Osceola","19","143","43.3","-95.8","A","GD"
"51234","IA","Boyden","Sioux","19","167","43.2","-96.02","A","GD"
"51235","IA","Doon","Lyon","19","119","43.28","-96.23","A","GD"
"51237","IA","George","Lyon","19","119","43.33","-96","A","GD"
"51238","IA","Hospers","Sioux","19","167","43.07","-95.9","A","GD"
"51239","IA","Hull","Sioux","19","167","43.2","-96.14","A","GD"
"51240","IA","Inwood","Lyon","19","119","43.31","-96.46","A","GD"
"51241","IA","Larchwood","Lyon","19","119","43.45","-96.45","A","GD"
"51242","IA","Lester","Lyon","19","119","43.44","-96.33","A","POB"
"51243","IA","Little Rock","Lyon","19","119","43.45","-95.89","A","GD"
"51244","IA","Matlock","Sioux","19","167","43.24","-95.94","A","GD"
"51245","IA","Primghar","Obrien","19","141","43.08","-95.61","A","GD"
"51246","IA","Rock Rapids","Lyon","19","119","43.43","-96.17","A","GD"
"51247","IA","Rock Valley","Sioux","19","167","43.19","-96.32","A","GD"
"51248","IA","Sanborn","Obrien","19","141","43.19","-95.65","A","GD"
"51249","IA","Sibley","Osceola","19","143","43.4","-95.74","A","GD"
"51250","IA","Sioux Center","Sioux","19","167","43.08","-96.19","A","GD"
"51301","IA","Spencer","Clay","19","41","43.15","-95.15","A","GD"
"51331","IA","Arnolds Park","Dickinson","19","59","43.36","-95.13","A","GD"
"51333","IA","Dickens","Clay","19","41","43.14","-95.01","A","GD"
"51334","IA","Estherville","Emmet","19","63","43.4","-94.81","A","GD"
"51338","IA","Everly","Clay","19","41","43.19","-95.3","A","GD"
"51340","IA","Fostoria","Clay","19","41","43.21","-95.21","A","POB"
"51341","IA","Gillett Grove","Clay","19","41","43.02","-95.04","A","POB"
"51342","IA","Graettinger","Palo Alto","19","147","43.24","-94.74","A","GD"
"51343","IA","Greenville","Clay","19","41","43","-95.1","A","GD"
"51345","IA","Harris","Osceola","19","143","43.42","-95.44","A","GD"
"51346","IA","Hartley","Obrien","19","141","43.18","-95.47","A","GD"
"51347","IA","Lake Park","Dickinson","19","59","43.44","-95.32","A","GD"
"51350","IA","Melvin","Osceola","19","143","43.31","-95.6","A","GD"
"51351","IA","Milford","Dickinson","19","59","43.33","-95.16","A","GD"
"51354","IA","Ocheyedan","Osceola","19","143","43.4","-95.53","A","GD"
"51355","IA","Okoboji","Dickinson","19","59","43.39","-95.14","A","GD"
"51357","IA","Royal","Clay","19","41","43.06","-95.28","A","GD"
"51358","IA","Ruthven","Palo Alto","19","147","43.14","-94.9","A","GD"
"51360","IA","Spirit Lake","Dickinson","19","59","43.52","-95.12","A","GD"
"51363","IA","Superior","Dickinson","19","59","43.43","-94.95","A","POB"
"51364","IA","Terril","Dickinson","19","59","43.31","-94.97","A","GD"
"51365","IA","Wallingford","Emmet","19","63","43.31","-94.75","A","GD"
"51366","IA","Webb","Clay","19","41","42.96","-95.02","A","GD"
"51401","IA","Carroll","Carroll","19","27","42.07","-94.87","A","GD"
"51430","IA","Arcadia","Carroll","19","27","42.09","-95.02","A","GD"
"51431","IA","Arthur","Ida","19","93","42.34","-95.36","A","GD"
"51432","IA","Aspinwall","Crawford","19","47","41.91","-95.14","A","POB"
"51433","IA","Auburn","Sac","19","161","42.28","-94.87","A","GD"
"51436","IA","Breda","Carroll","19","27","42.17","-95","A","GD"
"51439","IA","Charter Oak","Crawford","19","47","42.09","-95.58","A","GD"
"51440","IA","Dedham","Carroll","19","27","41.91","-94.81","A","GD"
"51441","IA","Deloit","Crawford","19","47","42.11","-95.32","A","GD"
"51442","IA","Denison","Crawford","19","47","42.02","-95.36","A","GD"
"51443","IA","Glidden","Carroll","19","27","42.09","-94.71","A","GD"
"51444","IA","Halbur","Carroll","19","27","42.01","-94.97","A","POB"
"51445","IA","Ida Grove","Ida","19","93","42.34","-95.47","A","GD"
"51446","IA","Irwin","Shelby","19","165","41.78","-95.2","A","GD"
"51447","IA","Kirkman","Shelby","19","165","41.72","-95.2","A","GD"
"51448","IA","Kiron","Crawford","19","47","42.2","-95.31","A","GD"
"51449","IA","Lake City","Calhoun","19","25","42.27","-94.74","A","GD"
"51450","IA","Lake View","Sac","19","161","42.31","-95.04","A","GD"
"51451","IA","Lanesboro","Carroll","19","27","42.18","-94.69","A","POB"
"51452","IA","Lidderdale","Carroll","19","27","42.13","-94.78","A","POB"
"51453","IA","Lohrville","Calhoun","19","25","42.28","-94.54","A","GD"
"51454","IA","Manilla","Crawford","19","47","41.89","-95.22","A","GD"
"51455","IA","Manning","Carroll","19","27","41.91","-95.07","A","GD"
"51458","IA","Odebolt","Sac","19","161","42.32","-95.24","A","GD"
"51459","IA","Ralston","Carroll","19","27","42.04","-94.63","A","POB"
"51460","IA","Ricketts","Crawford","19","47","42.13","-95.57","A","POB"
"51461","IA","Schleswig","Crawford","19","47","42.16","-95.47","A","GD"
"51462","IA","Scranton","Greene","19","73","42.02","-94.55","A","GD"
"51463","IA","Templeton","Carroll","19","27","41.91","-94.93","A","GD"
"51465","IA","Vail","Crawford","19","47","42.07","-95.2","A","GD"
"51466","IA","Wall Lake","Sac","19","161","42.26","-95.11","A","GD"
"51467","IA","Westside","Crawford","19","47","42.07","-95.11","A","GD"
"51501","IA","Council Bluffs","Pottawattamie","19","155","41.25","-95.87","A","GD"
"51502","IA","Council Bluffs","Pottawattamie","19","155","41.26","-95.85","A","POB"
"51503","IA","Council Bluffs","Pottawattamie","19","155","41.25","-95.81","A","GD"
"51510","IA","Carter Lake","Pottawattamie","19","155","41.29","-95.91","A","GD"
"51520","IA","Arion","Crawford","19","47","41.97","-95.45","A","GD"
"51521","IA","Avoca","Pottawattamie","19","155","41.48","-95.34","A","GD"
"51523","IA","Blencoe","Monona","19","133","41.92","-96.08","A","GD"
"51525","IA","Carson","Pottawattamie","19","155","41.24","-95.41","A","GD"
"51526","IA","Crescent","Pottawattamie","19","155","41.36","-95.88","A","GD"
"51527","IA","Defiance","Shelby","19","165","41.83","-95.34","A","GD"
"51528","IA","Dow City","Crawford","19","47","41.93","-95.5","A","GD"
"51529","IA","Dunlap","Harrison","19","85","41.86","-95.61","A","GD"
"51530","IA","Earling","Shelby","19","165","41.78","-95.43","A","GD"
"51531","IA","Elk Horn","Shelby","19","165","41.6","-95.07","A","GD"
"51532","IA","Elliott","Montgomery","19","137","41.14","-95.13","A","GD"
"51533","IA","Emerson","Mills","19","129","41.03","-95.39","A","GD"
"51534","IA","Glenwood","Mills","19","129","41.04","-95.73","A","GD"
"51535","IA","Griswold","Cass","19","29","41.23","-95.13","A","GD"
"51536","IA","Hancock","Pottawattamie","19","155","41.39","-95.37","A","GD"
"51537","IA","Harlan","Shelby","19","165","41.64","-95.31","A","GD"
"51540","IA","Hastings","Mills","19","129","41.02","-95.5","A","GD"
"51541","IA","Henderson","Mills","19","129","41.14","-95.4","A","GD"
"51542","IA","Honey Creek","Pottawattamie","19","155","41.43","-95.84","A","GD"
"51543","IA","Kimballton","Audubon","19","9","41.64","-95.08","A","GD"
"51544","IA","Lewis","Cass","19","29","41.31","-95.1","A","GD"
"51545","IA","Little Sioux","Harrison","19","85","41.82","-96.04","A","GD"
"51546","IA","Logan","Harrison","19","85","41.64","-95.78","A","GD"
"51548","IA","Mc Clelland","Pottawattamie","19","155","41.31","-95.65","A","GD"
"51549","IA","Macedonia","Pottawattamie","19","155","41.19","-95.43","A","GD"
"51550","IA","Magnolia","Harrison","19","85","41.69","-95.87","A","GD"
"51551","IA","Malvern","Mills","19","129","41","-95.59","A","GD"
"51552","IA","Marne","Cass","19","29","41.48","-95.12","A","GD"
"51553","IA","Minden","Pottawattamie","19","155","41.44","-95.54","A","GD"
"51554","IA","Mineola","Mills","19","129","41.14","-95.69","A","POB"
"51555","IA","Missouri Valley","Harrison","19","85","41.55","-95.91","A","GD"
"51556","IA","Modale","Harrison","19","85","41.63","-96.02","A","GD"
"51557","IA","Mondamin","Harrison","19","85","41.71","-96.09","A","GD"
"51558","IA","Moorhead","Monona","19","133","41.91","-95.86","A","GD"
"51559","IA","Neola","Pottawattamie","19","155","41.46","-95.64","A","GD"
"51560","IA","Oakland","Pottawattamie","19","155","41.32","-95.41","A","GD"
"51561","IA","Pacific Junction","Mills","19","129","41.02","-95.81","A","GD"
"51562","IA","Panama","Shelby","19","165","41.73","-95.49","A","GD"
"51563","IA","Persia","Harrison","19","85","41.57","-95.59","A","GD"
"51564","IA","Pisgah","Harrison","19","85","41.82","-95.91","A","GD"
"51565","IA","Portsmouth","Shelby","19","165","41.64","-95.52","A","GD"
"51566","IA","Red Oak","Montgomery","19","137","41.01","-95.23","A","GD"
"51570","IA","Shelby","Shelby","19","165","41.52","-95.46","A","GD"
"51571","IA","Silver City","Mills","19","129","41.12","-95.62","A","GD"
"51572","IA","Soldier","Monona","19","133","41.98","-95.79","A","GD"
"51573","IA","Stanton","Montgomery","19","137","40.98","-95.1","A","GD"
"51575","IA","Treynor","Pottawattamie","19","155","41.25","-95.61","A","GD"
"51576","IA","Underwood","Pottawattamie","19","155","41.36","-95.7","A","GD"
"51577","IA","Walnut","Pottawattamie","19","155","41.46","-95.21","A","GD"
"51578","IA","Westphalia","Shelby","19","165","41.72","-95.39","A","POB"
"51579","IA","Woodbine","Harrison","19","85","41.74","-95.71","A","GD"
"51591","IA","Red Oak","Montgomery","19","137","40.98","-95.26","A","POB"
"51593","IA","Harlan","Shelby","19","165","41.66","-95.32","A","POB"
"51601","IA","Shenandoah","Page","19","145","40.75","-95.36","A","GD"
"51603","IA","Shenandoah","Page","19","145","40.77","-95.37","A","PVT"
"51630","IA","Blanchard","Page","19","145","40.6","-95.19","A","GD"
"51631","IA","Braddyville","Page","19","145","40.59","-95.01","A","GD"
"51632","IA","Clarinda","Page","19","145","40.74","-95.04","A","GD"
"51636","IA","Coin","Page","19","145","40.67","-95.23","A","GD"
"51637","IA","College Springs","Page","19","145","40.62","-95.12","A","POB"
"51638","IA","Essex","Page","19","145","40.84","-95.28","A","GD"
"51639","IA","Farragut","Fremont","19","71","40.72","-95.48","A","GD"
"51640","IA","Hamburg","Fremont","19","71","40.56","-95.7","A","GD"
"51645","IA","Imogene","Fremont","19","71","40.88","-95.43","A","GD"
"51646","IA","New Market","Taylor","19","173","40.75","-94.87","A","GD"
"51647","IA","Northboro","Page","19","145","40.6","-95.31","A","GD"
"51648","IA","Percival","Fremont","19","71","40.73","-95.81","A","GD"
"51649","IA","Randolph","Fremont","19","71","40.87","-95.55","A","GD"
"51650","IA","Riverton","Fremont","19","71","40.68","-95.56","A","GD"
"51651","IA","Shambaugh","Page","19","145","40.68","-95.06","A","POB"
"51652","IA","Sidney","Fremont","19","71","40.76","-95.64","A","GD"
"51653","IA","Tabor","Fremont","19","71","40.89","-95.67","A","GD"
"51654","IA","Thurman","Fremont","19","71","40.83","-95.78","A","GD"
"51656","IA","Yorktown","Page","19","145","40.73","-95.16","A","POB"
"52001","IA","Dubuque","Dubuque","19","61","42.51","-90.68","A","GD"
"52002","IA","Dubuque","Dubuque","19","61","42.51","-90.75","A","GD"
"52003","IA","Dubuque","Dubuque","19","61","42.47","-90.69","A","GD"
"52004","IA","Dubuque","Dubuque","19","61","42.5","-90.67","A","POB"
"52030","IA","Andrew","Jackson","19","97","42.15","-90.59","A","POB"
"52031","IA","Bellevue","Jackson","19","97","42.25","-90.46","A","GD"
"52032","IA","Bernard","Dubuque","19","61","42.27","-90.81","A","GD"
"52033","IA","Cascade","Dubuque","19","61","42.28","-91","A","GD"
"52035","IA","Colesburg","Delaware","19","55","42.67","-91.18","A","GD"
"52036","IA","Delaware","Delaware","19","55","42.49","-91.27","A","GD"
"52037","IA","Delmar","Clinton","19","45","41.98","-90.62","A","GD"
"52038","IA","Dundee","Delaware","19","55","42.58","-91.55","A","GD"
"52039","IA","Durango","Dubuque","19","61","42.53","-90.84","A","GD"
"52040","IA","Dyersville","Dubuque","19","61","42.49","-91.13","A","GD"
"52041","IA","Earlville","Delaware","19","55","42.5","-91.26","A","GD"
"52042","IA","Edgewood","Clayton","19","43","42.68","-91.38","A","GD"
"52043","IA","Elkader","Clayton","19","43","42.85","-91.41","A","GD"
"52044","IA","Elkport","Clayton","19","43","42.76","-91.3","A","GD"
"52045","IA","Epworth","Dubuque","19","61","42.45","-90.93","A","GD"
"52046","IA","Farley","Dubuque","19","61","42.44","-91.01","A","GD"
"52047","IA","Farmersburg","Clayton","19","43","42.96","-91.36","A","GD"
"52048","IA","Garber","Clayton","19","43","42.73","-91.26","A","GD"
"52049","IA","Garnavillo","Clayton","19","43","42.88","-91.19","A","GD"
"52050","IA","Greeley","Delaware","19","55","42.6","-91.33","A","GD"
"52052","IA","Guttenberg","Clayton","19","43","42.77","-91.1","A","GD"
"52053","IA","Holy Cross","Dubuque","19","61","42.6","-90.96","A","GD"
"52054","IA","La Motte","Jackson","19","97","42.3","-90.62","A","GD"
"52056","IA","Luxemburg","Dubuque","19","61","42.61","-91.08","A","POB"
"52057","IA","Manchester","Delaware","19","55","42.49","-91.45","A","GD"
"52060","IA","Maquoketa","Jackson","19","97","42.08","-90.68","A","GD"
"52064","IA","Miles","Jackson","19","97","42.08","-90.33","A","GD"
"52065","IA","New Vienna","Dubuque","19","61","42.57","-91.1","A","GD"
"52066","IA","North Buena Vista","Clayton","19","43","42.68","-90.95","A","GD"
"52068","IA","Peosta","Dubuque","19","61","42.44","-90.81","A","GD"
"52069","IA","Preston","Jackson","19","97","42.06","-90.41","A","GD"
"52070","IA","Sabula","Jackson","19","97","42.08","-90.2","A","GD"
"52071","IA","Saint Donatus","Jackson","19","97","42.33","-90.5","A","POB"
"52072","IA","Saint Olaf","Clayton","19","43","42.92","-91.38","A","GD"
"52073","IA","Sherrill","Dubuque","19","61","42.64","-90.83","A","GD"
"52074","IA","Spragueville","Jackson","19","97","42.12","-90.48","A","GD"
"52075","IA","Springbrook","Jackson","19","97","42.16","-90.49","A","POB"
"52076","IA","Strawberry Point","Clayton","19","43","42.68","-91.53","A","GD"
"52077","IA","Volga","Clayton","19","43","42.81","-91.56","A","GD"
"52078","IA","Worthington","Dubuque","19","61","42.41","-91.13","A","GD"
"52079","IA","Zwingle","Dubuque","19","61","42.29","-90.7","A","GD"
"52099","IA","Dubuque","Dubuque","19","61","42.5","-90.67","A","PVT"
"52101","IA","Decorah","Winneshiek","19","191","43.34","-91.77","A","GD"
"52132","IA","Calmar","Winneshiek","19","191","43.2","-91.9","A","GD"
"52133","IA","Castalia","Winneshiek","19","191","43.12","-91.67","A","GD"
"52134","IA","Chester","Howard","19","89","43.49","-92.39","A","GD"
"52135","IA","Clermont","Fayette","19","65","43","-91.66","A","GD"
"52136","IA","Cresco","Howard","19","89","43.38","-92.1","A","GD"
"52140","IA","Dorchester","Allamakee","19","5","43.45","-91.56","A","GD"
"52141","IA","Elgin","Fayette","19","65","42.95","-91.64","A","GD"
"52142","IA","Fayette","Fayette","19","65","42.83","-91.8","A","GD"
"52144","IA","Fort Atkinson","Winneshiek","19","191","43.14","-91.95","A","GD"
"52146","IA","Harpers Ferry","Allamakee","19","5","43.19","-91.18","A","GD"
"52147","IA","Hawkeye","Fayette","19","65","42.96","-91.96","A","GD"
"52149","IA","Highlandville","Winneshiek","19","191","43.31","-91.79","A","POB"
"52151","IA","Lansing","Allamakee","19","5","43.34","-91.24","A","GD"
"52154","IA","Lawler","Chickasaw","19","37","43.11","-92.15","A","GD"
"52155","IA","Lime Springs","Howard","19","89","43.42","-92.31","A","GD"
"52156","IA","Luana","Clayton","19","43","43.05","-91.46","A","GD"
"52157","IA","Mc Gregor","Clayton","19","43","43.01","-91.2","A","GD"
"52158","IA","Marquette","Clayton","19","43","43.04","-91.18","A","POB"
"52159","IA","Monona","Clayton","19","43","43.07","-91.36","A","GD"
"52160","IA","New Albin","Allamakee","19","5","43.48","-91.33","A","GD"
"52161","IA","Ossian","Winneshiek","19","191","43.13","-91.75","A","GD"
"52162","IA","Postville","Allamakee","19","5","43.11","-91.56","A","GD"
"52163","IA","Protivin","Howard","19","89","43.22","-92.09","A","POB"
"52164","IA","Randalia","Fayette","19","65","42.85","-91.89","A","GD"
"52165","IA","Ridgeway","Winneshiek","19","191","43.3","-91.98","A","GD"
"52166","IA","Saint Lucas","Fayette","19","65","43.07","-91.93","A","POB"
"52168","IA","Spillville","Winneshiek","19","191","43.21","-91.95","A","POB"
"52169","IA","Wadena","Fayette","19","65","42.85","-91.66","A","GD"
"52170","IA","Waterville","Allamakee","19","5","43.21","-91.3","A","GD"
"52171","IA","Waucoma","Fayette","19","65","43.07","-92.05","A","GD"
"52172","IA","Waukon","Allamakee","19","5","43.27","-91.48","A","GD"
"52175","IA","West Union","Fayette","19","65","42.99","-91.81","A","GD"
"52201","IA","Ainsworth","Washington","19","183","41.32","-91.55","A","GD"
"52202","IA","Alburnett","Linn","19","113","42.15","-91.64","A","GD"
"52203","IA","Amana","Iowa","19","95","41.8","-91.89","A","GD"
"52204","IA","Amana","Iowa","19","95","41.8","-91.87","A","PVT"
"52205","IA","Anamosa","Jones","19","105","42.11","-91.28","A","GD"
"52206","IA","Atkins","Benton","19","11","41.99","-91.87","A","GD"
"52207","IA","Baldwin","Jackson","19","97","42.08","-90.83","A","GD"
"52208","IA","Belle Plaine","Benton","19","11","41.89","-92.27","A","GD"
"52209","IA","Blairstown","Benton","19","11","41.91","-92.09","A","GD"
"52210","IA","Brandon","Buchanan","19","19","42.33","-92","A","GD"
"52211","IA","Brooklyn","Poweshiek","19","157","41.75","-92.45","A","GD"
"52212","IA","Center Junction","Jones","19","105","42.11","-91.09","A","GD"
"52213","IA","Center Point","Linn","19","113","42.19","-91.79","A","GD"
"52214","IA","Central City","Linn","19","113","42.2","-91.52","A","GD"
"52215","IA","Chelsea","Tama","19","171","41.91","-92.4","A","GD"
"52216","IA","Clarence","Cedar","19","31","41.89","-91.05","A","GD"
"52217","IA","Clutier","Tama","19","171","42.08","-92.4","A","GD"
"52218","IA","Coggon","Linn","19","113","42.29","-91.56","A","GD"
"52219","IA","Prairieburg","Linn","19","113","42.24","-91.42","A","GD"
"52220","IA","Conroy","Iowa","19","95","41.73","-92","A","POB"
"52221","IA","Guernsey","Poweshiek","19","157","41.64","-92.33","A","GD"
"52222","IA","Deep River","Poweshiek","19","157","41.58","-92.34","A","GD"
"52223","IA","Delhi","Delaware","19","55","42.43","-91.34","A","GD"
"52224","IA","Dysart","Tama","19","171","42.16","-92.3","A","GD"
"52225","IA","Elberon","Tama","19","171","42.01","-92.33","A","GD"
"52227","IA","Ely","Linn","19","113","41.89","-91.57","A","GD"
"52228","IA","Fairfax","Linn","19","113","41.91","-91.78","A","GD"
"52229","IA","Garrison","Benton","19","11","42.15","-92.15","A","GD"
"52231","IA","Harper","Keokuk","19","107","41.36","-92.06","A","GD"
"52232","IA","Hartwick","Poweshiek","19","157","41.81","-92.33","A","GD"
"52233","IA","Hiawatha","Linn","19","113","42.04","-91.68","A","GD"
"52235","IA","Hills","Johnson","19","103","41.56","-91.53","A","POB"
"52236","IA","Homestead","Iowa","19","95","41.73","-91.87","A","GD"
"52237","IA","Hopkinton","Delaware","19","55","42.35","-91.24","A","GD"
"52240","IA","Iowa City","Johnson","19","103","41.65","-91.52","A","GD"
"52241","IA","Coralville","Johnson","19","103","41.69","-91.59","A","GD"
"52242","IA","Iowa City","Johnson","19","103","41.66","-91.54","A","GD"
"52243","IA","Iowa City","Johnson","19","103","41.66","-91.54","A","PVT"
"52244","IA","Iowa City","Johnson","19","103","41.69","-91.52","A","POB"
"52245","IA","Iowa City","Johnson","19","103","41.67","-91.51","A","GD"
"52246","IA","Iowa City","Johnson","19","103","41.65","-91.56","A","GD"
"52247","IA","Kalona","Washington","19","183","41.5","-91.72","A","GD"
"52248","IA","Keota","Keokuk","19","107","41.36","-91.94","A","GD"
"52249","IA","Keystone","Benton","19","11","42","-92.2","A","GD"
"52251","IA","Ladora","Iowa","19","95","41.73","-92.19","A","GD"
"52252","IA","Langworthy","Jones","19","105","42.19","-91.22","A","GD"
"52253","IA","Lisbon","Linn","19","113","41.9","-91.36","A","GD"
"52254","IA","Lost Nation","Clinton","19","45","41.95","-90.79","A","GD"
"52255","IA","Lowden","Cedar","19","31","41.86","-90.95","A","GD"
"52257","IA","Luzerne","Benton","19","11","41.91","-92.18","A","GD"
"52301","IA","Marengo","Iowa","19","95","41.79","-92.08","A","GD"
"52302","IA","Marion","Linn","19","113","42.05","-91.59","A","GD"
"52305","IA","Martelle","Jones","19","105","42.03","-91.34","A","GD"
"52306","IA","Mechanicsville","Cedar","19","31","41.9","-91.26","A","GD"
"52307","IA","Middle Amana","Iowa","19","95","41.79","-91.9","A","POB"
"52308","IA","Millersburg","Iowa","19","95","41.57","-92.16","A","POB"
"52309","IA","Monmouth","Jackson","19","97","42.11","-90.89","A","GD"
"52310","IA","Monticello","Jones","19","105","42.22","-91.19","A","GD"
"52312","IA","Morley","Jones","19","105","42.01","-91.25","A","GD"
"52313","IA","Mount Auburn","Benton","19","11","42.26","-92.1","A","GD"
"52314","IA","Mount Vernon","Linn","19","113","41.93","-91.44","A","GD"
"52315","IA","Newhall","Benton","19","11","42","-91.97","A","GD"
"52316","IA","North English","Iowa","19","95","41.53","-92.08","A","GD"
"52317","IA","North Liberty","Johnson","19","103","41.75","-91.62","A","GD"
"52318","IA","Norway","Benton","19","11","41.88","-91.9","A","GD"
"52320","IA","Olin","Jones","19","105","42","-91.15","A","GD"
"52321","IA","Onslow","Jones","19","105","42.14","-91","A","GD"
"52322","IA","Oxford","Johnson","19","103","41.69","-91.77","A","GD"
"52323","IA","Oxford Junction","Jones","19","105","41.98","-90.96","A","GD"
"52324","IA","Palo","Linn","19","113","42.06","-91.8","A","GD"
"52325","IA","Parnell","Iowa","19","95","41.58","-91.93","A","GD"
"52326","IA","Quasqueton","Buchanan","19","19","42.39","-91.76","A","GD"
"52327","IA","Riverside","Washington","19","183","41.49","-91.57","A","GD"
"52328","IA","Robins","Linn","19","113","42.07","-91.66","A","GD"
"52329","IA","Rowley","Buchanan","19","19","42.37","-91.84","A","GD"
"52330","IA","Ryan","Delaware","19","55","42.35","-91.51","A","GD"
"52332","IA","Shellsburg","Benton","19","11","42.1","-91.88","A","GD"
"52333","IA","Solon","Johnson","19","103","41.81","-91.5","A","GD"
"52334","IA","South Amana","Iowa","19","95","41.74","-91.94","A","GD"
"52335","IA","South English","Keokuk","19","107","41.45","-92.05","A","GD"
"52336","IA","Springville","Linn","19","113","42.06","-91.44","A","GD"
"52337","IA","Stanwood","Cedar","19","31","41.89","-91.15","A","GD"
"52338","IA","Swisher","Johnson","19","103","41.84","-91.69","A","GD"
"52339","IA","Tama","Tama","19","171","41.95","-92.6","A","GD"
"52340","IA","Tiffin","Johnson","19","103","41.71","-91.68","A","GD"
"52341","IA","Toddville","Linn","19","113","42.1","-91.73","A","GD"
"52342","IA","Toledo","Tama","19","171","42.03","-92.57","A","GD"
"52344","IA","Troy Mills","Linn","19","113","42.29","-91.68","A","POB"
"52345","IA","Urbana","Benton","19","11","42.23","-91.88","A","GD"
"52346","IA","Van Horne","Benton","19","11","42.01","-92.08","A","GD"
"52347","IA","Victor","Iowa","19","95","41.73","-92.3","A","GD"
"52348","IA","Vining","Tama","19","171","41.99","-92.38","A","POB"
"52349","IA","Vinton","Benton","19","11","42.18","-92.01","A","GD"
"52351","IA","Walford","Benton","19","11","41.88","-91.84","A","GD"
"52352","IA","Walker","Linn","19","113","42.29","-91.78","A","GD"
"52353","IA","Washington","Washington","19","183","41.3","-91.7","A","GD"
"52354","IA","Watkins","Benton","19","11","41.91","-91.98","A","GD"
"52355","IA","Webster","Keokuk","19","107","41.46","-92.18","A","GD"
"52356","IA","Wellman","Washington","19","183","41.48","-91.84","A","GD"
"52358","IA","West Branch","Cedar","19","31","41.68","-91.33","A","GD"
"52359","IA","West Chester","Washington","19","183","41.35","-91.82","A","GD"
"52361","IA","Williamsburg","Iowa","19","95","41.66","-92.02","A","GD"
"52362","IA","Wyoming","Jones","19","105","42.06","-91","A","GD"
"52401","IA","Cedar Rapids","Linn","19","113","41.98","-91.66","A","GD"
"52402","IA","Cedar Rapids","Linn","19","113","42.02","-91.65","A","GD"
"52403","IA","Cedar Rapids","Linn","19","113","41.98","-91.61","A","GD"
"52404","IA","Cedar Rapids","Linn","19","113","41.95","-91.69","A","GD"
"52405","IA","Cedar Rapids","Linn","19","113","41.98","-91.71","A","GD"
"52406","IA","Cedar Rapids","Linn","19","113","41.92","-91.68","A","POB"
"52407","IA","Cedar Rapids","Linn","19","113","41.97","-91.66","A","POB"
"52408","IA","Cedar Rapids","Linn","19","113","41.99","-91.72","A","POB"
"52409","IA","Cedar Rapids","Linn","19","113","41.99","-91.72","A","POB"
"52410","IA","Cedar Rapids","Linn","19","113","42.02","-91.66","A","POB"
"52411","IA","Cedar Rapids","Linn","19","113","42.04","-91.72","A","GD"
"52497","IA","Cedar Rapids","Linn","19","113","41.97","-91.67","A","PVT"
"52498","IA","Cedar Rapids","Linn","19","113","42.02","-91.66","A","PVT"
"52499","IA","Cedar Rapids","Linn","19","113","41.97","-91.66","A","PVT"
"52501","IA","Ottumwa","Wapello","19","179","41.02","-92.42","A","GD"
"52530","IA","Agency","Wapello","19","179","40.99","-92.3","A","GD"
"52531","IA","Albia","Monroe","19","135","41.03","-92.81","A","GD"
"52533","IA","Batavia","Jefferson","19","101","41.01","-92.15","A","GD"
"52534","IA","Beacon","Mahaska","19","123","41.28","-92.68","A","GD"
"52535","IA","Birmingham","Van Buren","19","177","40.86","-91.96","A","GD"
"52536","IA","Blakesburg","Wapello","19","179","40.96","-92.62","A","GD"
"52537","IA","Bloomfield","Davis","19","51","40.74","-92.43","A","GD"
"52540","IA","Brighton","Washington","19","183","41.16","-91.82","A","GD"
"52542","IA","Cantril","Van Buren","19","177","40.59","-92.05","A","GD"
"52543","IA","Cedar","Mahaska","19","123","41.21","-92.52","A","GD"
"52544","IA","Centerville","Appanoose","19","7","40.74","-92.89","A","GD"
"52548","IA","Chillicothe","Wapello","19","179","41.09","-92.53","A","GD"
"52549","IA","Cincinnati","Appanoose","19","7","40.62","-92.93","A","GD"
"52550","IA","Delta","Keokuk","19","107","41.33","-92.35","A","GD"
"52551","IA","Douds","Van Buren","19","177","40.84","-92.1","A","GD"
"52552","IA","Drakesville","Davis","19","51","40.82","-92.53","A","GD"
"52553","IA","Eddyville","Wapello","19","179","41.15","-92.64","A","GD"
"52554","IA","Eldon","Wapello","19","179","40.92","-92.22","A","GD"
"52555","IA","Exline","Appanoose","19","7","40.65","-92.82","A","GD"
"52556","IA","Fairfield","Jefferson","19","101","41.01","-91.96","A","GD"
"52557","IA","Fairfield","Jefferson","19","101","41.02","-91.97","A","PVT"
"52560","IA","Floris","Davis","19","51","40.86","-92.27","A","GD"
"52561","IA","Fremont","Mahaska","19","123","41.22","-92.44","A","GD"
"52562","IA","Hayesville","Keokuk","19","107","41.33","-92.18","A","GD"
"52563","IA","Hedrick","Keokuk","19","107","41.17","-92.28","A","GD"
"52565","IA","Keosauqua","Van Buren","19","177","40.73","-91.95","A","GD"
"52566","IA","Kirkville","Wapello","19","179","41.14","-92.5","A","GD"
"52567","IA","Libertyville","Jefferson","19","101","40.93","-92.07","A","GD"
"52568","IA","Martinsburg","Keokuk","19","107","41.2","-92.16","A","POB"
"52569","IA","Melrose","Monroe","19","135","40.93","-93.04","A","GD"
"52570","IA","Milton","Van Buren","19","177","40.69","-92.17","A","GD"
"52571","IA","Moravia","Appanoose","19","7","40.87","-92.84","A","GD"
"52572","IA","Moulton","Appanoose","19","7","40.68","-92.68","A","GD"
"52573","IA","Mount Sterling","Van Buren","19","177","40.59","-91.97","A","GD"
"52574","IA","Mystic","Appanoose","19","7","40.8","-92.95","A","GD"
"52576","IA","Ollie","Keokuk","19","107","41.22","-92.11","A","GD"
"52577","IA","Oskaloosa","Mahaska","19","123","41.28","-92.65","A","GD"
"52580","IA","Packwood","Jefferson","19","101","41.13","-92.1","A","GD"
"52581","IA","Plano","Appanoose","19","7","40.79","-93.05","A","GD"
"52583","IA","Promise City","Wayne","19","185","40.79","-93.16","A","GD"
"52584","IA","Pulaski","Davis","19","51","40.66","-92.26","A","GD"
"52585","IA","Richland","Keokuk","19","107","41.19","-91.98","A","GD"
"52586","IA","Rose Hill","Mahaska","19","123","41.34","-92.47","A","GD"
"52588","IA","Selma","Van Buren","19","177","40.87","-92.17","A","GD"
"52590","IA","Seymour","Wayne","19","185","40.68","-93.13","A","GD"
"52591","IA","Sigourney","Keokuk","19","107","41.33","-92.2","A","GD"
"52593","IA","Udell","Appanoose","19","7","40.78","-92.74","A","GD"
"52594","IA","Unionville","Appanoose","19","7","40.84","-92.65","A","GD"
"52595","IA","University Park","Mahaska","19","123","41.29","-92.62","A","POB"
"52601","IA","Burlington","Des Moines","19","57","40.81","-91.12","A","GD"
"52619","IA","Argyle","Lee","19","111","40.53","-91.57","A","GD"
"52620","IA","Bonaparte","Van Buren","19","177","40.7","-91.8","A","GD"
"52621","IA","Crawfordsville","Washington","19","183","41.21","-91.53","A","GD"
"52623","IA","Danville","Des Moines","19","57","40.86","-91.34","A","GD"
"52624","IA","Denmark","Lee","19","111","40.74","-91.34","A","POB"
"52625","IA","Donnellson","Lee","19","111","40.66","-91.57","A","GD"
"52626","IA","Farmington","Van Buren","19","177","40.59","-91.83","A","GD"
"52627","IA","Fort Madison","Lee","19","111","40.64","-91.34","A","GD"
"52630","IA","Hillsboro","Henry","19","87","40.81","-91.71","A","GD"
"52631","IA","Houghton","Lee","19","111","40.77","-91.66","A","POB"
"52632","IA","Keokuk","Lee","19","111","40.41","-91.4","A","GD"
"52635","IA","Lockridge","Jefferson","19","101","41","-91.75","A","GD"
"52637","IA","Mediapolis","Des Moines","19","57","41.01","-91.15","A","GD"
"52638","IA","Middletown","Des Moines","19","57","40.81","-91.24","A","GD"
"52639","IA","Montrose","Lee","19","111","40.53","-91.43","A","GD"
"52640","IA","Morning Sun","Louisa","19","115","41.1","-91.28","A","GD"
"52641","IA","Mount Pleasant","Henry","19","87","40.97","-91.57","A","GD"
"52642","IA","Rome","Henry","19","87","40.98","-91.68","A","POB"
"52644","IA","Mount Union","Henry","19","87","41.04","-91.41","A","GD"
"52645","IA","New London","Henry","19","87","40.92","-91.41","A","GD"
"52646","IA","Oakville","Louisa","19","115","41.07","-91.01","A","GD"
"52647","IA","Olds","Henry","19","87","41.13","-91.55","A","POB"
"52648","IA","Pilot Grove","Lee","19","111","40.77","-91.55","A","GD"
"52649","IA","Salem","Henry","19","87","40.85","-91.62","A","GD"
"52650","IA","Sperry","Des Moines","19","57","40.95","-91.17","A","GD"
"52651","IA","Stockport","Van Buren","19","177","40.86","-91.8","A","GD"
"52652","IA","Swedesburg","Henry","19","87","41.12","-91.54","A","POB"
"52653","IA","Wapello","Louisa","19","115","41.17","-91.17","A","GD"
"52654","IA","Wayland","Henry","19","87","41.14","-91.67","A","GD"
"52655","IA","West Burlington","Des Moines","19","57","40.83","-91.19","A","GD"
"52656","IA","West Point","Lee","19","111","40.72","-91.46","A","GD"
"52657","IA","Saint Paul","Lee","19","111","40.77","-91.52","A","GD"
"52658","IA","Wever","Lee","19","111","40.7","-91.24","A","GD"
"52659","IA","Winfield","Henry","19","87","41.13","-91.44","A","GD"
"52660","IA","Yarmouth","Des Moines","19","57","40.99","-91.3","A","GD"
"52701","IA","Andover","Clinton","19","45","41.98","-90.25","A","POB"
"52720","IA","Atalissa","Muscatine","19","139","41.58","-91.15","A","GD"
"52721","IA","Bennett","Cedar","19","31","41.75","-90.97","A","GD"
"52722","IA","Bettendorf","Scott","19","163","41.55","-90.49","A","GD"
"52726","IA","Blue Grass","Scott","19","163","41.5","-90.78","A","GD"
"52727","IA","Bryant","Clinton","19","45","41.96","-90.33","A","GD"
"52728","IA","Buffalo","Scott","19","163","41.46","-90.73","A","POB"
"52729","IA","Calamus","Clinton","19","45","41.81","-90.75","A","GD"
"52730","IA","Camanche","Clinton","19","45","41.78","-90.29","A","GD"
"52731","IA","Charlotte","Clinton","19","45","41.96","-90.48","A","GD"
"52732","IA","Clinton","Clinton","19","45","41.86","-90.22","A","GD"
"52733","IA","Clinton","Clinton","19","45","41.84","-90.19","A","POB"
"52734","IA","Clinton","Clinton","19","45","41.84","-90.19","A","PVT"
"52736","IA","Clinton","Clinton","19","45","41.84","-90.23","A","PVT"
"52737","IA","Columbus City","Louisa","19","115","41.26","-91.37","A","GD"
"52738","IA","Columbus Junction","Louisa","19","115","41.27","-91.37","A","GD"
"52739","IA","Conesville","Muscatine","19","139","41.36","-91.36","A","GD"
"52742","IA","De Witt","Clinton","19","45","41.83","-90.53","A","GD"
"52745","IA","Dixon","Scott","19","163","41.72","-90.77","A","GD"
"52746","IA","Donahue","Scott","19","163","41.72","-90.67","A","GD"
"52747","IA","Durant","Cedar","19","31","41.6","-90.91","A","GD"
"52748","IA","Eldridge","Scott","19","163","41.66","-90.57","A","GD"
"52749","IA","Fruitland","Muscatine","19","139","41.35","-91.13","A","GD"
"52750","IA","Goose Lake","Clinton","19","45","41.94","-90.4","A","GD"
"52751","IA","Grand Mound","Clinton","19","45","41.84","-90.67","A","GD"
"52752","IA","Grandview","Louisa","19","115","41.28","-91.19","A","POB"
"52753","IA","Le Claire","Scott","19","163","41.6","-90.36","A","GD"
"52754","IA","Letts","Louisa","19","115","41.35","-91.25","A","GD"
"52755","IA","Lone Tree","Johnson","19","103","41.47","-91.43","A","GD"
"52756","IA","Long Grove","Scott","19","163","41.72","-90.54","A","GD"
"52757","IA","Low Moor","Clinton","19","45","41.8","-90.36","A","POB"
"52758","IA","Mc Causland","Scott","19","163","41.75","-90.44","A","POB"
"52759","IA","Montpelier","Muscatine","19","139","41.44","-91.08","A","GD"
"52760","IA","Moscow","Muscatine","19","139","41.57","-91.09","A","GD"
"52761","IA","Muscatine","Muscatine","19","139","41.42","-91.05","A","GD"
"52765","IA","New Liberty","Scott","19","163","41.74","-90.87","A","GD"
"52766","IA","Nichols","Muscatine","19","139","41.47","-91.3","A","GD"
"52767","IA","Pleasant Valley","Scott","19","163","41.57","-90.42","A","POB"
"52768","IA","Princeton","Scott","19","163","41.69","-90.37","A","GD"
"52769","IA","Stockton","Muscatine","19","139","41.6","-90.86","A","GD"
"52771","IA","Teeds Grove","Clinton","19","45","41.84","-90.19","A","GD"
"52772","IA","Tipton","Cedar","19","31","41.75","-91.13","A","GD"
"52773","IA","Walcott","Scott","19","163","41.62","-90.77","A","GD"
"52774","IA","Welton","Clinton","19","45","41.91","-90.6","A","POB"
"52776","IA","West Liberty","Muscatine","19","139","41.58","-91.26","A","GD"
"52777","IA","Wheatland","Clinton","19","45","41.84","-90.86","A","GD"
"52778","IA","Wilton","Muscatine","19","139","41.6","-91.01","A","GD"
"52801","IA","Davenport","Scott","19","163","41.52","-90.57","A","GD"
"52802","IA","Davenport","Scott","19","163","41.51","-90.62","A","GD"
"52803","IA","Davenport","Scott","19","163","41.54","-90.56","A","GD"
"52804","IA","Davenport","Scott","19","163","41.53","-90.62","A","GD"
"52805","IA","Davenport","Scott","19","163","41.57","-90.6","A","POB"
"52806","IA","Davenport","Scott","19","163","41.58","-90.6","A","GD"
"52807","IA","Davenport","Scott","19","163","41.58","-90.54","A","GD"
"52808","IA","Davenport","Scott","19","163","41.5","-90.64","A","POB"
"52809","IA","Davenport","Scott","19","163","41.56","-90.63","A","POB"
