"ZIPCode","State","City","County","StateFIPS","CountyFIPS","Latitude","Longitude","Preference","Type"
"66002","KS","Atchison","Atchison","20","5","39.55","-95.13","A","GD"
"66006","KS","Baldwin City","Douglas","20","45","38.79","-95.21","A","GD"
"66007","KS","Basehor","Leavenworth","20","103","39.14","-94.93","A","GD"
"66008","KS","Bendena","Doniphan","20","43","39.73","-95.18","A","GD"
"66010","KS","Blue Mound","Linn","20","107","38.1","-95.01","A","GD"
"66012","KS","Bonner Springs","Wyandotte","20","209","39.08","-94.9","A","GD"
"66013","KS","Bucyrus","Miami","20","121","38.72","-94.69","A","GD"
"66014","KS","Centerville","Anderson","20","3","38.22","-95","A","GD"
"66015","KS","Colony","Anderson","20","3","38.08","-95.4","A","GD"
"66016","KS","Cummings","Atchison","20","5","39.48","-95.23","A","GD"
"66017","KS","Denton","Doniphan","20","43","39.72","-95.27","A","GD"
"66018","KS","De Soto","Johnson","20","91","38.97","-94.97","A","GD"
"66020","KS","Easton","Leavenworth","20","103","39.34","-95.1","A","GD"
"66021","KS","Edgerton","Johnson","20","91","38.75","-95","A","GD"
"66023","KS","Effingham","Atchison","20","5","39.52","-95.39","A","GD"
"66024","KS","Elwood","Doniphan","20","43","39.75","-94.88","A","POB"
"66025","KS","Eudora","Douglas","20","45","38.92","-95.09","A","GD"
"66026","KS","Fontana","Miami","20","121","38.4","-94.86","A","GD"
"66027","KS","Fort Leavenworth","Leavenworth","20","103","39.35","-94.92","A","GD"
"66030","KS","Gardner","Johnson","20","91","38.81","-94.93","A","GD"
"66031","KS","New Century","Johnson","20","91","38.83","-94.9","A","GD"
"66032","KS","Garnett","Anderson","20","3","38.28","-95.26","A","GD"
"66033","KS","Greeley","Anderson","20","3","38.36","-95.13","A","GD"
"66035","KS","Highland","Doniphan","20","43","39.86","-95.26","A","GD"
"66036","KS","Hillsdale","Miami","20","121","38.66","-94.85","A","POB"
"66039","KS","Kincaid","Anderson","20","3","38.1","-95.18","A","GD"
"66040","KS","Lacygne","Linn","20","107","38.35","-94.74","A","GD"
"66041","KS","Lancaster","Atchison","20","5","39.59","-95.31","A","GD"
"66042","KS","Lane","Franklin","20","59","38.44","-95.08","A","GD"
"66043","KS","Lansing","Leavenworth","20","103","39.25","-94.89","A","GD"
"66044","KS","Lawrence","Douglas","20","45","38.99","-95.23","A","GD"
"66045","KS","Lawrence","Douglas","20","45","38.96","-95.25","A","PVT"
"66046","KS","Lawrence","Douglas","20","45","38.93","-95.22","A","GD"
"66047","KS","Lawrence","Douglas","20","45","38.91","-95.32","A","GD"
"66048","KS","Leavenworth","Leavenworth","20","103","39.3","-94.94","A","GD"
"66049","KS","Lawrence","Douglas","20","45","38.98","-95.3","A","GD"
"66050","KS","Lecompton","Douglas","20","45","39.03","-95.43","A","GD"
"66051","KS","Olathe","Johnson","20","91","38.88","-94.82","A","POB"
"66052","KS","Linwood","Leavenworth","20","103","39.01","-95.05","A","GD"
"66053","KS","Louisburg","Miami","20","121","38.59","-94.68","A","GD"
"66054","KS","Mc Louth","Jefferson","20","87","39.2","-95.2","A","GD"
"66056","KS","Mound City","Linn","20","107","38.14","-94.83","A","GD"
"66058","KS","Muscotah","Atchison","20","5","39.55","-95.52","A","GD"
"66060","KS","Nortonville","Jefferson","20","87","39.41","-95.33","A","GD"
"66061","KS","Olathe","Johnson","20","91","38.9","-94.84","A","GD"
"66062","KS","Olathe","Johnson","20","91","38.86","-94.78","A","GD"
"66063","KS","Olathe","Johnson","20","91","38.88","-94.82","A","POB"
"66064","KS","Osawatomie","Miami","20","121","38.49","-94.96","A","GD"
"66066","KS","Oskaloosa","Jefferson","20","87","39.19","-95.33","A","GD"
"66067","KS","Ottawa","Franklin","20","59","38.62","-95.27","A","GD"
"66070","KS","Ozawkie","Jefferson","20","87","39.2","-95.45","A","GD"
"66071","KS","Paola","Miami","20","121","38.58","-94.87","A","GD"
"66072","KS","Parker","Linn","20","107","38.32","-94.98","A","GD"
"66073","KS","Perry","Jefferson","20","87","39.09","-95.39","A","GD"
"66075","KS","Pleasanton","Linn","20","107","38.19","-94.7","A","GD"
"66076","KS","Pomona","Franklin","20","59","38.61","-95.44","A","GD"
"66078","KS","Princeton","Franklin","20","59","38.49","-95.26","A","GD"
"66079","KS","Rantoul","Franklin","20","59","38.55","-95.11","A","GD"
"66080","KS","Richmond","Franklin","20","59","38.4","-95.26","A","GD"
"66083","KS","Spring Hill","Johnson","20","91","38.73","-94.83","A","GD"
"66085","KS","Stilwell","Johnson","20","91","38.81","-94.65","A","GD"
"66086","KS","Tonganoxie","Leavenworth","20","103","39.11","-95.08","A","GD"
"66087","KS","Troy","Doniphan","20","43","39.79","-95.13","A","GD"
"66088","KS","Valley Falls","Jefferson","20","87","39.34","-95.46","A","GD"
"66090","KS","Wathena","Doniphan","20","43","39.77","-94.95","A","GD"
"66091","KS","Welda","Anderson","20","3","38.19","-95.32","A","GD"
"66092","KS","Wellsville","Franklin","20","59","38.7","-95.1","A","GD"
"66093","KS","Westphalia","Anderson","20","3","38.21","-95.49","A","GD"
"66094","KS","White Cloud","Doniphan","20","43","39.97","-95.33","A","GD"
"66095","KS","Williamsburg","Franklin","20","59","38.47","-95.44","A","GD"
"66097","KS","Winchester","Jefferson","20","87","39.33","-95.25","A","GD"
"66101","KS","Kansas City","Wyandotte","20","209","39.12","-94.63","A","GD"
"66102","KS","Kansas City","Wyandotte","20","209","39.11","-94.67","A","GD"
"66103","KS","Kansas City","Wyandotte","20","209","39.06","-94.63","A","GD"
"66104","KS","Kansas City","Wyandotte","20","209","39.14","-94.67","A","GD"
"66105","KS","Kansas City","Wyandotte","20","209","39.09","-94.63","A","GD"
"66106","KS","Kansas City","Wyandotte","20","209","39.07","-94.69","A","GD"
"66109","KS","Kansas City","Wyandotte","20","209","39.15","-94.81","A","GD"
"66110","KS","Kansas City","Wyandotte","20","209","39.12","-94.69","A","POB"
"66111","KS","Kansas City","Wyandotte","20","209","39.08","-94.79","A","GD"
"66112","KS","Kansas City","Wyandotte","20","209","39.12","-94.77","A","GD"
"66113","KS","Edwardsville","Wyandotte","20","209","39.07","-94.8","A","POB"
"66115","KS","Kansas City","Wyandotte","20","209","39.14","-94.62","A","GD"
"66117","KS","Kansas City","Wyandotte","20","209","39.12","-94.63","A","POB"
"66118","KS","Kansas City","Wyandotte","20","209","39.1","-94.61","A","GD"
"66119","KS","Kansas City","Wyandotte","20","209","39.09","-94.64","A","POB"
"66160","KS","Kansas City","Wyandotte","20","209","39.06","-94.61","A","PVT"
"66201","KS","Mission","Johnson","20","91","38.97","-94.68","A","POB"
"66202","KS","Mission","Johnson","20","91","39.02","-94.67","A","GD"
"66203","KS","Shawnee","Johnson","20","91","39.02","-94.71","A","GD"
"66204","KS","Overland Park","Johnson","20","91","38.99","-94.68","A","GD"
"66205","KS","Mission","Johnson","20","91","39.03","-94.63","A","GD"
"66206","KS","Leawood","Johnson","20","91","38.96","-94.62","A","GD"
"66207","KS","Overland Park","Johnson","20","91","38.96","-94.65","A","GD"
"66208","KS","Prairie Village","Johnson","20","91","39","-94.63","A","GD"
"66209","KS","Leawood","Johnson","20","91","38.9","-94.64","A","GD"
"66210","KS","Overland Park","Johnson","20","91","38.93","-94.71","A","GD"
"66211","KS","Leawood","Johnson","20","91","38.93","-94.64","A","GD"
"66212","KS","Overland Park","Johnson","20","91","38.96","-94.68","A","GD"
"66213","KS","Overland Park","Johnson","20","91","38.9","-94.71","A","GD"
"66214","KS","Overland Park","Johnson","20","91","38.96","-94.71","A","GD"
"66215","KS","Lenexa","Johnson","20","91","38.96","-94.74","A","GD"
"66216","KS","Shawnee","Johnson","20","91","39.01","-94.74","A","GD"
"66217","KS","Shawnee","Johnson","20","91","39.01","-94.78","A","GD"
"66218","KS","Shawnee","Johnson","20","91","39.02","-94.82","A","GD"
"66219","KS","Lenexa","Johnson","20","91","38.96","-94.77","A","GD"
"66220","KS","Lenexa","Johnson","20","91","38.96","-94.82","A","GD"
"66221","KS","Overland Park","Johnson","20","91","38.87","-94.71","A","GD"
"66222","KS","Mission","Johnson","20","91","39.02","-94.65","A","POB"
"66223","KS","Overland Park","Johnson","20","91","38.86","-94.67","A","GD"
"66224","KS","Overland Park","Johnson","20","91","38.86","-94.63","A","GD"
"66225","KS","Overland Park","Johnson","20","91","38.89","-94.69","A","POB"
"66226","KS","Shawnee","Johnson","20","91","39.03","-94.85","A","GD"
"66227","KS","Lenexa","Johnson","20","91","38.97","-94.86","A","GD"
"66250","KS","Lenexa","Johnson","20","91","38.96","-94.79","A","PVT"
"66251","KS","Overland Park","Johnson","20","91","39.02","-94.67","A","PVT"
"66276","KS","Lenexa","Johnson","20","91","39","-94.67","A","PVT"
"66282","KS","Overland Park","Johnson","20","91","38.95","-94.69","A","POB"
"66283","KS","Overland Park","Johnson","20","91","38.86","-94.67","A","POB"
"66285","KS","Lenexa","Johnson","20","91","39.02","-94.67","A","POB"
"66286","KS","Shawnee","Johnson","20","91","38.99","-94.87","A","POB"
"66401","KS","Alma","Wabaunsee","20","197","38.99","-96.29","A","GD"
"66402","KS","Auburn","Shawnee","20","177","38.91","-95.83","A","GD"
"66403","KS","Axtell","Marshall","20","117","39.88","-96.27","A","GD"
"66404","KS","Baileyville","Nemaha","20","131","39.88","-96.17","A","GD"
"66406","KS","Beattie","Marshall","20","117","39.88","-96.42","A","GD"
"66407","KS","Belvue","Pottawatomie","20","149","39.23","-96.19","A","GD"
"66408","KS","Bern","Nemaha","20","131","39.96","-95.97","A","GD"
"66409","KS","Berryton","Shawnee","20","177","38.92","-95.56","A","GD"
"66411","KS","Blue Rapids","Marshall","20","117","39.66","-96.64","A","GD"
"66412","KS","Bremen","Marshall","20","117","39.91","-96.78","A","GD"
"66413","KS","Burlingame","Osage","20","139","38.77","-95.88","A","GD"
"66414","KS","Carbondale","Osage","20","139","38.83","-95.69","A","GD"
"66415","KS","Centralia","Nemaha","20","131","39.71","-96.13","A","GD"
"66416","KS","Circleville","Jackson","20","85","39.53","-95.85","A","GD"
"66417","KS","Corning","Nemaha","20","131","39.66","-96.03","A","GD"
"66418","KS","Delia","Jackson","20","85","39.28","-95.93","A","GD"
"66419","KS","Denison","Jackson","20","85","39.38","-95.6","A","GD"
"66420","KS","Dover","Shawnee","20","177","38.97","-95.93","A","POB"
"66422","KS","Emmett","Pottawatomie","20","149","39.33","-96.07","A","GD"
"66423","KS","Eskridge","Wabaunsee","20","197","38.85","-96.11","A","GD"
"66424","KS","Everest","Brown","20","13","39.67","-95.4","A","GD"
"66425","KS","Fairview","Brown","20","13","39.81","-95.73","A","GD"
"66426","KS","Fostoria","Pottawatomie","20","149","39.43","-96.49","A","POB"
"66427","KS","Frankfort","Marshall","20","117","39.68","-96.44","A","GD"
"66428","KS","Goff","Nemaha","20","131","39.68","-95.93","A","GD"
"66429","KS","Grantville","Jefferson","20","87","39.09","-95.56","A","GD"
"66431","KS","Harveyville","Wabaunsee","20","197","38.8","-95.99","A","GD"
"66432","KS","Havensville","Pottawatomie","20","149","39.48","-96.08","A","GD"
"66434","KS","Hiawatha","Brown","20","13","39.86","-95.55","A","GD"
"66436","KS","Holton","Jackson","20","85","39.47","-95.71","A","GD"
"66438","KS","Home","Marshall","20","117","39.84","-96.51","A","GD"
"66439","KS","Horton","Brown","20","13","39.66","-95.54","A","GD"
"66440","KS","Hoyt","Jackson","20","85","39.26","-95.68","A","GD"
"66441","KS","Junction City","Geary","20","61","39.02","-96.84","A","GD"
"66442","KS","Fort Riley","Geary","20","61","39.09","-96.79","A","GD"
"66449","KS","Leonardville","Riley","20","161","39.37","-96.86","A","GD"
"66451","KS","Lyndon","Osage","20","139","38.62","-95.67","A","GD"
"66501","KS","Mc Farland","Wabaunsee","20","197","39.05","-96.24","A","POB"
"66502","KS","Manhattan","Riley","20","161","39.18","-96.57","A","GD"
"66503","KS","Manhattan","Riley","20","161","39.22","-96.64","A","GD"
"66505","KS","Manhattan","Riley","20","161","39.19","-96.59","A","POB"
"66506","KS","Manhattan","Riley","20","161","39.19","-96.58","A","GD"
"66507","KS","Maple Hill","Wabaunsee","20","197","39.06","-96.04","A","GD"
"66508","KS","Marysville","Marshall","20","117","39.85","-96.64","A","GD"
"66509","KS","Mayetta","Jackson","20","85","39.34","-95.76","A","GD"
"66510","KS","Melvern","Osage","20","139","38.5","-95.61","A","GD"
"66512","KS","Meriden","Jefferson","20","87","39.2","-95.55","A","GD"
"66514","KS","Milford","Geary","20","61","39.12","-96.89","A","GD"
"66515","KS","Morrill","Brown","20","13","39.94","-95.7","A","GD"
"66516","KS","Netawaka","Jackson","20","85","39.63","-95.72","A","GD"
"66517","KS","Ogden","Riley","20","161","39.11","-96.71","A","GD"
"66518","KS","Oketo","Marshall","20","117","39.97","-96.57","A","GD"
"66520","KS","Olsburg","Pottawatomie","20","149","39.41","-96.61","A","GD"
"66521","KS","Onaga","Pottawatomie","20","149","39.48","-96.21","A","GD"
"66522","KS","Oneida","Nemaha","20","131","39.87","-95.94","A","GD"
"66523","KS","Osage City","Osage","20","139","38.61","-95.83","A","GD"
"66524","KS","Overbrook","Osage","20","139","38.8","-95.52","A","GD"
"66526","KS","Paxico","Wabaunsee","20","197","39.07","-96.16","A","GD"
"66527","KS","Powhattan","Brown","20","13","39.75","-95.67","A","GD"
"66528","KS","Quenemo","Osage","20","139","38.6","-95.54","A","GD"
"66531","KS","Riley","Riley","20","161","39.3","-96.84","A","GD"
"66532","KS","Robinson","Brown","20","13","39.81","-95.38","A","GD"
"66533","KS","Rossville","Shawnee","20","177","39.14","-95.95","A","GD"
"66534","KS","Sabetha","Nemaha","20","131","39.89","-95.82","A","GD"
"66535","KS","Saint George","Pottawatomie","20","149","39.22","-96.43","A","GD"
"66536","KS","Saint Marys","Pottawatomie","20","149","39.21","-96.07","A","GD"
"66537","KS","Scranton","Osage","20","139","38.76","-95.73","A","GD"
"66538","KS","Seneca","Nemaha","20","131","39.84","-96.05","A","GD"
"66539","KS","Silver Lake","Shawnee","20","177","39.12","-95.86","A","GD"
"66540","KS","Soldier","Jackson","20","85","39.5","-95.98","A","GD"
"66541","KS","Summerfield","Marshall","20","117","40.01","-96.38","A","GD"
"66542","KS","Tecumseh","Shawnee","20","177","39.02","-95.56","A","GD"
"66543","KS","Vassar","Osage","20","139","38.65","-95.6","A","GD"
"66544","KS","Vermillion","Marshall","20","117","39.69","-96.28","A","GD"
"66546","KS","Wakarusa","Shawnee","20","177","38.9","-95.72","A","GD"
"66547","KS","Wamego","Pottawatomie","20","149","39.22","-96.31","A","GD"
"66548","KS","Waterville","Marshall","20","117","39.69","-96.76","A","GD"
"66549","KS","Westmoreland","Pottawatomie","20","149","39.42","-96.44","A","GD"
"66550","KS","Wetmore","Nemaha","20","131","39.65","-95.82","A","GD"
"66552","KS","Whiting","Jackson","20","85","39.59","-95.62","A","GD"
"66554","KS","Randolph","Riley","20","161","39.48","-96.77","A","GD"
"66601","KS","Topeka","Shawnee","20","177","39.06","-95.68","A","POB"
"66603","KS","Topeka","Shawnee","20","177","39.06","-95.68","A","GD"
"66604","KS","Topeka","Shawnee","20","177","39.04","-95.72","A","GD"
"66605","KS","Topeka","Shawnee","20","177","39.01","-95.64","A","GD"
"66606","KS","Topeka","Shawnee","20","177","39.06","-95.71","A","GD"
"66607","KS","Topeka","Shawnee","20","177","39.04","-95.64","A","GD"
"66608","KS","Topeka","Shawnee","20","177","39.08","-95.67","A","GD"
"66609","KS","Topeka","Shawnee","20","177","38.99","-95.68","A","GD"
"66610","KS","Topeka","Shawnee","20","177","38.99","-95.77","A","GD"
"66611","KS","Topeka","Shawnee","20","177","39.02","-95.7","A","GD"
"66612","KS","Topeka","Shawnee","20","177","39.04","-95.68","A","GD"
"66614","KS","Topeka","Shawnee","20","177","39.02","-95.76","A","GD"
"66615","KS","Topeka","Shawnee","20","177","39.06","-95.85","A","GD"
"66616","KS","Topeka","Shawnee","20","177","39.06","-95.64","A","GD"
"66617","KS","Topeka","Shawnee","20","177","39.12","-95.62","A","GD"
"66618","KS","Topeka","Shawnee","20","177","39.12","-95.73","A","GD"
"66619","KS","Topeka","Shawnee","20","177","38.95","-95.69","A","GD"
"66620","KS","Topeka","Shawnee","20","177","38.95","-95.71","A","PVT"
"66621","KS","Topeka","Shawnee","20","177","39.03","-95.7","A","GD"
"66622","KS","Topeka","Shawnee","20","177","39.03","-95.72","A","PVT"
"66624","KS","Topeka","Shawnee","20","177","39.01","-95.67","A","GD"
"66625","KS","Topeka","Shawnee","20","177","39.05","-95.68","A","PVT"
"66626","KS","Topeka","Shawnee","20","177","39.05","-95.68","A","PVT"
"66629","KS","Topeka","Shawnee","20","177","39.05","-95.68","A","PVT"
"66636","KS","Topeka","Shawnee","20","177","39.06","-95.68","A","PVT"
"66647","KS","Topeka","Shawnee","20","177","39.04","-95.73","A","POB"
"66667","KS","Topeka","Shawnee","20","177","39.04","-95.73","A","POB"
"66675","KS","Topeka","Shawnee","20","177","39.07","-95.67","A","POB"
"66683","KS","Topeka","Shawnee","20","177","39.06","-95.67","A","GD"
"66699","KS","Topeka","Shawnee","20","177","39.05","-95.67","A","PVT"
"66701","KS","Fort Scott","Bourbon","20","11","37.83","-94.73","A","GD"
"66710","KS","Altoona","Wilson","20","205","37.54","-95.66","A","GD"
"66711","KS","Arcadia","Crawford","20","37","37.64","-94.66","A","GD"
"66712","KS","Arma","Crawford","20","37","37.55","-94.7","A","GD"
"66713","KS","Baxter Springs","Cherokee","20","21","37.03","-94.75","A","GD"
"66714","KS","Benedict","Wilson","20","205","37.63","-95.72","A","GD"
"66716","KS","Bronson","Bourbon","20","11","37.92","-95.05","A","GD"
"66717","KS","Buffalo","Wilson","20","205","37.7","-95.7","A","GD"
"66720","KS","Chanute","Neosho","20","133","37.67","-95.46","A","GD"
"66724","KS","Cherokee","Crawford","20","37","37.35","-94.83","A","GD"
"66725","KS","Columbus","Cherokee","20","21","37.17","-94.88","A","GD"
"66728","KS","Crestline","Cherokee","20","21","37.17","-94.7","A","POB"
"66732","KS","Elsmore","Allen","20","1","37.8","-95.17","A","GD"
"66733","KS","Erie","Neosho","20","133","37.58","-95.25","A","GD"
"66734","KS","Farlington","Crawford","20","37","37.62","-94.83","A","GD"
"66735","KS","Franklin","Crawford","20","37","37.52","-94.71","A","GD"
"66736","KS","Fredonia","Wilson","20","205","37.54","-95.84","A","GD"
"66738","KS","Fulton","Bourbon","20","11","38.01","-94.71","A","GD"
"66739","KS","Galena","Cherokee","20","21","37.09","-94.65","A","GD"
"66740","KS","Galesburg","Neosho","20","133","37.47","-95.37","A","GD"
"66741","KS","Garland","Bourbon","20","11","37.72","-94.64","A","GD"
"66742","KS","Gas","Allen","20","1","37.92","-95.35","A","POB"
"66743","KS","Girard","Crawford","20","37","37.5","-94.87","A","GD"
"66746","KS","Hepler","Crawford","20","37","37.66","-94.97","A","GD"
"66748","KS","Humboldt","Allen","20","1","37.8","-95.43","A","GD"
"66749","KS","Iola","Allen","20","1","37.93","-95.4","A","GD"
"66751","KS","La Harpe","Allen","20","1","37.92","-95.3","A","GD"
"66753","KS","Mc Cune","Crawford","20","37","37.36","-95.02","A","GD"
"66754","KS","Mapleton","Bourbon","20","11","38.01","-94.9","A","GD"
"66755","KS","Moran","Allen","20","1","37.93","-95.17","A","GD"
"66756","KS","Mulberry","Crawford","20","37","37.55","-94.64","A","GD"
"66757","KS","Neodesha","Wilson","20","205","37.42","-95.69","A","GD"
"66758","KS","Neosho Falls","Coffey","20","31","38.01","-95.57","A","GD"
"66759","KS","New Albany","Wilson","20","205","37.57","-95.94","A","POB"
"66760","KS","Opolis","Crawford","20","37","37.34","-94.62","A","POB"
"66761","KS","Piqua","Woodson","20","207","37.91","-95.56","A","GD"
"66762","KS","Pittsburg","Crawford","20","37","37.41","-94.7","A","GD"
"66763","KS","Frontenac","Crawford","20","37","37.46","-94.69","A","GD"
"66767","KS","Prescott","Linn","20","107","38.07","-94.7","A","GD"
"66769","KS","Redfield","Bourbon","20","11","37.84","-94.89","A","GD"
"66770","KS","Riverton","Cherokee","20","21","37.08","-94.71","A","GD"
"66771","KS","Saint Paul","Neosho","20","133","37.5","-95.16","A","GD"
"66772","KS","Savonburg","Allen","20","1","37.75","-95.21","A","GD"
"66773","KS","Scammon","Cherokee","20","21","37.27","-94.83","A","GD"
"66775","KS","Stark","Neosho","20","133","37.7","-95.14","A","GD"
"66776","KS","Thayer","Neosho","20","133","37.46","-95.49","A","GD"
"66777","KS","Toronto","Woodson","20","207","37.79","-95.95","A","GD"
"66778","KS","Treece","Cherokee","20","21","37","-94.84","A","GD"
"66779","KS","Uniontown","Bourbon","20","11","37.84","-94.98","A","GD"
"66780","KS","Walnut","Crawford","20","37","37.61","-95.06","A","GD"
"66781","KS","Weir","Cherokee","20","21","37.3","-94.75","A","GD"
"66782","KS","West Mineral","Cherokee","20","21","37.28","-94.93","A","POB"
"66783","KS","Yates Center","Woodson","20","207","37.88","-95.73","A","GD"
"66801","KS","Emporia","Lyon","20","111","38.41","-96.19","A","GD"
"66830","KS","Admire","Lyon","20","111","38.62","-96.1","A","GD"
"66833","KS","Allen","Lyon","20","111","38.67","-96.15","A","GD"
"66834","KS","Alta Vista","Wabaunsee","20","197","38.85","-96.46","A","GD"
"66835","KS","Americus","Lyon","20","111","38.53","-96.26","A","GD"
"66838","KS","Burdick","Morris","20","127","38.54","-96.79","A","GD"
"66839","KS","Burlington","Coffey","20","31","38.21","-95.74","A","GD"
"66840","KS","Burns","Marion","20","115","38.08","-96.88","A","GD"
"66842","KS","Cassoday","Butler","20","15","38.03","-96.66","A","GD"
"66843","KS","Cedar Point","Chase","20","17","38.23","-96.76","A","GD"
"66845","KS","Cottonwood Falls","Chase","20","17","38.34","-96.53","A","GD"
"66846","KS","Council Grove","Morris","20","127","38.66","-96.48","A","GD"
"66849","KS","Dwight","Morris","20","127","38.88","-96.59","A","GD"
"66850","KS","Elmdale","Chase","20","17","38.4","-96.7","A","GD"
"66851","KS","Florence","Marion","20","115","38.24","-96.93","A","GD"
"66852","KS","Gridley","Coffey","20","31","38.09","-95.89","A","GD"
"66853","KS","Hamilton","Greenwood","20","73","38.01","-96.21","A","GD"
"66854","KS","Hartford","Lyon","20","111","38.26","-95.97","A","GD"
"66855","KS","Lamont","Greenwood","20","73","38.11","-96.02","A","GD"
"66856","KS","Lebo","Coffey","20","31","38.41","-95.83","A","GD"
"66857","KS","Le Roy","Coffey","20","31","38.09","-95.63","A","GD"
"66858","KS","Lincolnville","Marion","20","115","38.49","-96.96","A","GD"
"66859","KS","Lost Springs","Marion","20","115","38.56","-96.96","A","GD"
"66860","KS","Madison","Greenwood","20","73","38.12","-96.17","A","GD"
"66861","KS","Marion","Marion","20","115","38.36","-97.02","A","GD"
"66862","KS","Matfield Green","Chase","20","17","38.16","-96.55","A","GD"
"66863","KS","Neal","Greenwood","20","73","37.83","-96.08","A","POB"
"66864","KS","Neosho Rapids","Lyon","20","111","38.36","-95.98","A","GD"
"66865","KS","Olpe","Lyon","20","111","38.24","-96.24","A","GD"
"66866","KS","Peabody","Marion","20","115","38.17","-97.11","A","GD"
"66868","KS","Reading","Lyon","20","111","38.54","-95.98","A","GD"
"66869","KS","Strong City","Chase","20","17","38.41","-96.52","A","GD"
"66870","KS","Virgil","Greenwood","20","73","37.96","-96.03","A","GD"
"66871","KS","Waverly","Coffey","20","31","38.37","-95.63","A","GD"
"66872","KS","White City","Morris","20","127","38.8","-96.74","A","GD"
"66873","KS","Wilsey","Morris","20","127","38.64","-96.67","A","GD"
"66901","KS","Concordia","Cloud","20","29","39.57","-97.64","A","GD"
"66930","KS","Agenda","Republic","20","157","39.71","-97.47","A","GD"
"66932","KS","Athol","Smith","20","183","39.77","-98.92","A","GD"
"66933","KS","Barnes","Washington","20","201","39.69","-96.87","A","GD"
"66935","KS","Belleville","Republic","20","157","39.83","-97.63","A","GD"
"66936","KS","Burr Oak","Jewell","20","89","39.91","-98.31","A","GD"
"66937","KS","Clifton","Washington","20","201","39.58","-97.27","A","GD"
"66938","KS","Clyde","Cloud","20","29","39.59","-97.41","A","GD"
"66939","KS","Courtland","Republic","20","157","39.83","-97.9","A","GD"
"66940","KS","Cuba","Republic","20","157","39.81","-97.45","A","GD"
"66941","KS","Esbon","Jewell","20","89","39.84","-98.44","A","GD"
"66942","KS","Formoso","Jewell","20","89","39.8","-98","A","GD"
"66943","KS","Greenleaf","Washington","20","201","39.7","-96.98","A","GD"
"66944","KS","Haddam","Washington","20","201","39.85","-97.3","A","GD"
"66945","KS","Hanover","Washington","20","201","39.89","-96.89","A","GD"
"66946","KS","Hollenberg","Washington","20","201","39.96","-96.99","A","GD"
"66948","KS","Jamestown","Cloud","20","29","39.61","-97.85","A","GD"
"66949","KS","Jewell","Jewell","20","89","39.66","-98.18","A","GD"
"66951","KS","Kensington","Smith","20","183","39.81","-99.04","A","GD"
"66952","KS","Lebanon","Smith","20","183","39.82","-98.59","A","GD"
"66953","KS","Linn","Washington","20","201","39.68","-97.12","A","GD"
"66955","KS","Mahaska","Washington","20","201","39.98","-97.32","A","GD"
"66956","KS","Mankato","Jewell","20","89","39.79","-98.22","A","GD"
"66958","KS","Morrowville","Washington","20","201","39.88","-97.18","A","GD"
"66959","KS","Munden","Republic","20","157","39.94","-97.53","A","GD"
"66960","KS","Narka","Republic","20","157","39.94","-97.42","A","GD"
"66961","KS","Norway","Republic","20","157","39.7","-97.83","A","POB"
"66962","KS","Palmer","Washington","20","201","39.61","-97.12","A","GD"
"66963","KS","Randall","Jewell","20","89","39.64","-98","A","GD"
"66964","KS","Republic","Republic","20","157","39.94","-97.83","A","GD"
"66966","KS","Scandia","Republic","20","157","39.77","-97.77","A","GD"
"66967","KS","Smith Center","Smith","20","183","39.79","-98.79","A","GD"
"66968","KS","Washington","Washington","20","201","39.82","-97.06","A","GD"
"66970","KS","Webber","Jewell","20","89","39.93","-98.04","A","GD"
"67001","KS","Andale","Sedgwick","20","173","37.78","-97.63","A","GD"
"67002","KS","Andover","Butler","20","15","37.69","-97.12","A","GD"
"67003","KS","Anthony","Harper","20","77","37.13","-98.05","A","GD"
"67004","KS","Argonia","Sumner","20","191","37.27","-97.76","A","GD"
"67005","KS","Arkansas City","Cowley","20","35","37.07","-97.02","A","GD"
"67008","KS","Atlanta","Cowley","20","35","37.47","-96.8","A","GD"
"67009","KS","Attica","Harper","20","77","37.23","-98.25","A","GD"
"67010","KS","Augusta","Butler","20","15","37.68","-96.98","A","GD"
"67012","KS","Beaumont","Butler","20","15","37.66","-96.53","A","POB"
"67013","KS","Belle Plaine","Sumner","20","191","37.39","-97.29","A","GD"
"67016","KS","Bentley","Sedgwick","20","173","37.89","-97.52","A","POB"
"67017","KS","Benton","Butler","20","15","37.82","-97.11","A","GD"
"67018","KS","Bluff City","Harper","20","77","37.07","-97.85","A","GD"
"67019","KS","Burden","Cowley","20","35","37.31","-96.78","A","GD"
"67020","KS","Burrton","Harvey","20","79","38.02","-97.68","A","GD"
"67021","KS","Byers","Pratt","20","151","37.78","-98.89","A","GD"
"67022","KS","Caldwell","Sumner","20","191","37.06","-97.62","A","GD"
"67023","KS","Cambridge","Cowley","20","35","37.32","-96.63","A","GD"
"67024","KS","Cedar Vale","Chautauqua","20","19","37.1","-96.48","A","GD"
"67025","KS","Cheney","Sedgwick","20","173","37.65","-97.79","A","GD"
"67026","KS","Clearwater","Sedgwick","20","173","37.52","-97.5","A","GD"
"67028","KS","Coats","Pratt","20","151","37.47","-98.93","A","GD"
"67029","KS","Coldwater","Comanche","20","33","37.24","-99.31","A","GD"
"67030","KS","Colwich","Sedgwick","20","173","37.79","-97.54","A","GD"
"67031","KS","Conway Springs","Sumner","20","191","37.4","-97.65","A","GD"
"67035","KS","Cunningham","Kingman","20","95","37.65","-98.39","A","GD"
"67036","KS","Danville","Harper","20","77","37.28","-97.88","A","GD"
"67037","KS","Derby","Sedgwick","20","173","37.56","-97.25","A","GD"
"67038","KS","Dexter","Cowley","20","35","37.13","-96.73","A","GD"
"67039","KS","Douglass","Butler","20","15","37.52","-97","A","GD"
"67041","KS","Elbing","Butler","20","15","38.05","-97.13","A","POB"
"67042","KS","El Dorado","Butler","20","15","37.83","-96.84","A","GD"
"67045","KS","Eureka","Greenwood","20","73","37.85","-96.32","A","GD"
"67047","KS","Fall River","Greenwood","20","73","37.64","-96.05","A","GD"
"67049","KS","Freeport","Harper","20","77","37.18","-97.85","A","GD"
"67050","KS","Garden Plain","Sedgwick","20","173","37.66","-97.68","A","GD"
"67051","KS","Geuda Springs","Sumner","20","191","37.1","-97.18","A","GD"
"67052","KS","Goddard","Sedgwick","20","173","37.65","-97.57","A","GD"
"67053","KS","Goessel","Marion","20","115","38.25","-97.35","A","POB"
"67054","KS","Greensburg","Kiowa","20","97","37.59","-99.3","A","GD"
"67055","KS","Greenwich","Sedgwick","20","173","37.78","-97.2","A","GD"
"67056","KS","Halstead","Harvey","20","79","38.01","-97.52","A","GD"
"67057","KS","Hardtner","Barber","20","7","37.05","-98.7","A","GD"
"67058","KS","Harper","Harper","20","77","37.3","-98.04","A","GD"
"67059","KS","Haviland","Kiowa","20","97","37.64","-99.1","A","GD"
"67060","KS","Haysville","Sedgwick","20","173","37.56","-97.35","A","GD"
"67061","KS","Hazelton","Barber","20","7","37.08","-98.38","A","GD"
"67062","KS","Hesston","Harvey","20","79","38.14","-97.43","A","GD"
"67063","KS","Hillsboro","Marion","20","115","38.35","-97.21","A","GD"
"67065","KS","Isabel","Barber","20","7","37.47","-98.54","A","GD"
"67066","KS","Iuka","Pratt","20","151","37.76","-98.75","A","GD"
"67067","KS","Kechi","Sedgwick","20","173","37.79","-97.28","A","GD"
"67068","KS","Kingman","Kingman","20","95","37.63","-98.11","A","GD"
"67070","KS","Kiowa","Barber","20","7","37.03","-98.49","A","GD"
"67071","KS","Lake City","Barber","20","7","37.29","-98.84","A","GD"
"67072","KS","Latham","Butler","20","15","37.56","-96.63","A","GD"
"67073","KS","Lehigh","Marion","20","115","38.38","-97.32","A","GD"
"67074","KS","Leon","Butler","20","15","37.68","-96.73","A","GD"
"67101","KS","Maize","Sedgwick","20","173","37.77","-97.46","A","GD"
"67102","KS","Maple City","Cowley","20","35","37.08","-96.79","A","GD"
"67103","KS","Mayfield","Sumner","20","191","37.27","-97.56","A","GD"
"67104","KS","Medicine Lodge","Barber","20","7","37.29","-98.61","A","GD"
"67105","KS","Milan","Sumner","20","191","37.25","-97.67","A","GD"
"67106","KS","Milton","Sumner","20","191","37.45","-97.76","A","GD"
"67107","KS","Moundridge","Mcpherson","20","113","38.2","-97.52","A","GD"
"67108","KS","Mount Hope","Sedgwick","20","173","37.83","-97.67","A","GD"
"67109","KS","Mullinville","Kiowa","20","97","37.59","-99.47","A","GD"
"67110","KS","Mulvane","Sedgwick","20","173","37.47","-97.23","A","GD"
"67111","KS","Murdock","Kingman","20","95","37.63","-97.93","A","GD"
"67112","KS","Nashville","Kingman","20","95","37.45","-98.42","A","GD"
"67114","KS","Newton","Harvey","20","79","38.06","-97.32","A","GD"
"67117","KS","North Newton","Harvey","20","79","38.07","-97.35","A","GD"
"67118","KS","Norwich","Kingman","20","95","37.47","-97.85","A","GD"
"67119","KS","Oxford","Sumner","20","191","37.26","-97.17","A","GD"
"67120","KS","Peck","Sumner","20","191","37.46","-97.37","A","GD"
"67122","KS","Piedmont","Greenwood","20","73","37.63","-96.41","A","GD"
"67123","KS","Potwin","Butler","20","15","37.94","-97.01","A","GD"
"67124","KS","Pratt","Pratt","20","151","37.64","-98.76","A","GD"
"67127","KS","Protection","Comanche","20","33","37.2","-99.49","A","GD"
"67131","KS","Rock","Cowley","20","35","37.43","-96.95","A","GD"
"67132","KS","Rosalia","Butler","20","15","37.81","-96.58","A","GD"
"67133","KS","Rose Hill","Butler","20","15","37.58","-97.12","A","GD"
"67134","KS","Sawyer","Pratt","20","151","37.5","-98.68","A","GD"
"67135","KS","Sedgwick","Harvey","20","79","37.92","-97.44","A","GD"
"67137","KS","Severy","Greenwood","20","73","37.64","-96.22","A","GD"
"67138","KS","Sharon","Barber","20","7","37.25","-98.42","A","GD"
"67140","KS","South Haven","Sumner","20","191","37.06","-97.37","A","GD"
"67142","KS","Spivey","Kingman","20","95","37.46","-98.16","A","GD"
"67143","KS","Sun City","Barber","20","7","37.36","-98.93","A","GD"
"67144","KS","Towanda","Butler","20","15","37.8","-97.01","A","GD"
"67146","KS","Udall","Cowley","20","35","37.4","-97.11","A","GD"
"67147","KS","Valley Center","Sedgwick","20","173","37.85","-97.33","A","GD"
"67149","KS","Viola","Sedgwick","20","173","37.54","-97.63","A","GD"
"67150","KS","Waldron","Harper","20","77","37","-98.19","A","GD"
"67151","KS","Walton","Harvey","20","79","38.14","-97.26","A","GD"
"67152","KS","Wellington","Sumner","20","191","37.27","-97.41","A","GD"
"67154","KS","Whitewater","Butler","20","15","37.96","-97.12","A","GD"
"67155","KS","Wilmore","Comanche","20","33","37.32","-99.16","A","GD"
"67156","KS","Winfield","Cowley","20","35","37.26","-96.97","A","GD"
"67159","KS","Zenda","Kingman","20","95","37.42","-98.3","A","GD"
"67201","KS","Wichita","Sedgwick","20","173","37.69","-97.34","A","POB"
"67202","KS","Wichita","Sedgwick","20","173","37.69","-97.33","A","GD"
"67203","KS","Wichita","Sedgwick","20","173","37.7","-97.36","A","GD"
"67204","KS","Wichita","Sedgwick","20","173","37.76","-97.36","A","GD"
"67205","KS","Wichita","Sedgwick","20","173","37.74","-97.43","A","GD"
"67206","KS","Wichita","Sedgwick","20","173","37.7","-97.23","A","GD"
"67207","KS","Wichita","Sedgwick","20","173","37.67","-97.23","A","GD"
"67208","KS","Wichita","Sedgwick","20","173","37.7","-97.28","A","GD"
"67209","KS","Wichita","Sedgwick","20","173","37.67","-97.44","A","GD"
"67210","KS","Wichita","Sedgwick","20","173","37.64","-97.25","A","GD"
"67211","KS","Wichita","Sedgwick","20","173","37.67","-97.32","A","GD"
"67212","KS","Wichita","Sedgwick","20","173","37.7","-97.43","A","GD"
"67213","KS","Wichita","Sedgwick","20","173","37.67","-97.36","A","GD"
"67214","KS","Wichita","Sedgwick","20","173","37.71","-97.32","A","GD"
"67215","KS","Wichita","Sedgwick","20","173","37.63","-97.43","A","GD"
"67216","KS","Wichita","Sedgwick","20","173","37.62","-97.31","A","GD"
"67217","KS","Wichita","Sedgwick","20","173","37.62","-97.36","A","GD"
"67218","KS","Wichita","Sedgwick","20","173","37.67","-97.28","A","GD"
"67219","KS","Wichita","Sedgwick","20","173","37.77","-97.32","A","GD"
"67220","KS","Wichita","Sedgwick","20","173","37.75","-97.28","A","GD"
"67221","KS","Mcconnell Afb","Sedgwick","20","173","37.62","-97.25","A","GD"
"67223","KS","Wichita","Sedgwick","20","173","37.73","-97.49","A","GD"
"67226","KS","Wichita","Sedgwick","20","173","37.75","-97.23","A","GD"
"67227","KS","Wichita","Sedgwick","20","173","37.63","-97.49","A","GD"
"67228","KS","Wichita","Sedgwick","20","173","37.75","-97.18","A","GD"
"67230","KS","Wichita","Sedgwick","20","173","37.69","-97.17","A","GD"
"67232","KS","Wichita","Sedgwick","20","173","37.64","-97.17","A","GD"
"67235","KS","Wichita","Sedgwick","20","173","37.69","-97.49","A","GD"
"67260","KS","Wichita","Sedgwick","20","173","37.72","-97.29","A","PVT"
"67275","KS","Wichita","Sedgwick","20","173","37.67","-97.44","A","POB"
"67276","KS","Wichita","Sedgwick","20","173","37.66","-97.42","A","GD"
"67277","KS","Wichita","Sedgwick","20","173","37.67","-97.43","A","POB"
"67278","KS","Wichita","Sedgwick","20","173","37.69","-97.34","A","POB"
"67301","KS","Independence","Montgomery","20","125","37.22","-95.73","A","GD"
"67330","KS","Altamont","Labette","20","99","37.18","-95.3","A","GD"
"67332","KS","Bartlett","Labette","20","99","37.05","-95.22","A","GD"
"67333","KS","Caney","Montgomery","20","125","37.02","-95.92","A","GD"
"67334","KS","Chautauqua","Chautauqua","20","19","37.03","-96.18","A","POB"
"67335","KS","Cherryvale","Montgomery","20","125","37.28","-95.55","A","GD"
"67336","KS","Chetopa","Labette","20","99","37.04","-95.09","A","GD"
"67337","KS","Coffeyville","Montgomery","20","125","37.04","-95.62","A","GD"
"67340","KS","Dearing","Montgomery","20","125","37.06","-95.71","A","POB"
"67341","KS","Dennis","Labette","20","99","37.35","-95.42","A","GD"
"67342","KS","Edna","Labette","20","99","37.06","-95.36","A","GD"
"67344","KS","Elk City","Montgomery","20","125","37.29","-95.93","A","GD"
"67345","KS","Elk Falls","Elk","20","49","37.38","-96.19","A","GD"
"67346","KS","Grenola","Elk","20","49","37.33","-96.44","A","GD"
"67347","KS","Havana","Montgomery","20","125","37.1","-95.94","A","GD"
"67349","KS","Howard","Elk","20","49","37.48","-96.27","A","GD"
"67351","KS","Liberty","Montgomery","20","125","37.14","-95.58","A","GD"
"67352","KS","Longton","Elk","20","49","37.37","-96.08","A","GD"
"67353","KS","Moline","Elk","20","49","37.33","-96.31","A","GD"
"67354","KS","Mound Valley","Labette","20","99","37.2","-95.41","A","GD"
"67355","KS","Niotaze","Chautauqua","20","19","37.05","-96.01","A","GD"
"67356","KS","Oswego","Labette","20","99","37.18","-95.13","A","GD"
"67357","KS","Parsons","Labette","20","99","37.34","-95.26","A","GD"
"67360","KS","Peru","Chautauqua","20","19","37.07","-96.1","A","GD"
"67361","KS","Sedan","Chautauqua","20","19","37.12","-96.21","A","GD"
"67363","KS","Sycamore","Montgomery","20","125","37.33","-95.72","A","POB"
"67364","KS","Tyro","Montgomery","20","125","37.04","-95.82","A","POB"
"67401","KS","Salina","Saline","20","169","38.83","-97.62","A","GD"
"67402","KS","Salina","Saline","20","169","38.84","-97.61","A","POB"
"67410","KS","Abilene","Dickinson","20","41","38.94","-97.22","A","GD"
"67416","KS","Assaria","Saline","20","169","38.67","-97.6","A","GD"
"67417","KS","Aurora","Cloud","20","29","39.44","-97.55","A","GD"
"67418","KS","Barnard","Lincoln","20","105","39.19","-98.04","A","GD"
"67420","KS","Beloit","Mitchell","20","123","39.43","-98.08","A","GD"
"67422","KS","Bennington","Ottawa","20","143","39.03","-97.59","A","GD"
"67423","KS","Beverly","Lincoln","20","105","38.97","-97.99","A","GD"
"67425","KS","Brookville","Saline","20","169","38.81","-97.93","A","GD"
"67427","KS","Bushton","Rice","20","159","38.51","-98.39","A","GD"
"67428","KS","Canton","Mcpherson","20","113","38.37","-97.43","A","GD"
"67430","KS","Cawker City","Mitchell","20","123","39.52","-98.44","A","GD"
"67431","KS","Chapman","Dickinson","20","41","38.97","-97.01","A","GD"
"67432","KS","Clay Center","Clay","20","27","39.36","-97.15","A","GD"
"67436","KS","Delphos","Ottawa","20","143","39.28","-97.73","A","GD"
"67437","KS","Downs","Osborne","20","141","39.5","-98.55","A","GD"
"67438","KS","Durham","Marion","20","115","38.49","-97.27","A","GD"
"67439","KS","Ellsworth","Ellsworth","20","53","38.75","-98.22","A","GD"
"67441","KS","Enterprise","Dickinson","20","41","38.9","-97.11","A","GD"
"67442","KS","Falun","Saline","20","169","38.66","-97.77","A","GD"
"67443","KS","Galva","Mcpherson","20","113","38.38","-97.53","A","GD"
"67444","KS","Geneseo","Rice","20","159","38.54","-98.15","A","GD"
"67445","KS","Glasco","Cloud","20","29","39.37","-97.83","A","GD"
"67446","KS","Glen Elder","Mitchell","20","123","39.5","-98.31","A","GD"
"67447","KS","Green","Clay","20","27","39.47","-96.98","A","GD"
"67448","KS","Gypsum","Saline","20","169","38.67","-97.4","A","GD"
"67449","KS","Herington","Dickinson","20","41","38.68","-96.93","A","GD"
"67450","KS","Holyrood","Ellsworth","20","53","38.6","-98.43","A","GD"
"67451","KS","Hope","Dickinson","20","41","38.7","-97.12","A","GD"
"67452","KS","Hunter","Mitchell","20","123","39.23","-98.37","A","GD"
"67454","KS","Kanopolis","Ellsworth","20","53","38.7","-98.14","A","GD"
"67455","KS","Lincoln","Lincoln","20","105","39.03","-98.15","A","GD"
"67456","KS","Lindsborg","Mcpherson","20","113","38.59","-97.67","A","GD"
"67457","KS","Little River","Rice","20","159","38.39","-98","A","GD"
"67458","KS","Longford","Clay","20","27","39.17","-97.29","A","GD"
"67459","KS","Lorraine","Ellsworth","20","53","38.57","-98.34","A","GD"
"67460","KS","Mcpherson","Mcpherson","20","113","38.37","-97.67","A","GD"
"67464","KS","Marquette","Mcpherson","20","113","38.59","-97.89","A","GD"
"67466","KS","Miltonvale","Cloud","20","29","39.34","-97.47","A","GD"
"67467","KS","Minneapolis","Ottawa","20","143","39.14","-97.71","A","GD"
"67468","KS","Morganville","Clay","20","27","39.46","-97.24","A","GD"
"67470","KS","New Cambria","Saline","20","169","38.89","-97.49","A","GD"
"67473","KS","Osborne","Osborne","20","141","39.41","-98.72","A","GD"
"67474","KS","Portis","Osborne","20","141","39.57","-98.72","A","GD"
"67475","KS","Ramona","Marion","20","115","38.6","-97.05","A","GD"
"67476","KS","Roxbury","Mcpherson","20","113","38.49","-97.43","A","POB"
"67478","KS","Simpson","Mitchell","20","123","39.39","-97.93","A","POB"
"67480","KS","Solomon","Dickinson","20","41","38.94","-97.38","A","GD"
"67481","KS","Sylvan Grove","Lincoln","20","105","39.02","-98.39","A","GD"
"67482","KS","Talmage","Dickinson","20","41","39.03","-97.26","A","POB"
"67483","KS","Tampa","Marion","20","115","38.55","-97.17","A","GD"
"67484","KS","Tescott","Ottawa","20","143","38.99","-97.82","A","GD"
"67485","KS","Tipton","Mitchell","20","123","39.32","-98.5","A","GD"
"67487","KS","Wakefield","Clay","20","27","39.18","-97.05","A","GD"
"67490","KS","Wilson","Ellsworth","20","53","38.81","-98.44","A","GD"
"67491","KS","Windom","Mcpherson","20","113","38.37","-97.92","A","GD"
"67492","KS","Woodbine","Dickinson","20","41","38.81","-96.96","A","GD"
"67501","KS","Hutchinson","Reno","20","155","38.03","-97.93","A","GD"
"67502","KS","Hutchinson","Reno","20","155","38.1","-97.93","A","GD"
"67504","KS","Hutchinson","Reno","20","155","38.03","-97.93","A","POB"
"67505","KS","South Hutchinson","Reno","20","155","38.03","-97.94","A","GD"
"67510","KS","Abbyville","Reno","20","155","37.99","-98.21","A","GD"
"67511","KS","Albert","Barton","20","9","38.44","-99.02","A","GD"
"67512","KS","Alden","Rice","20","159","38.23","-98.32","A","GD"
"67513","KS","Alexander","Rush","20","165","38.47","-99.55","A","GD"
"67514","KS","Arlington","Reno","20","155","37.88","-98.19","A","GD"
"67515","KS","Arnold","Ness","20","135","38.63","-100.06","A","GD"
"67516","KS","Bazine","Ness","20","135","38.39","-99.69","A","GD"
"67518","KS","Beeler","Ness","20","135","38.45","-100.19","A","GD"
"67519","KS","Belpre","Edwards","20","47","37.94","-99.1","A","GD"
"67520","KS","Bison","Rush","20","165","38.57","-99.19","A","GD"
"67521","KS","Brownell","Ness","20","135","38.62","-99.73","A","GD"
"67522","KS","Buhler","Reno","20","155","38.12","-97.75","A","GD"
"67523","KS","Burdett","Pawnee","20","145","38.2","-99.54","A","GD"
"67524","KS","Chase","Rice","20","159","38.37","-98.36","A","GD"
"67525","KS","Claflin","Barton","20","9","38.56","-98.56","A","GD"
"67526","KS","Ellinwood","Barton","20","9","38.34","-98.57","A","GD"
"67529","KS","Garfield","Pawnee","20","145","38.07","-99.25","A","GD"
"67530","KS","Great Bend","Barton","20","9","38.36","-98.79","A","GD"
"67543","KS","Haven","Reno","20","155","37.9","-97.79","A","GD"
"67544","KS","Hoisington","Barton","20","9","38.56","-98.77","A","GD"
"67545","KS","Hudson","Stafford","20","185","38.15","-98.63","A","GD"
"67546","KS","Inman","Mcpherson","20","113","38.24","-97.82","A","GD"
"67547","KS","Kinsley","Edwards","20","47","37.92","-99.43","A","GD"
"67548","KS","La Crosse","Rush","20","165","38.55","-99.32","A","GD"
"67550","KS","Larned","Pawnee","20","145","38.18","-99.11","A","GD"
"67552","KS","Lewis","Edwards","20","47","37.89","-99.23","A","GD"
"67553","KS","Liebenthal","Rush","20","165","38.66","-99.32","A","POB"
"67554","KS","Lyons","Rice","20","159","38.36","-98.2","A","GD"
"67556","KS","Mc Cracken","Rush","20","165","38.6","-99.54","A","GD"
"67557","KS","Macksville","Stafford","20","185","37.93","-98.96","A","GD"
"67559","KS","Nekoma","Rush","20","165","38.4","-99.46","A","GD"
"67560","KS","Ness City","Ness","20","135","38.43","-99.93","A","GD"
"67561","KS","Nickerson","Reno","20","155","38.14","-98.09","A","GD"
"67563","KS","Offerle","Edwards","20","47","37.86","-99.56","A","GD"
"67564","KS","Olmitz","Barton","20","9","38.52","-98.94","A","GD"
"67565","KS","Otis","Rush","20","165","38.59","-99.04","A","GD"
"67566","KS","Partridge","Reno","20","155","37.95","-98.1","A","GD"
"67567","KS","Pawnee Rock","Barton","20","9","38.27","-98.98","A","GD"
"67568","KS","Plevna","Reno","20","155","38.01","-98.32","A","GD"
"67570","KS","Pretty Prairie","Reno","20","155","37.78","-97.98","A","GD"
"67572","KS","Ransom","Ness","20","135","38.66","-99.91","A","GD"
"67573","KS","Raymond","Rice","20","159","38.28","-98.41","A","GD"
"67574","KS","Rozel","Pawnee","20","145","38.2","-99.39","A","GD"
"67575","KS","Rush Center","Rush","20","165","38.44","-99.26","A","GD"
"67576","KS","St John","Stafford","20","185","38.03","-98.79","A","GD"
"67578","KS","Stafford","Stafford","20","185","37.98","-98.59","A","GD"
"67579","KS","Sterling","Rice","20","159","38.2","-98.2","A","GD"
"67581","KS","Sylvia","Reno","20","155","37.98","-98.41","A","GD"
"67583","KS","Turon","Reno","20","155","37.8","-98.48","A","GD"
"67584","KS","Utica","Ness","20","135","38.66","-100.16","A","GD"
"67585","KS","Yoder","Reno","20","155","37.94","-97.87","A","POB"
"67601","KS","Hays","Ellis","20","51","38.88","-99.32","A","GD"
"67621","KS","Agra","Phillips","20","147","39.79","-99.13","A","GD"
"67622","KS","Almena","Norton","20","137","39.89","-99.72","A","GD"
"67623","KS","Alton","Osborne","20","141","39.46","-98.95","A","GD"
"67625","KS","Bogue","Graham","20","65","39.36","-99.69","A","GD"
"67626","KS","Bunker Hill","Russell","20","167","38.88","-98.71","A","GD"
"67627","KS","Catharine","Ellis","20","51","38.98","-99.2","A","POB"
"67628","KS","Cedar","Smith","20","183","39.63","-98.97","A","GD"
"67629","KS","Clayton","Norton","20","137","39.71","-100.18","A","GD"
"67631","KS","Collyer","Trego","20","195","39.03","-100.09","A","GD"
"67632","KS","Damar","Rooks","20","163","39.33","-99.59","A","GD"
"67634","KS","Dorrance","Russell","20","167","38.82","-98.6","A","GD"
"67635","KS","Dresden","Decatur","20","39","39.6","-100.43","A","GD"
"67637","KS","Ellis","Ellis","20","51","38.93","-99.59","A","GD"
"67638","KS","Gaylord","Smith","20","183","39.64","-98.85","A","GD"
"67639","KS","Glade","Phillips","20","147","39.65","-99.31","A","GD"
"67640","KS","Gorham","Russell","20","167","38.91","-99.03","A","GD"
"67642","KS","Hill City","Graham","20","65","39.36","-99.84","A","GD"
"67643","KS","Jennings","Decatur","20","39","39.68","-100.3","A","GD"
"67644","KS","Kirwin","Phillips","20","147","39.65","-99.14","A","GD"
"67645","KS","Lenora","Norton","20","137","39.61","-99.91","A","GD"
"67646","KS","Logan","Phillips","20","147","39.63","-99.58","A","GD"
"67647","KS","Long Island","Phillips","20","147","39.95","-99.54","A","GD"
"67648","KS","Lucas","Russell","20","167","39.07","-98.55","A","GD"
"67649","KS","Luray","Russell","20","167","39.13","-98.69","A","GD"
"67650","KS","Morland","Graham","20","65","39.35","-100.11","A","GD"
"67651","KS","Natoma","Osborne","20","141","39.21","-99.04","A","GD"
"67653","KS","Norcatur","Decatur","20","39","39.89","-100.2","A","GD"
"67654","KS","Norton","Norton","20","137","39.82","-99.93","A","GD"
"67656","KS","Ogallah","Trego","20","195","38.97","-99.76","A","GD"
"67657","KS","Palco","Rooks","20","163","39.23","-99.6","A","GD"
"67658","KS","Paradise","Russell","20","167","39.12","-98.93","A","GD"
"67659","KS","Penokee","Graham","20","65","39.32","-99.99","A","GD"
"67660","KS","Pfeifer","Ellis","20","51","38.71","-99.17","A","POB"
"67661","KS","Phillipsburg","Phillips","20","147","39.8","-99.33","A","GD"
"67663","KS","Plainville","Rooks","20","163","39.21","-99.32","A","GD"
"67664","KS","Prairie View","Phillips","20","147","39.83","-99.57","A","GD"
"67665","KS","Russell","Russell","20","167","38.87","-98.87","A","GD"
"67667","KS","Schoenchen","Ellis","20","51","38.71","-99.33","A","POB"
"67669","KS","Stockton","Rooks","20","163","39.44","-99.32","A","GD"
"67671","KS","Victoria","Ellis","20","51","38.86","-99.14","A","GD"
"67672","KS","Wakeeney","Trego","20","195","39.02","-99.89","A","GD"
"67673","KS","Waldo","Russell","20","167","39.17","-98.8","A","GD"
"67674","KS","Walker","Ellis","20","51","38.86","-99.08","A","POB"
"67675","KS","Woodston","Rooks","20","163","39.45","-99.1","A","GD"
"67701","KS","Colby","Thomas","20","193","39.39","-101.05","A","GD"
"67730","KS","Atwood","Rawlins","20","153","39.82","-101.08","A","GD"
"67731","KS","Bird City","Cheyenne","20","23","39.76","-101.54","A","GD"
"67732","KS","Brewster","Thomas","20","193","39.38","-101.38","A","GD"
"67733","KS","Edson","Sherman","20","181","39.35","-101.53","A","GD"
"67734","KS","Gem","Thomas","20","193","39.49","-100.9","A","GD"
"67735","KS","Goodland","Sherman","20","181","39.33","-101.74","A","GD"
"67736","KS","Gove","Gove","20","63","38.88","-100.46","A","GD"
"67737","KS","Grainfield","Gove","20","63","39.13","-100.48","A","GD"
"67738","KS","Grinnell","Gove","20","63","39.05","-100.64","A","GD"
"67739","KS","Herndon","Rawlins","20","153","39.9","-100.8","A","GD"
"67740","KS","Hoxie","Sheridan","20","179","39.37","-100.4","A","GD"
"67741","KS","Kanorado","Sherman","20","181","39.37","-102","A","GD"
"67743","KS","Levant","Thomas","20","193","39.42","-101.22","A","GD"
"67744","KS","Ludell","Rawlins","20","153","39.86","-100.94","A","GD"
"67745","KS","Mc Donald","Rawlins","20","153","39.8","-101.36","A","GD"
"67747","KS","Monument","Logan","20","109","39.07","-101.04","A","GD"
"67748","KS","Oakley","Logan","20","109","39.1","-100.85","A","GD"
"67749","KS","Oberlin","Decatur","20","39","39.83","-100.54","A","GD"
"67751","KS","Park","Gove","20","63","39.13","-100.36","A","GD"
"67752","KS","Quinter","Gove","20","63","39.04","-100.23","A","GD"
"67753","KS","Rexford","Thomas","20","193","39.42","-100.74","A","GD"
"67756","KS","Saint Francis","Cheyenne","20","23","39.77","-101.82","A","GD"
"67757","KS","Selden","Sheridan","20","179","39.54","-100.59","A","GD"
"67758","KS","Sharon Springs","Wallace","20","199","38.89","-101.75","A","GD"
"67761","KS","Wallace","Wallace","20","199","38.94","-101.51","A","GD"
"67762","KS","Weskan","Wallace","20","199","38.89","-101.97","A","GD"
"67764","KS","Winona","Logan","20","109","38.98","-101.2","A","GD"
"67801","KS","Dodge City","Ford","20","57","37.75","-100.02","A","GD"
"67831","KS","Ashland","Clark","20","25","37.19","-99.76","A","GD"
"67834","KS","Bucklin","Ford","20","57","37.54","-99.64","A","GD"
"67835","KS","Cimarron","Gray","20","69","37.84","-100.35","A","GD"
"67836","KS","Coolidge","Hamilton","20","75","38.04","-102.01","A","POB"
"67837","KS","Copeland","Gray","20","69","37.55","-100.66","A","GD"
"67838","KS","Deerfield","Kearny","20","93","38.04","-101.13","A","GD"
"67839","KS","Dighton","Lane","20","101","38.5","-100.45","A","GD"
"67840","KS","Englewood","Clark","20","25","37.05","-100","A","POB"
"67841","KS","Ensign","Gray","20","69","37.64","-100.24","A","GD"
"67842","KS","Ford","Ford","20","57","37.58","-99.77","A","GD"
"67843","KS","Fort Dodge","Ford","20","57","37.73","-99.94","A","GD"
"67844","KS","Fowler","Meade","20","119","37.4","-100.21","A","GD"
"67846","KS","Garden City","Finney","20","55","37.98","-100.85","A","GD"
"67849","KS","Hanston","Hodgeman","20","83","38.15","-99.72","A","GD"
"67850","KS","Healy","Lane","20","101","38.58","-100.6","A","GD"
"67851","KS","Holcomb","Finney","20","55","38.07","-101.01","A","GD"
"67853","KS","Ingalls","Gray","20","69","37.85","-100.51","A","GD"
"67854","KS","Jetmore","Hodgeman","20","83","38.08","-99.96","A","GD"
"67855","KS","Johnson","Stanton","20","187","37.56","-101.69","A","GD"
"67857","KS","Kendall","Hamilton","20","75","37.99","-101.56","A","GD"
"67859","KS","Kismet","Seward","20","175","37.23","-100.77","A","GD"
"67860","KS","Lakin","Kearny","20","93","37.97","-101.29","A","GD"
"67861","KS","Leoti","Wichita","20","203","38.49","-101.4","A","GD"
"67862","KS","Manter","Stanton","20","187","37.56","-101.93","A","GD"
"67863","KS","Marienthal","Wichita","20","203","38.55","-101.22","A","GD"
"67864","KS","Meade","Meade","20","119","37.23","-100.33","A","GD"
"67865","KS","Minneola","Clark","20","25","37.45","-99.99","A","GD"
"67867","KS","Montezuma","Gray","20","69","37.58","-100.46","A","GD"
"67868","KS","Pierceville","Finney","20","55","37.85","-100.71","A","GD"
"67869","KS","Plains","Meade","20","119","37.25","-100.58","A","GD"
"67870","KS","Satanta","Haskell","20","81","37.49","-101","A","GD"
"67871","KS","Scott City","Scott","20","171","38.5","-100.92","A","GD"
"67876","KS","Spearville","Ford","20","57","37.85","-99.73","A","GD"
"67877","KS","Sublette","Haskell","20","81","37.52","-100.85","A","GD"
"67878","KS","Syracuse","Hamilton","20","75","38.02","-101.78","A","GD"
"67879","KS","Tribune","Greeley","20","71","38.49","-101.77","A","GD"
"67880","KS","Ulysses","Grant","20","67","37.58","-101.33","A","GD"
"67882","KS","Wright","Ford","20","57","37.79","-99.89","A","GD"
"67901","KS","Liberal","Seward","20","175","37.07","-100.92","A","GD"
"67905","KS","Liberal","Seward","20","175","37.03","-100.93","A","POB"
"67950","KS","Elkhart","Morton","20","129","36.97","-101.89","A","GD"
"67951","KS","Hugoton","Stevens","20","189","37.17","-101.34","A","GD"
"67952","KS","Moscow","Stevens","20","189","37.3","-101.15","A","GD"
"67953","KS","Richfield","Morton","20","129","37.25","-101.87","A","GD"
"67954","KS","Rolla","Morton","20","129","37.2","-101.64","A","GD"
