"ZIPCode","State","City","County","StateFIPS","CountyFIPS","Latitude","Longitude","Preference","Type"
"46001","IN","Alexandria","Madison","18","95","40.26","-85.67","A","GD"
"46011","IN","Anderson","Madison","18","95","40.11","-85.74","A","GD"
"46012","IN","Anderson","Madison","18","95","40.13","-85.65","A","GD"
"46013","IN","Anderson","Madison","18","95","40.06","-85.68","A","GD"
"46014","IN","Anderson","Madison","18","95","40.08","-85.68","A","POB"
"46015","IN","Anderson","Madison","18","95","40.11","-85.68","A","POB"
"46016","IN","Anderson","Madison","18","95","40.1","-85.68","A","GD"
"46017","IN","Anderson","Madison","18","95","40.1","-85.6","A","GD"
"46018","IN","Anderson","Madison","18","95","40.09","-85.69","A","POB"
"46030","IN","Arcadia","Hamilton","18","57","40.17","-86.02","A","GD"
"46031","IN","Atlanta","Hamilton","18","57","40.21","-86.02","A","GD"
"46032","IN","Carmel","Hamilton","18","57","39.97","-86.16","A","GD"
"46033","IN","Carmel","Hamilton","18","57","39.98","-86.09","A","GD"
"46034","IN","Cicero","Hamilton","18","57","40.12","-86.03","A","GD"
"46035","IN","Colfax","Clinton","18","23","40.19","-86.67","A","GD"
"46036","IN","Elwood","Madison","18","95","40.28","-85.84","A","GD"
"46037","IN","Fishers","Hamilton","18","57","39.96","-85.95","A","GD"
"46038","IN","Fishers","Hamilton","18","57","39.97","-86.01","A","GD"
"46039","IN","Forest","Clinton","18","23","40.36","-86.32","A","GD"
"46040","IN","Fortville","Hancock","18","59","39.93","-85.85","A","GD"
"46041","IN","Frankfort","Clinton","18","23","40.29","-86.5","A","GD"
"46044","IN","Frankton","Madison","18","95","40.22","-85.78","A","GD"
"46045","IN","Goldsmith","Tipton","18","159","40.29","-86.15","A","POB"
"46047","IN","Hobbs","Tipton","18","159","40.28","-85.95","A","POB"
"46048","IN","Ingalls","Madison","18","95","39.96","-85.8","A","GD"
"46049","IN","Kempton","Tipton","18","159","40.29","-86.23","A","GD"
"46050","IN","Kirklin","Clinton","18","23","40.2","-86.36","A","GD"
"46051","IN","Lapel","Madison","18","95","40.06","-85.85","A","GD"
"46052","IN","Lebanon","Boone","18","11","40.05","-86.47","A","GD"
"46055","IN","Mccordsville","Hancock","18","59","39.9","-85.92","A","GD"
"46056","IN","Markleville","Madison","18","95","39.98","-85.61","A","GD"
"46057","IN","Michigantown","Clinton","18","23","40.33","-86.39","A","GD"
"46058","IN","Mulberry","Clinton","18","23","40.35","-86.66","A","GD"
"46060","IN","Noblesville","Hamilton","18","57","40.04","-85.97","A","GD"
"46061","IN","Noblesville","Hamilton","18","57","40.06","-86.03","A","POB"
"46062","IN","Noblesville","Hamilton","18","57","40.06","-86.05","A","GD"
"46063","IN","Orestes","Madison","18","95","40.27","-85.73","A","POB"
"46064","IN","Pendleton","Madison","18","95","40","-85.76","A","GD"
"46065","IN","Rossville","Clinton","18","23","40.43","-86.61","A","GD"
"46067","IN","Sedalia","Clinton","18","23","40.42","-86.51","A","POB"
"46068","IN","Sharpsville","Tipton","18","159","40.38","-86.1","A","GD"
"46069","IN","Sheridan","Hamilton","18","57","40.14","-86.22","A","GD"
"46070","IN","Summitville","Madison","18","95","40.34","-85.65","A","GD"
"46071","IN","Thorntown","Boone","18","11","40.13","-86.6","A","GD"
"46072","IN","Tipton","Tipton","18","159","40.28","-86.05","A","GD"
"46074","IN","Westfield","Hamilton","18","57","40.03","-86.17","A","GD"
"46075","IN","Whitestown","Boone","18","11","39.99","-86.35","A","GD"
"46076","IN","Windfall","Tipton","18","159","40.36","-85.95","A","GD"
"46077","IN","Zionsville","Boone","18","11","39.96","-86.29","A","GD"
"46082","IN","Carmel","Hamilton","18","57","39.97","-86.17","A","POB"
"46085","IN","Fishers","Hamilton","18","57","39.96","-86.02","A","PVT"
"46102","IN","Advance","Boone","18","11","40","-86.62","A","POB"
"46103","IN","Amo","Hendricks","18","63","39.69","-86.61","A","POB"
"46104","IN","Arlington","Rush","18","139","39.65","-85.58","A","GD"
"46105","IN","Bainbridge","Putnam","18","133","39.76","-86.8","A","GD"
"46106","IN","Bargersville","Johnson","18","81","39.53","-86.19","A","GD"
"46107","IN","Beech Grove","Marion","18","97","39.72","-86.09","A","GD"
"46110","IN","Boggstown","Shelby","18","145","39.57","-85.92","A","GD"
"46111","IN","Brooklyn","Morgan","18","109","39.54","-86.37","A","POB"
"46112","IN","Brownsburg","Hendricks","18","63","39.85","-86.39","A","GD"
"46113","IN","Camby","Morgan","18","109","39.63","-86.31","A","GD"
"46115","IN","Carthage","Rush","18","139","39.74","-85.57","A","GD"
"46117","IN","Charlottesville","Hancock","18","59","39.8","-85.61","A","GD"
"46118","IN","Clayton","Hendricks","18","63","39.66","-86.52","A","GD"
"46120","IN","Cloverdale","Putnam","18","133","39.51","-86.8","A","GD"
"46121","IN","Coatesville","Putnam","18","133","39.69","-86.68","A","GD"
"46122","IN","Danville","Hendricks","18","63","39.76","-86.52","A","GD"
"46123","IN","Avon","Hendricks","18","63","39.76","-86.39","A","GD"
"46124","IN","Edinburgh","Johnson","18","81","39.36","-85.96","A","GD"
"46125","IN","Eminence","Morgan","18","109","39.52","-86.64","A","POB"
"46126","IN","Fairland","Shelby","18","145","39.61","-85.89","A","GD"
"46127","IN","Falmouth","Rush","18","139","39.72","-85.33","A","GD"
"46128","IN","Fillmore","Putnam","18","133","39.66","-86.75","A","GD"
"46129","IN","Finly","Hancock","18","59","39.71","-85.82","A","POB"
"46130","IN","Fountaintown","Shelby","18","145","39.68","-85.83","A","GD"
"46131","IN","Franklin","Johnson","18","81","39.48","-86.05","A","GD"
"46133","IN","Glenwood","Fayette","18","41","39.61","-85.31","A","GD"
"46135","IN","Greencastle","Putnam","18","133","39.65","-86.88","A","GD"
"46140","IN","Greenfield","Hancock","18","59","39.8","-85.78","A","GD"
"46142","IN","Greenwood","Johnson","18","81","39.62","-86.15","A","GD"
"46143","IN","Greenwood","Johnson","18","81","39.6","-86.13","A","GD"
"46144","IN","Gwynneville","Shelby","18","145","39.66","-85.65","A","POB"
"46146","IN","Homer","Rush","18","139","39.58","-85.58","A","GD"
"46147","IN","Jamestown","Boone","18","11","39.97","-86.62","A","GD"
"46148","IN","Knightstown","Henry","18","65","39.8","-85.52","A","GD"
"46149","IN","Lizton","Hendricks","18","63","39.89","-86.55","A","GD"
"46150","IN","Manilla","Rush","18","139","39.56","-85.61","A","GD"
"46151","IN","Martinsville","Morgan","18","109","39.44","-86.41","A","GD"
"46154","IN","Maxwell","Hancock","18","59","39.86","-85.77","A","POB"
"46155","IN","Mays","Rush","18","139","39.74","-85.43","A","POB"
"46156","IN","Milroy","Rush","18","139","39.49","-85.48","A","GD"
"46157","IN","Monrovia","Morgan","18","109","39.56","-86.51","A","GD"
"46158","IN","Mooresville","Morgan","18","109","39.59","-86.38","A","GD"
"46160","IN","Morgantown","Morgan","18","109","39.35","-86.26","A","GD"
"46161","IN","Morristown","Shelby","18","145","39.67","-85.7","A","GD"
"46162","IN","Needham","Johnson","18","81","39.55","-85.96","A","GD"
"46163","IN","New Palestine","Hancock","18","59","39.73","-85.9","A","GD"
"46164","IN","Nineveh","Johnson","18","81","39.32","-86.12","A","GD"
"46165","IN","North Salem","Hendricks","18","63","39.85","-86.64","A","GD"
"46166","IN","Paragon","Morgan","18","109","39.42","-86.58","A","GD"
"46167","IN","Pittsboro","Hendricks","18","63","39.86","-86.46","A","GD"
"46168","IN","Plainfield","Hendricks","18","63","39.7","-86.39","A","GD"
"46170","IN","Putnamville","Putnam","18","133","39.57","-86.87","A","GD"
"46171","IN","Reelsville","Putnam","18","133","39.53","-86.96","A","GD"
"46172","IN","Roachdale","Putnam","18","133","39.84","-86.83","A","GD"
"46173","IN","Rushville","Rush","18","139","39.61","-85.44","A","GD"
"46175","IN","Russellville","Putnam","18","133","39.84","-86.99","A","GD"
"46176","IN","Shelbyville","Shelby","18","145","39.52","-85.77","A","GD"
"46180","IN","Stilesville","Hendricks","18","63","39.6","-86.63","A","GD"
"46181","IN","Trafalgar","Johnson","18","81","39.39","-86.17","A","GD"
"46182","IN","Waldron","Shelby","18","145","39.46","-85.67","A","GD"
"46183","IN","West Newton","Marion","18","97","39.65","-86.28","A","POB"
"46184","IN","Whiteland","Johnson","18","81","39.56","-86.09","A","GD"
"46186","IN","Wilkinson","Hancock","18","59","39.89","-85.63","A","GD"
"46197","IN","Plainfield","Hendricks","18","63","39.7","-86.39","A","PVT"
"46201","IN","Indianapolis","Marion","18","97","39.78","-86.11","A","GD"
"46202","IN","Indianapolis","Marion","18","97","39.78","-86.16","A","GD"
"46203","IN","Indianapolis","Marion","18","97","39.74","-86.12","A","GD"
"46204","IN","Indianapolis","Marion","18","97","39.77","-86.16","A","GD"
"46205","IN","Indianapolis","Marion","18","97","39.82","-86.14","A","GD"
"46206","IN","Indianapolis","Marion","18","97","39.74","-86.16","A","POB"
"46207","IN","Indianapolis","Marion","18","97","39.74","-86.16","A","POB"
"46208","IN","Indianapolis","Marion","18","97","39.82","-86.17","A","GD"
"46209","IN","Indianapolis","Marion","18","97","39.74","-86.16","A","PVT"
"46210","IN","Indianapolis","Marion","18","97","39.89","-86.26","A","PVT"
"46211","IN","Indianapolis","Marion","18","97","39.89","-86.26","A","PVT"
"46213","IN","Indianapolis","Marion","18","97","39.92","-86.03","A","PVT"
"46214","IN","Indianapolis","Marion","18","97","39.79","-86.29","A","GD"
"46216","IN","Indianapolis","Marion","18","97","39.86","-86.01","A","GD"
"46217","IN","Indianapolis","Marion","18","97","39.67","-86.18","A","GD"
"46218","IN","Indianapolis","Marion","18","97","39.81","-86.1","A","GD"
"46219","IN","Indianapolis","Marion","18","97","39.78","-86.05","A","GD"
"46220","IN","Indianapolis","Marion","18","97","39.87","-86.12","A","GD"
"46221","IN","Indianapolis","Marion","18","97","39.72","-86.22","A","GD"
"46222","IN","Indianapolis","Marion","18","97","39.79","-86.21","A","GD"
"46224","IN","Indianapolis","Marion","18","97","39.8","-86.26","A","GD"
"46225","IN","Indianapolis","Marion","18","97","39.75","-86.16","A","GD"
"46226","IN","Indianapolis","Marion","18","97","39.84","-86.05","A","GD"
"46227","IN","Indianapolis","Marion","18","97","39.68","-86.13","A","GD"
"46228","IN","Indianapolis","Marion","18","97","39.85","-86.2","A","GD"
"46229","IN","Indianapolis","Marion","18","97","39.79","-85.98","A","GD"
"46230","IN","Indianapolis","Marion","18","97","39.87","-86.11","A","POB"
"46231","IN","Indianapolis","Marion","18","97","39.73","-86.32","A","GD"
"46234","IN","Indianapolis","Marion","18","97","39.8","-86.33","A","GD"
"46235","IN","Indianapolis","Marion","18","97","39.83","-85.99","A","GD"
"46236","IN","Indianapolis","Marion","18","97","39.89","-85.96","A","GD"
"46237","IN","Indianapolis","Marion","18","97","39.68","-86.08","A","GD"
"46239","IN","Indianapolis","Marion","18","97","39.72","-86.01","A","GD"
"46240","IN","Indianapolis","Marion","18","97","39.9","-86.13","A","GD"
"46241","IN","Indianapolis","Marion","18","97","39.74","-86.25","A","GD"
"46242","IN","Indianapolis","Marion","18","97","39.7","-86.26","A","POB"
"46244","IN","Indianapolis","Marion","18","97","39.77","-86.16","A","POB"
"46247","IN","Indianapolis","Marion","18","97","39.68","-86.13","A","POB"
"46249","IN","Indianapolis","Marion","18","97","39.86","-86","A","PVT"
"46250","IN","Indianapolis","Marion","18","97","39.91","-86.07","A","GD"
"46251","IN","Indianapolis","Marion","18","97","39.73","-86.27","A","POB"
"46253","IN","Indianapolis","Marion","18","97","39.83","-86.27","A","POB"
"46254","IN","Indianapolis","Marion","18","97","39.84","-86.26","A","GD"
"46255","IN","Indianapolis","Marion","18","97","39.77","-86.16","A","PVT"
"46256","IN","Indianapolis","Marion","18","97","39.91","-86.02","A","GD"
"46259","IN","Indianapolis","Marion","18","97","39.66","-85.99","A","GD"
"46260","IN","Indianapolis","Marion","18","97","39.9","-86.18","A","GD"
"46262","IN","Indianapolis","Marion","18","97","39.77","-86.16","A","PVT"
"46266","IN","Indianapolis","Marion","18","97","39.77","-86.16","A","PVT"
"46268","IN","Indianapolis","Marion","18","97","39.9","-86.23","A","GD"
"46274","IN","Indianapolis","Marion","18","97","39.89","-86.26","A","PVT"
"46275","IN","Indianapolis","Marion","18","97","39.77","-86.16","A","PVT"
"46277","IN","Indianapolis","Marion","18","97","39.77","-86.16","A","PVT"
"46278","IN","Indianapolis","Marion","18","97","39.9","-86.29","A","GD"
"46280","IN","Indianapolis","Hamilton","18","57","39.94","-86.13","A","GD"
"46282","IN","Indianapolis","Marion","18","97","39.77","-86.16","A","GD"
"46283","IN","Indianapolis","Marion","18","97","39.77","-86.11","A","PVT"
"46285","IN","Indianapolis","Marion","18","97","39.74","-86.16","A","PVT"
"46290","IN","Indianapolis","Hamilton","18","57","39.93","-86.16","A","GD"
"46291","IN","Indianapolis","Marion","18","97","39.78","-86.04","A","PVT"
"46295","IN","Indianapolis","Marion","18","97","39.67","-86.19","A","PVT"
"46296","IN","Indianapolis","Marion","18","97","39.77","-86.16","A","PVT"
"46298","IN","Indianapolis","Marion","18","97","39.9","-86.23","A","PVT"
"46301","IN","Beverly Shores","Porter","18","127","41.68","-86.98","A","POB"
"46302","IN","Boone Grove","Porter","18","127","41.35","-87.13","A","POB"
"46303","IN","Cedar Lake","Lake","18","89","41.37","-87.45","A","GD"
"46304","IN","Chesterton","Porter","18","127","41.61","-87.06","A","GD"
"46307","IN","Crown Point","Lake","18","89","41.42","-87.34","A","GD"
"46308","IN","Crown Point","Lake","18","89","41.42","-87.36","A","POB"
"46310","IN","Demotte","Jasper","18","73","41.18","-87.24","A","GD"
"46311","IN","Dyer","Lake","18","89","41.49","-87.51","A","GD"
"46312","IN","East Chicago","Lake","18","89","41.64","-87.46","A","GD"
"46319","IN","Griffith","Lake","18","89","41.53","-87.42","A","GD"
"46320","IN","Hammond","Lake","18","89","41.62","-87.51","A","GD"
"46321","IN","Munster","Lake","18","89","41.55","-87.5","A","GD"
"46322","IN","Highland","Lake","18","89","41.55","-87.46","A","GD"
"46323","IN","Hammond","Lake","18","89","41.59","-87.45","A","GD"
"46324","IN","Hammond","Lake","18","89","41.58","-87.5","A","GD"
"46325","IN","Hammond","Lake","18","89","41.61","-87.51","A","POB"
"46327","IN","Hammond","Lake","18","89","41.63","-87.51","A","GD"
"46340","IN","Hanna","La Porte","18","91","41.4","-86.77","A","GD"
"46341","IN","Hebron","Porter","18","127","41.33","-87.21","A","GD"
"46342","IN","Hobart","Lake","18","89","41.53","-87.26","A","GD"
"46345","IN","Kingsbury","La Porte","18","91","41.53","-86.7","A","POB"
"46346","IN","Kingsford Heights","La Porte","18","91","41.48","-86.69","A","POB"
"46347","IN","Kouts","Porter","18","127","41.31","-87.01","A","GD"
"46348","IN","La Crosse","La Porte","18","91","41.31","-86.88","A","GD"
"46349","IN","Lake Village","Newton","18","111","41.11","-87.42","A","GD"
"46350","IN","La Porte","La Porte","18","91","41.61","-86.72","A","GD"
"46352","IN","La Porte","La Porte","18","91","41.62","-86.7","A","POB"
"46355","IN","Leroy","Lake","18","89","41.36","-87.27","A","POB"
"46356","IN","Lowell","Lake","18","89","41.28","-87.41","A","GD"
"46360","IN","Michigan City","La Porte","18","91","41.71","-86.88","A","GD"
"46361","IN","Michigan City","La Porte","18","91","41.72","-86.9","A","POB"
"46365","IN","Mill Creek","La Porte","18","91","41.6","-86.53","A","GD"
"46366","IN","North Judson","Starke","18","149","41.22","-86.77","A","GD"
"46368","IN","Portage","Porter","18","127","41.58","-87.18","A","GD"
"46371","IN","Rolling Prairie","La Porte","18","91","41.68","-86.61","A","GD"
"46372","IN","Roselawn","Newton","18","111","41.14","-87.31","A","POB"
"46373","IN","Saint John","Lake","18","89","41.45","-87.47","A","GD"
"46374","IN","San Pierre","Starke","18","149","41.22","-86.89","A","GD"
"46375","IN","Schererville","Lake","18","89","41.49","-87.45","A","GD"
"46376","IN","Schneider","Lake","18","89","41.19","-87.45","A","POB"
"46377","IN","Shelby","Lake","18","89","41.19","-87.35","A","POB"
"46379","IN","Sumava Resorts","Newton","18","111","41.17","-87.44","A","POB"
"46380","IN","Tefft","Jasper","18","73","41.2","-86.97","A","POB"
"46381","IN","Thayer","Newton","18","111","41.17","-87.33","A","GD"
"46382","IN","Union Mills","La Porte","18","91","41.48","-86.77","A","GD"
"46383","IN","Valparaiso","Porter","18","127","41.48","-87.03","A","GD"
"46384","IN","Valparaiso","Porter","18","127","41.49","-87.06","A","POB"
"46385","IN","Valparaiso","Porter","18","127","41.49","-87.11","A","GD"
"46390","IN","Wanatah","La Porte","18","91","41.43","-86.88","A","GD"
"46391","IN","Westville","La Porte","18","91","41.56","-86.91","A","GD"
"46392","IN","Wheatfield","Jasper","18","73","41.19","-87.05","A","GD"
"46393","IN","Wheeler","Porter","18","127","41.51","-87.18","A","POB"
"46394","IN","Whiting","Lake","18","89","41.68","-87.5","A","GD"
"46401","IN","Gary","Lake","18","89","41.46","-87.29","A","POB"
"46402","IN","Gary","Lake","18","89","41.6","-87.34","A","GD"
"46403","IN","Gary","Lake","18","89","41.6","-87.26","A","GD"
"46404","IN","Gary","Lake","18","89","41.59","-87.37","A","GD"
"46405","IN","Lake Station","Lake","18","89","41.57","-87.26","A","GD"
"46406","IN","Gary","Lake","18","89","41.6","-87.41","A","GD"
"46407","IN","Gary","Lake","18","89","41.58","-87.34","A","GD"
"46408","IN","Gary","Lake","18","89","41.54","-87.36","A","GD"
"46409","IN","Gary","Lake","18","89","41.54","-87.33","A","GD"
"46410","IN","Merrillville","Lake","18","89","41.49","-87.34","A","GD"
"46411","IN","Merrillville","Lake","18","89","41.47","-87.38","A","POB"
"46501","IN","Argos","Marshall","18","99","41.23","-86.25","A","GD"
"46502","IN","Atwood","Kosciusko","18","85","41.26","-85.98","A","POB"
"46504","IN","Bourbon","Marshall","18","99","41.3","-86.11","A","GD"
"46506","IN","Bremen","Marshall","18","99","41.45","-86.17","A","GD"
"46507","IN","Bristol","Elkhart","18","39","41.72","-85.82","A","GD"
"46508","IN","Burket","Kosciusko","18","85","41.16","-85.97","A","GD"
"46510","IN","Claypool","Kosciusko","18","85","41.12","-85.89","A","GD"
"46511","IN","Culver","Marshall","18","99","41.22","-86.42","A","GD"
"46513","IN","Donaldson","Marshall","18","99","41.36","-86.44","A","POB"
"46514","IN","Elkhart","Elkhart","18","39","41.71","-85.97","A","GD"
"46515","IN","Elkhart","Elkhart","18","39","41.68","-85.97","A","POB"
"46516","IN","Elkhart","Elkhart","18","39","41.68","-85.96","A","GD"
"46517","IN","Elkhart","Elkhart","18","39","41.65","-85.97","A","GD"
"46524","IN","Etna Green","Kosciusko","18","85","41.28","-86.03","A","GD"
"46526","IN","Goshen","Elkhart","18","39","41.57","-85.84","A","GD"
"46527","IN","Goshen","Elkhart","18","39","41.59","-85.84","A","POB"
"46528","IN","Goshen","Elkhart","18","39","41.6","-85.82","A","GD"
"46530","IN","Granger","St Joseph","18","141","41.74","-86.14","A","GD"
"46531","IN","Grovertown","Starke","18","149","41.37","-86.51","A","GD"
"46532","IN","Hamlet","Starke","18","149","41.4","-86.6","A","GD"
"46534","IN","Knox","Starke","18","149","41.28","-86.61","A","GD"
"46536","IN","Lakeville","St Joseph","18","141","41.52","-86.28","A","GD"
"46537","IN","Lapaz","Marshall","18","99","41.46","-86.31","A","POB"
"46538","IN","Leesburg","Kosciusko","18","85","41.32","-85.79","A","GD"
"46539","IN","Mentone","Kosciusko","18","85","41.17","-86.01","A","GD"
"46540","IN","Middlebury","Elkhart","18","39","41.68","-85.7","A","GD"
"46542","IN","Milford","Kosciusko","18","85","41.41","-85.86","A","GD"
"46543","IN","Millersburg","Elkhart","18","39","41.53","-85.68","A","GD"
"46544","IN","Mishawaka","St Joseph","18","141","41.65","-86.16","A","GD"
"46545","IN","Mishawaka","St Joseph","18","141","41.68","-86.17","A","GD"
"46546","IN","Mishawaka","St Joseph","18","141","41.66","-86.16","A","POB"
"46550","IN","Nappanee","Elkhart","18","39","41.44","-86","A","GD"
"46552","IN","New Carlisle","St Joseph","18","141","41.7","-86.5","A","GD"
"46553","IN","New Paris","Elkhart","18","39","41.49","-85.84","A","GD"
"46554","IN","North Liberty","St Joseph","18","141","41.56","-86.42","A","GD"
"46555","IN","North Webster","Kosciusko","18","85","41.32","-85.69","A","GD"
"46556","IN","Notre Dame","St Joseph","18","141","41.7","-86.25","A","POB"
"46561","IN","Osceola","St Joseph","18","141","41.68","-86.08","A","GD"
"46562","IN","Pierceton","Kosciusko","18","85","41.23","-85.7","A","GD"
"46563","IN","Plymouth","Marshall","18","99","41.35","-86.33","A","GD"
"46565","IN","Shipshewana","Lagrange","18","87","41.69","-85.58","A","GD"
"46567","IN","Syracuse","Kosciusko","18","85","41.41","-85.73","A","GD"
"46570","IN","Tippecanoe","Marshall","18","99","41.21","-86.12","A","GD"
"46571","IN","Topeka","Lagrange","18","87","41.56","-85.55","A","GD"
"46572","IN","Tyner","Marshall","18","99","41.42","-86.4","A","POB"
"46573","IN","Wakarusa","Elkhart","18","39","41.54","-86.03","A","GD"
"46574","IN","Walkerton","St Joseph","18","141","41.47","-86.49","A","GD"
"46580","IN","Warsaw","Kosciusko","18","85","41.23","-85.86","A","GD"
"46581","IN","Warsaw","Kosciusko","18","85","41.24","-85.86","A","POB"
"46582","IN","Warsaw","Kosciusko","18","85","41.28","-85.82","A","GD"
"46590","IN","Winona Lake","Kosciusko","18","85","41.22","-85.82","A","GD"
"46595","IN","Wyatt","St Joseph","18","141","41.53","-86.17","A","POB"
"46601","IN","South Bend","St Joseph","18","141","41.67","-86.25","A","GD"
"46613","IN","South Bend","St Joseph","18","141","41.66","-86.25","A","GD"
"46614","IN","South Bend","St Joseph","18","141","41.63","-86.25","A","GD"
"46615","IN","South Bend","St Joseph","18","141","41.67","-86.21","A","GD"
"46616","IN","South Bend","St Joseph","18","141","41.69","-86.26","A","GD"
"46617","IN","South Bend","St Joseph","18","141","41.68","-86.24","A","GD"
"46619","IN","South Bend","St Joseph","18","141","41.67","-86.31","A","GD"
"46624","IN","South Bend","St Joseph","18","141","41.66","-86.29","A","POB"
"46626","IN","South Bend","St Joseph","18","141","41.66","-86.29","A","PVT"
"46628","IN","South Bend","St Joseph","18","141","41.7","-86.3","A","GD"
"46634","IN","South Bend","St Joseph","18","141","41.69","-86.24","A","POB"
"46635","IN","South Bend","St Joseph","18","141","41.71","-86.21","A","GD"
"46637","IN","South Bend","St Joseph","18","141","41.73","-86.24","A","GD"
"46660","IN","South Bend","St Joseph","18","141","41.69","-86.21","A","POB"
"46680","IN","South Bend","St Joseph","18","141","41.63","-86.25","A","POB"
"46699","IN","South Bend","St Joseph","18","141","41.67","-86.25","A","PVT"
"46701","IN","Albion","Noble","18","113","41.36","-85.44","A","GD"
"46702","IN","Andrews","Huntington","18","69","40.83","-85.61","A","GD"
"46703","IN","Angola","Steuben","18","151","41.66","-85.02","A","GD"
"46704","IN","Arcola","Allen","18","3","41.1","-85.29","A","POB"
"46705","IN","Ashley","De Kalb","18","33","41.53","-85.06","A","GD"
"46706","IN","Auburn","De Kalb","18","33","41.36","-85.05","A","GD"
"46710","IN","Avilla","Noble","18","113","41.36","-85.24","A","GD"
"46711","IN","Berne","Adams","18","1","40.66","-84.94","A","GD"
"46713","IN","Bippus","Huntington","18","69","40.94","-85.62","A","POB"
"46714","IN","Bluffton","Wells","18","179","40.73","-85.16","A","GD"
"46721","IN","Butler","De Kalb","18","33","41.42","-84.87","A","GD"
"46723","IN","Churubusco","Whitley","18","183","41.24","-85.33","A","GD"
"46725","IN","Columbia City","Whitley","18","183","41.16","-85.48","A","GD"
"46730","IN","Corunna","De Kalb","18","33","41.45","-85.15","A","GD"
"46731","IN","Craigville","Wells","18","179","40.79","-85.1","A","GD"
"46732","IN","Cromwell","Noble","18","113","41.39","-85.64","A","GD"
"46733","IN","Decatur","Adams","18","1","40.83","-84.94","A","GD"
"46737","IN","Fremont","Steuben","18","151","41.73","-84.97","A","GD"
"46738","IN","Garrett","De Kalb","18","33","41.34","-85.14","A","GD"
"46740","IN","Geneva","Adams","18","1","40.6","-84.97","A","GD"
"46741","IN","Grabill","Allen","18","3","41.21","-84.96","A","GD"
"46742","IN","Hamilton","Steuben","18","151","41.55","-84.89","A","GD"
"46743","IN","Harlan","Allen","18","3","41.21","-84.86","A","GD"
"46745","IN","Hoagland","Allen","18","3","40.95","-85.01","A","GD"
"46746","IN","Howe","Lagrange","18","87","41.72","-85.39","A","GD"
"46747","IN","Hudson","Steuben","18","151","41.55","-85.15","A","GD"
"46748","IN","Huntertown","Allen","18","3","41.24","-85.17","A","GD"
"46750","IN","Huntington","Huntington","18","69","40.88","-85.49","A","GD"
"46755","IN","Kendallville","Noble","18","113","41.45","-85.27","A","GD"
"46759","IN","Keystone","Wells","18","179","40.6","-85.19","A","GD"
"46760","IN","Kimmell","Noble","18","113","41.36","-85.56","A","GD"
"46761","IN","Lagrange","Lagrange","18","87","41.63","-85.38","A","GD"
"46763","IN","Laotto","Noble","18","113","41.29","-85.22","A","GD"
"46764","IN","Larwill","Whitley","18","183","41.21","-85.62","A","GD"
"46765","IN","Leo","Allen","18","3","41.22","-85.03","A","GD"
"46766","IN","Liberty Center","Wells","18","179","40.71","-85.29","A","GD"
"46767","IN","Ligonier","Noble","18","113","41.47","-85.59","A","GD"
"46769","IN","Linn Grove","Adams","18","1","40.65","-85.03","A","POB"
"46770","IN","Markle","Wells","18","179","40.84","-85.32","A","GD"
"46771","IN","Mongo","Lagrange","18","87","41.69","-85.28","A","POB"
"46772","IN","Monroe","Adams","18","1","40.72","-84.93","A","GD"
"46773","IN","Monroeville","Allen","18","3","40.99","-84.87","A","GD"
"46774","IN","New Haven","Allen","18","3","41.08","-84.99","A","GD"
"46776","IN","Orland","Steuben","18","151","41.73","-85.15","A","GD"
"46777","IN","Ossian","Wells","18","179","40.88","-85.16","A","GD"
"46778","IN","Petroleum","Wells","18","179","40.61","-85.15","A","POB"
"46779","IN","Pleasant Lake","Steuben","18","151","41.58","-85.03","A","GD"
"46780","IN","Pleasant Mills","Adams","18","1","40.78","-84.84","A","POB"
"46781","IN","Poneto","Wells","18","179","40.65","-85.27","A","GD"
"46782","IN","Preble","Adams","18","1","40.83","-85.01","A","POB"
"46783","IN","Roanoke","Huntington","18","69","40.97","-85.34","A","GD"
"46784","IN","Rome City","Noble","18","113","41.49","-85.38","A","GD"
"46785","IN","Saint Joe","De Kalb","18","33","41.32","-84.9","A","GD"
"46786","IN","South Milford","Lagrange","18","87","41.53","-85.27","A","POB"
"46787","IN","South Whitley","Whitley","18","183","41.08","-85.63","A","GD"
"46788","IN","Spencerville","Allen","18","3","41.27","-84.94","A","GD"
"46789","IN","Stroh","Lagrange","18","87","41.58","-85.2","A","POB"
"46791","IN","Uniondale","Wells","18","179","40.83","-85.24","A","GD"
"46792","IN","Warren","Huntington","18","69","40.69","-85.44","A","GD"
"46793","IN","Waterloo","De Kalb","18","33","41.44","-85.02","A","GD"
"46794","IN","Wawaka","Noble","18","113","41.46","-85.45","A","GD"
"46795","IN","Wolcottville","Lagrange","18","87","41.55","-85.35","A","GD"
"46796","IN","Wolflake","Noble","18","113","41.34","-85.5","A","POB"
"46797","IN","Woodburn","Allen","18","3","41.13","-84.86","A","GD"
"46798","IN","Yoder","Allen","18","3","40.94","-85.23","A","GD"
"46799","IN","Zanesville","Allen","18","3","40.92","-85.28","A","POB"
"46801","IN","Fort Wayne","Allen","18","3","41.07","-85.17","A","POB"
"46802","IN","Fort Wayne","Allen","18","3","41.07","-85.15","A","GD"
"46803","IN","Fort Wayne","Allen","18","3","41.07","-85.11","A","GD"
"46804","IN","Fort Wayne","Allen","18","3","41.05","-85.24","A","GD"
"46805","IN","Fort Wayne","Allen","18","3","41.1","-85.12","A","GD"
"46806","IN","Fort Wayne","Allen","18","3","41.05","-85.11","A","GD"
"46807","IN","Fort Wayne","Allen","18","3","41.05","-85.15","A","GD"
"46808","IN","Fort Wayne","Allen","18","3","41.09","-85.17","A","GD"
"46809","IN","Fort Wayne","Allen","18","3","41.02","-85.19","A","GD"
"46814","IN","Fort Wayne","Allen","18","3","41.05","-85.31","A","GD"
"46815","IN","Fort Wayne","Allen","18","3","41.11","-85.06","A","GD"
"46816","IN","Fort Wayne","Allen","18","3","41.01","-85.07","A","GD"
"46818","IN","Fort Wayne","Allen","18","3","41.15","-85.22","A","GD"
"46819","IN","Fort Wayne","Allen","18","3","41","-85.15","A","GD"
"46825","IN","Fort Wayne","Allen","18","3","41.15","-85.13","A","GD"
"46835","IN","Fort Wayne","Allen","18","3","41.14","-85.06","A","GD"
"46845","IN","Fort Wayne","Allen","18","3","41.2","-85.11","A","GD"
"46850","IN","Fort Wayne","Allen","18","3","41.07","-85.17","A","POB"
"46851","IN","Fort Wayne","Allen","18","3","41.07","-85.17","A","POB"
"46852","IN","Fort Wayne","Allen","18","3","41.07","-85.17","A","POB"
"46853","IN","Fort Wayne","Allen","18","3","41.07","-85.17","A","POB"
"46854","IN","Fort Wayne","Allen","18","3","41.15","-85.07","A","POB"
"46855","IN","Fort Wayne","Allen","18","3","41.07","-85.17","A","POB"
"46856","IN","Fort Wayne","Allen","18","3","41.07","-85.17","A","POB"
"46857","IN","Fort Wayne","Allen","18","3","41.07","-85.17","A","POB"
"46858","IN","Fort Wayne","Allen","18","3","41.07","-85.17","A","POB"
"46859","IN","Fort Wayne","Allen","18","3","41.07","-85.17","A","POB"
"46860","IN","Fort Wayne","Allen","18","3","41.07","-85.17","A","POB"
"46861","IN","Fort Wayne","Allen","18","3","41.07","-85.17","A","POB"
"46862","IN","Fort Wayne","Allen","18","3","41.07","-85.17","A","POB"
"46863","IN","Fort Wayne","Allen","18","3","41.07","-85.17","A","POB"
"46864","IN","Fort Wayne","Allen","18","3","41.07","-85.17","A","POB"
"46865","IN","Fort Wayne","Allen","18","3","41.07","-85.17","A","POB"
"46866","IN","Fort Wayne","Allen","18","3","41.07","-85.17","A","POB"
"46867","IN","Fort Wayne","Allen","18","3","41.07","-85.17","A","POB"
"46868","IN","Fort Wayne","Allen","18","3","41.07","-85.17","A","POB"
"46869","IN","Fort Wayne","Allen","18","3","41.07","-85.17","A","POB"
"46885","IN","Fort Wayne","Allen","18","3","41.14","-85.03","A","POB"
"46895","IN","Fort Wayne","Allen","18","3","41.11","-85.11","A","POB"
"46896","IN","Fort Wayne","Allen","18","3","41.01","-85.07","A","POB"
"46897","IN","Fort Wayne","Allen","18","3","41.07","-85.16","A","PVT"
"46898","IN","Fort Wayne","Allen","18","3","41.2","-85.3","A","POB"
"46899","IN","Fort Wayne","Allen","18","3","41","-85.24","A","POB"
"46901","IN","Kokomo","Howard","18","67","40.5","-86.14","A","GD"
"46902","IN","Kokomo","Howard","18","67","40.45","-86.12","A","GD"
"46903","IN","Kokomo","Howard","18","67","40.48","-86.13","A","POB"
"46904","IN","Kokomo","Howard","18","67","40.45","-86.14","A","POB"
"46910","IN","Akron","Fulton","18","49","41.04","-86.03","A","GD"
"46911","IN","Amboy","Miami","18","103","40.64","-85.93","A","GD"
"46912","IN","Athens","Fulton","18","49","41.05","-86.13","A","POB"
"46913","IN","Bringhurst","Carroll","18","15","40.51","-86.5","A","GD"
"46914","IN","Bunker Hill","Miami","18","103","40.65","-86.1","A","GD"
"46915","IN","Burlington","Carroll","18","15","40.48","-86.39","A","GD"
"46916","IN","Burrows","Carroll","18","15","40.68","-86.51","A","POB"
"46917","IN","Camden","Carroll","18","15","40.62","-86.49","A","GD"
"46919","IN","Converse","Miami","18","103","40.58","-85.86","A","GD"
"46920","IN","Cutler","Carroll","18","15","40.47","-86.51","A","GD"
"46921","IN","Deedsville","Miami","18","103","40.91","-86.1","A","POB"
"46922","IN","Delong","Fulton","18","49","41.14","-86.42","A","POB"
"46923","IN","Delphi","Carroll","18","15","40.6","-86.66","A","GD"
"46926","IN","Denver","Miami","18","103","40.87","-86.06","A","GD"
"46928","IN","Fairmount","Grant","18","53","40.41","-85.67","A","GD"
"46929","IN","Flora","Carroll","18","15","40.55","-86.5","A","GD"
"46930","IN","Fowlerton","Grant","18","53","40.41","-85.57","A","POB"
"46931","IN","Fulton","Fulton","18","49","40.95","-86.26","A","POB"
"46932","IN","Galveston","Cass","18","17","40.59","-86.23","A","GD"
"46933","IN","Gas City","Grant","18","53","40.49","-85.59","A","GD"
"46935","IN","Grass Creek","Fulton","18","49","40.95","-86.4","A","POB"
"46936","IN","Greentown","Howard","18","67","40.48","-85.95","A","GD"
"46937","IN","Hemlock","Howard","18","67","40.42","-86.04","A","POB"
"46938","IN","Jonesboro","Grant","18","53","40.46","-85.63","A","GD"
"46939","IN","Kewanna","Fulton","18","49","41.01","-86.4","A","GD"
"46940","IN","La Fontaine","Wabash","18","169","40.68","-85.72","A","GD"
"46941","IN","Lagro","Wabash","18","169","40.82","-85.7","A","GD"
"46942","IN","Lake Cicott","Cass","18","17","40.76","-86.54","A","POB"
"46943","IN","Laketon","Wabash","18","169","40.97","-85.84","A","GD"
"46945","IN","Leiters Ford","Fulton","18","49","41.12","-86.39","A","POB"
"46946","IN","Liberty Mills","Wabash","18","169","41.04","-85.74","A","POB"
"46947","IN","Logansport","Cass","18","17","40.76","-86.37","A","GD"
"46950","IN","Lucerne","Cass","18","17","40.89","-86.38","A","GD"
"46951","IN","Macy","Miami","18","103","40.95","-86.12","A","GD"
"46952","IN","Marion","Grant","18","53","40.58","-85.66","A","GD"
"46953","IN","Marion","Grant","18","53","40.53","-85.66","A","GD"
"46957","IN","Matthews","Grant","18","53","40.39","-85.5","A","POB"
"46958","IN","Mexico","Miami","18","103","40.82","-86.12","A","POB"
"46959","IN","Miami","Miami","18","103","40.62","-86.11","A","GD"
"46960","IN","Monterey","Pulaski","18","131","41.16","-86.52","A","GD"
"46961","IN","New Waverly","Cass","18","17","40.77","-86.19","A","GD"
"46962","IN","North Manchester","Wabash","18","169","40.99","-85.78","A","GD"
"46965","IN","Oakford","Howard","18","67","40.42","-86.1","A","POB"
"46967","IN","Onward","Cass","18","17","40.69","-86.19","A","POB"
"46968","IN","Ora","Starke","18","149","41.17","-86.55","A","GD"
"46970","IN","Peru","Miami","18","103","40.75","-86.08","A","GD"
"46971","IN","Grissom Arb","Miami","18","103","40.67","-86.16","A","GD"
"46974","IN","Roann","Wabash","18","169","40.94","-85.92","A","GD"
"46975","IN","Rochester","Fulton","18","49","41.07","-86.24","A","GD"
"46977","IN","Rockfield","Carroll","18","15","40.64","-86.58","A","POB"
"46978","IN","Royal Center","Cass","18","17","40.86","-86.5","A","GD"
"46979","IN","Russiaville","Howard","18","67","40.43","-86.27","A","GD"
"46980","IN","Servia","Wabash","18","169","40.96","-85.74","A","POB"
"46982","IN","Silver Lake","Kosciusko","18","85","41.05","-85.9","A","GD"
"46984","IN","Somerset","Wabash","18","169","40.67","-85.83","A","POB"
"46985","IN","Star City","Pulaski","18","131","40.96","-86.58","A","GD"
"46986","IN","Swayzee","Grant","18","53","40.5","-85.82","A","GD"
"46987","IN","Sweetser","Grant","18","53","40.57","-85.77","A","POB"
"46988","IN","Twelve Mile","Cass","18","17","40.88","-86.23","A","GD"
"46989","IN","Upland","Grant","18","53","40.46","-85.49","A","GD"
"46990","IN","Urbana","Wabash","18","169","40.9","-85.76","A","GD"
"46991","IN","Van Buren","Grant","18","53","40.62","-85.51","A","GD"
"46992","IN","Wabash","Wabash","18","169","40.79","-85.83","A","GD"
"46994","IN","Walton","Cass","18","17","40.68","-86.25","A","GD"
"46995","IN","West Middleton","Howard","18","67","40.44","-86.22","A","POB"
"46996","IN","Winamac","Pulaski","18","131","41.05","-86.65","A","GD"
"46998","IN","Young America","Cass","18","17","40.57","-86.35","A","GD"
"47001","IN","Aurora","Dearborn","18","29","39.06","-84.94","A","GD"
"47003","IN","West College Corner","Union","18","161","39.56","-84.82","A","GD"
"47006","IN","Batesville","Ripley","18","137","39.29","-85.22","A","GD"
"47010","IN","Bath","Franklin","18","47","39.52","-84.84","A","GD"
"47011","IN","Bennington","Switzerland","18","155","38.87","-85.08","A","GD"
"47012","IN","Brookville","Franklin","18","47","39.42","-85","A","GD"
"47016","IN","Cedar Grove","Franklin","18","47","39.36","-84.93","A","GD"
"47017","IN","Cross Plains","Ripley","18","137","38.94","-85.18","A","GD"
"47018","IN","Dillsboro","Dearborn","18","29","39","-85.08","A","GD"
"47019","IN","East Enterprise","Switzerland","18","155","38.87","-84.99","A","POB"
"47020","IN","Florence","Switzerland","18","155","38.81","-84.94","A","GD"
"47021","IN","Friendship","Ripley","18","137","38.97","-85.15","A","POB"
"47022","IN","Guilford","Dearborn","18","29","39.2","-84.95","A","GD"
"47023","IN","Holton","Ripley","18","137","39.08","-85.38","A","GD"
"47024","IN","Laurel","Franklin","18","47","39.49","-85.19","A","GD"
"47025","IN","Lawrenceburg","Dearborn","18","29","39.13","-84.86","A","GD"
"47030","IN","Metamora","Franklin","18","47","39.42","-85.13","A","GD"
"47031","IN","Milan","Ripley","18","137","39.12","-85.16","A","GD"
"47032","IN","Moores Hill","Dearborn","18","29","39.09","-85.06","A","GD"
"47033","IN","Morris","Ripley","18","137","39.29","-85.19","A","POB"
"47034","IN","Napoleon","Ripley","18","137","39.2","-85.33","A","POB"
"47035","IN","New Trenton","Franklin","18","47","39.31","-84.9","A","POB"
"47036","IN","Oldenburg","Franklin","18","47","39.38","-85.24","A","GD"
"47037","IN","Osgood","Ripley","18","137","39.15","-85.31","A","GD"
"47038","IN","Patriot","Switzerland","18","155","38.84","-84.84","A","GD"
"47039","IN","Pierceville","Ripley","18","137","39.11","-85.22","A","POB"
"47040","IN","Rising Sun","Ohio","18","115","38.94","-84.91","A","GD"
"47041","IN","Sunman","Ripley","18","137","39.24","-85.09","A","GD"
"47042","IN","Versailles","Ripley","18","137","39.02","-85.24","A","GD"
"47043","IN","Vevay","Switzerland","18","155","38.78","-85.09","A","GD"
"47060","IN","West Harrison","Dearborn","18","29","39.28","-84.87","A","GD"
"47102","IN","Austin","Scott","18","143","38.75","-85.8","A","GD"
"47104","IN","Bethlehem","Clark","18","19","38.54","-85.42","A","GD"
"47106","IN","Borden","Clark","18","19","38.46","-85.91","A","GD"
"47107","IN","Bradford","Harrison","18","61","38.37","-86.06","A","POB"
"47108","IN","Campbellsburg","Washington","18","175","38.64","-86.27","A","GD"
"47110","IN","Central","Harrison","18","61","38.1","-86.18","A","GD"
"47111","IN","Charlestown","Clark","18","19","38.45","-85.65","A","GD"
"47112","IN","Corydon","Harrison","18","61","38.21","-86.13","A","GD"
"47114","IN","Crandall","Harrison","18","61","38.29","-86.07","A","GD"
"47115","IN","Depauw","Harrison","18","61","38.35","-86.23","A","GD"
"47116","IN","Eckerty","Crawford","18","25","38.34","-86.62","A","GD"
"47117","IN","Elizabeth","Harrison","18","61","38.12","-85.98","A","GD"
"47118","IN","English","Crawford","18","25","38.31","-86.48","A","GD"
"47119","IN","Floyds Knobs","Floyd","18","43","38.35","-85.89","A","GD"
"47120","IN","Fredericksburg","Washington","18","175","38.44","-86.19","A","GD"
"47122","IN","Georgetown","Floyd","18","43","38.3","-85.97","A","GD"
"47123","IN","Grantsburg","Crawford","18","25","38.28","-86.47","A","GD"
"47124","IN","Greenville","Floyd","18","43","38.37","-85.99","A","GD"
"47125","IN","Hardinsburg","Washington","18","175","38.46","-86.3","A","GD"
"47126","IN","Henryville","Clark","18","19","38.54","-85.77","A","GD"
"47129","IN","Clarksville","Clark","18","19","38.31","-85.77","A","GD"
"47130","IN","Jeffersonville","Clark","18","19","38.31","-85.71","A","GD"
"47131","IN","Jeffersonville","Clark","18","19","38.34","-85.7","A","POB"
"47132","IN","Jeffersonville","Clark","18","19","38.29","-85.73","A","PVT"
"47133","IN","Jeffersonville","Clark","18","19","38.29","-85.73","A","PVT"
"47134","IN","Jeffersonville","Clark","18","19","38.29","-85.73","A","PVT"
"47135","IN","Laconia","Harrison","18","61","38.04","-86.07","A","GD"
"47136","IN","Lanesville","Harrison","18","61","38.24","-85.97","A","GD"
"47137","IN","Leavenworth","Crawford","18","25","38.18","-86.38","A","GD"
"47138","IN","Lexington","Scott","18","143","38.68","-85.6","A","GD"
"47140","IN","Marengo","Crawford","18","25","38.37","-86.35","A","GD"
"47141","IN","Marysville","Clark","18","19","38.55","-85.61","A","GD"
"47142","IN","Mauckport","Harrison","18","61","38.08","-86.23","A","GD"
"47143","IN","Memphis","Clark","18","19","38.47","-85.77","A","GD"
"47144","IN","Jeffersonville","Clark","18","19","38.33","-85.71","A","PVT"
"47145","IN","Milltown","Crawford","18","25","38.33","-86.31","A","GD"
"47146","IN","Mount Saint Francis","Floyd","18","43","38.32","-85.91","A","POB"
"47147","IN","Nabb","Clark","18","19","38.59","-85.53","A","GD"
"47150","IN","New Albany","Floyd","18","43","38.31","-85.83","A","GD"
"47151","IN","New Albany","Floyd","18","43","38.29","-85.82","A","POB"
"47160","IN","New Middletown","Harrison","18","61","38.16","-86.05","A","GD"
"47161","IN","New Salisbury","Harrison","18","61","38.32","-86.1","A","GD"
"47162","IN","New Washington","Clark","18","19","38.56","-85.5","A","GD"
"47163","IN","Otisco","Clark","18","19","38.53","-85.67","A","GD"
"47164","IN","Palmyra","Harrison","18","61","38.41","-86.1","A","GD"
"47165","IN","Pekin","Washington","18","175","38.5","-86.01","A","GD"
"47166","IN","Ramsey","Harrison","18","61","38.31","-86.17","A","GD"
"47167","IN","Salem","Washington","18","175","38.6","-86.1","A","GD"
"47170","IN","Scottsburg","Scott","18","143","38.68","-85.81","A","GD"
"47172","IN","Sellersburg","Clark","18","19","38.39","-85.76","A","GD"
"47174","IN","Sulphur","Crawford","18","25","38.22","-86.49","A","GD"
"47175","IN","Taswell","Crawford","18","25","38.36","-86.56","A","GD"
"47177","IN","Underwood","Scott","18","143","38.6","-85.77","A","GD"
"47190","IN","Jeffersonville","Clark","18","19","38.29","-85.73","A","GD"
"47199","IN","Jeffersonville","Clark","18","19","38.29","-85.73","A","PVT"
"47201","IN","Columbus","Bartholomew","18","5","39.2","-85.93","A","GD"
"47202","IN","Columbus","Bartholomew","18","5","39.21","-85.92","A","POB"
"47203","IN","Columbus","Bartholomew","18","5","39.23","-85.87","A","GD"
"47220","IN","Brownstown","Jackson","18","71","38.88","-86.05","A","GD"
"47223","IN","Butlerville","Jennings","18","79","39.05","-85.5","A","GD"
"47224","IN","Canaan","Jefferson","18","77","38.89","-85.23","A","GD"
"47225","IN","Clarksburg","Decatur","18","31","39.43","-85.36","A","POB"
"47226","IN","Clifford","Bartholomew","18","5","39.28","-85.87","A","POB"
"47227","IN","Commiskey","Jennings","18","79","38.87","-85.64","A","GD"
"47228","IN","Cortland","Jackson","18","71","38.99","-86","A","POB"
"47229","IN","Crothersville","Jackson","18","71","38.81","-85.85","A","GD"
"47230","IN","Deputy","Jefferson","18","77","38.79","-85.63","A","GD"
"47231","IN","Dupont","Jefferson","18","77","38.89","-85.49","A","GD"
"47232","IN","Elizabethtown","Bartholomew","18","5","39.12","-85.79","A","GD"
"47234","IN","Flat Rock","Shelby","18","145","39.38","-85.78","A","GD"
"47235","IN","Freetown","Jackson","18","71","38.97","-86.13","A","GD"
"47236","IN","Grammer","Bartholomew","18","5","39.16","-85.71","A","GD"
"47240","IN","Greensburg","Decatur","18","31","39.33","-85.47","A","GD"
"47243","IN","Hanover","Jefferson","18","77","38.7","-85.47","A","GD"
"47244","IN","Hartsville","Bartholomew","18","5","39.25","-85.7","A","GD"
"47245","IN","Hayden","Jennings","18","79","38.98","-85.74","A","POB"
"47246","IN","Hope","Bartholomew","18","5","39.3","-85.77","A","GD"
"47247","IN","Jonesville","Bartholomew","18","5","39.06","-85.89","A","GD"
"47249","IN","Kurtz","Jackson","18","71","38.96","-86.2","A","POB"
"47250","IN","Madison","Jefferson","18","77","38.79","-85.38","A","GD"
"47260","IN","Medora","Jackson","18","71","38.83","-86.18","A","GD"
"47261","IN","Millhousen","Decatur","18","31","39.32","-85.48","A","POB"
"47263","IN","New Point","Decatur","18","31","39.31","-85.33","A","POB"
"47264","IN","Norman","Jackson","18","71","38.95","-86.27","A","GD"
"47265","IN","North Vernon","Jennings","18","79","39.01","-85.63","A","GD"
"47270","IN","Paris Crossing","Jennings","18","79","38.84","-85.71","A","GD"
"47272","IN","Saint Paul","Decatur","18","31","39.42","-85.62","A","GD"
"47273","IN","Scipio","Jennings","18","79","39.08","-85.73","A","GD"
"47274","IN","Seymour","Jackson","18","71","38.96","-85.9","A","GD"
"47280","IN","Taylorsville","Bartholomew","18","5","39.3","-85.95","A","POB"
"47281","IN","Vallonia","Jackson","18","71","38.8","-86.1","A","GD"
"47282","IN","Vernon","Jennings","18","79","38.98","-85.61","A","POB"
"47283","IN","Westport","Decatur","18","31","39.17","-85.57","A","GD"
"47302","IN","Muncie","Delaware","18","35","40.17","-85.38","A","GD"
"47303","IN","Muncie","Delaware","18","35","40.23","-85.38","A","GD"
"47304","IN","Muncie","Delaware","18","35","40.22","-85.44","A","GD"
"47305","IN","Muncie","Delaware","18","35","40.19","-85.39","A","GD"
"47306","IN","Muncie","Delaware","18","35","40.21","-85.41","A","PVT"
"47307","IN","Muncie","Delaware","18","35","40.18","-85.39","A","POB"
"47308","IN","Muncie","Delaware","18","35","40.13","-85.38","A","POB"
"47320","IN","Albany","Delaware","18","35","40.29","-85.25","A","GD"
"47322","IN","Bentonville","Fayette","18","41","39.75","-85.24","A","POB"
"47324","IN","Boston","Wayne","18","177","39.74","-84.85","A","POB"
"47325","IN","Brownsville","Union","18","161","39.67","-85.01","A","GD"
"47326","IN","Bryant","Jay","18","75","40.55","-84.97","A","GD"
"47327","IN","Cambridge City","Wayne","18","177","39.82","-85.17","A","GD"
"47330","IN","Centerville","Wayne","18","177","39.81","-85.01","A","GD"
"47331","IN","Connersville","Fayette","18","41","39.64","-85.15","A","GD"
"47334","IN","Daleville","Delaware","18","35","40.11","-85.54","A","GD"
"47335","IN","Dublin","Wayne","18","177","39.81","-85.21","A","POB"
"47336","IN","Dunkirk","Jay","18","75","40.39","-85.21","A","GD"
"47337","IN","Dunreith","Henry","18","65","39.8","-85.44","A","POB"
"47338","IN","Eaton","Delaware","18","35","40.34","-85.35","A","GD"
"47339","IN","Economy","Wayne","18","177","39.98","-85.1","A","GD"
"47340","IN","Farmland","Randolph","18","135","40.18","-85.13","A","GD"
"47341","IN","Fountain City","Wayne","18","177","39.96","-84.9","A","GD"
"47342","IN","Gaston","Delaware","18","35","40.32","-85.51","A","GD"
"47344","IN","Greensboro","Henry","18","65","39.88","-85.47","A","POB"
"47345","IN","Greens Fork","Wayne","18","177","39.89","-85.05","A","GD"
"47346","IN","Hagerstown","Wayne","18","177","39.92","-85.16","A","GD"
"47348","IN","Hartford City","Blackford","18","9","40.45","-85.36","A","GD"
"47351","IN","Kennard","Henry","18","65","39.9","-85.52","A","POB"
"47352","IN","Lewisville","Henry","18","65","39.8","-85.36","A","GD"
"47353","IN","Liberty","Union","18","161","39.61","-84.93","A","GD"
"47354","IN","Losantville","Randolph","18","135","40.04","-85.2","A","GD"
"47355","IN","Lynn","Randolph","18","135","40.04","-84.94","A","GD"
"47356","IN","Middletown","Henry","18","65","40.05","-85.53","A","GD"
"47357","IN","Milton","Wayne","18","177","39.76","-85.15","A","GD"
"47358","IN","Modoc","Randolph","18","135","40.05","-85.11","A","GD"
"47359","IN","Montpelier","Blackford","18","9","40.55","-85.28","A","GD"
"47360","IN","Mooreland","Henry","18","65","40.01","-85.26","A","GD"
"47361","IN","Mount Summit","Henry","18","65","40","-85.39","A","POB"
"47362","IN","New Castle","Henry","18","65","39.93","-85.37","A","GD"
"47366","IN","New Lisbon","Henry","18","65","39.86","-85.26","A","POB"
"47367","IN","Oakville","Delaware","18","35","40.08","-85.39","A","POB"
"47368","IN","Parker City","Randolph","18","135","40.18","-85.2","A","GD"
"47369","IN","Pennville","Jay","18","75","40.49","-85.14","A","GD"
"47370","IN","Pershing","Wayne","18","177","39.81","-85.14","A","POB"
"47371","IN","Portland","Jay","18","75","40.42","-84.97","A","GD"
"47373","IN","Redkey","Jay","18","75","40.34","-85.16","A","GD"
"47374","IN","Richmond","Wayne","18","177","39.83","-84.89","A","GD"
"47375","IN","Richmond","Wayne","18","177","39.83","-84.89","A","POB"
"47380","IN","Ridgeville","Randolph","18","135","40.29","-85.02","A","GD"
"47381","IN","Salamonia","Jay","18","75","40.38","-84.87","A","GD"
"47382","IN","Saratoga","Randolph","18","135","40.24","-84.92","A","POB"
"47383","IN","Selma","Delaware","18","35","40.16","-85.26","A","GD"
"47384","IN","Shirley","Henry","18","65","39.9","-85.57","A","GD"
"47385","IN","Spiceland","Henry","18","65","39.83","-85.44","A","GD"
"47386","IN","Springport","Henry","18","65","40.06","-85.39","A","GD"
"47387","IN","Straughn","Henry","18","65","39.84","-85.28","A","GD"
"47388","IN","Sulphur Springs","Henry","18","65","40.01","-85.44","A","POB"
"47390","IN","Union City","Randolph","18","135","40.2","-84.83","A","GD"
"47392","IN","Webster","Wayne","18","177","39.91","-84.93","A","GD"
"47393","IN","Williamsburg","Wayne","18","177","39.95","-85","A","GD"
"47394","IN","Winchester","Randolph","18","135","40.17","-84.98","A","GD"
"47396","IN","Yorktown","Delaware","18","35","40.19","-85.5","A","GD"
"47401","IN","Bloomington","Monroe","18","105","39.13","-86.5","A","GD"
"47402","IN","Bloomington","Monroe","18","105","39.1","-86.47","A","POB"
"47403","IN","Bloomington","Monroe","18","105","39.12","-86.57","A","GD"
"47404","IN","Bloomington","Monroe","18","105","39.19","-86.57","A","GD"
"47405","IN","Bloomington","Monroe","18","105","39.17","-86.52","A","GD"
"47406","IN","Bloomington","Monroe","18","105","39.18","-86.52","A","GD"
"47407","IN","Bloomington","Monroe","18","105","39.17","-86.49","A","POB"
"47408","IN","Bloomington","Monroe","18","105","39.19","-86.49","A","GD"
"47420","IN","Avoca","Lawrence","18","93","38.91","-86.55","A","POB"
"47421","IN","Bedford","Lawrence","18","93","38.86","-86.48","A","GD"
"47424","IN","Bloomfield","Greene","18","55","39.02","-86.89","A","GD"
"47426","IN","Clear Creek","Monroe","18","105","39.09","-86.47","A","POB"
"47427","IN","Coal City","Owen","18","119","39.24","-87.02","A","GD"
"47429","IN","Ellettsville","Monroe","18","105","39.24","-86.62","A","GD"
"47431","IN","Freedom","Owen","18","119","39.23","-86.89","A","GD"
"47432","IN","French Lick","Orange","18","117","38.51","-86.63","A","GD"
"47433","IN","Gosport","Owen","18","119","39.36","-86.66","A","GD"
"47434","IN","Harrodsburg","Monroe","18","105","39.01","-86.55","A","POB"
"47435","IN","Helmsburg","Brown","18","13","39.31","-86.31","A","POB"
"47436","IN","Heltonville","Lawrence","18","93","38.96","-86.41","A","GD"
"47437","IN","Huron","Lawrence","18","93","38.72","-86.67","A","POB"
"47438","IN","Jasonville","Greene","18","55","39.17","-87.21","A","GD"
"47439","IN","Koleen","Greene","18","55","39.03","-86.85","A","POB"
"47441","IN","Linton","Greene","18","55","39.04","-87.17","A","GD"
"47443","IN","Lyons","Greene","18","55","38.97","-87.1","A","GD"
"47445","IN","Midland","Greene","18","55","39.06","-87.19","A","POB"
"47446","IN","Mitchell","Lawrence","18","93","38.74","-86.48","A","GD"
"47448","IN","Nashville","Brown","18","13","39.2","-86.24","A","GD"
"47449","IN","Newberry","Greene","18","55","38.92","-87","A","GD"
"47451","IN","Oolitic","Lawrence","18","93","38.9","-86.52","A","GD"
"47452","IN","Orleans","Orange","18","117","38.65","-86.43","A","GD"
"47453","IN","Owensburg","Greene","18","55","38.92","-86.76","A","GD"
"47454","IN","Paoli","Orange","18","117","38.53","-86.48","A","GD"
"47455","IN","Patricksburg","Owen","18","119","39.31","-86.95","A","POB"
"47456","IN","Quincy","Owen","18","119","39.46","-86.71","A","GD"
"47457","IN","Scotland","Greene","18","55","38.91","-86.9","A","GD"
"47458","IN","Smithville","Monroe","18","105","39.07","-86.51","A","POB"
"47459","IN","Solsberry","Greene","18","55","39.11","-86.75","A","GD"
"47460","IN","Spencer","Owen","18","119","39.29","-86.78","A","GD"
"47462","IN","Springville","Lawrence","18","93","38.96","-86.63","A","GD"
"47463","IN","Stanford","Monroe","18","105","39.09","-86.66","A","POB"
"47464","IN","Stinesville","Monroe","18","105","39.3","-86.65","A","POB"
"47465","IN","Switz City","Greene","18","55","39.05","-87.05","A","GD"
"47467","IN","Tunnelton","Lawrence","18","93","38.77","-86.34","A","POB"
"47468","IN","Unionville","Monroe","18","105","39.25","-86.39","A","GD"
"47469","IN","West Baden Springs","Orange","18","117","38.59","-86.61","A","GD"
"47470","IN","Williams","Lawrence","18","93","38.81","-86.66","A","GD"
"47471","IN","Worthington","Greene","18","55","39.13","-86.99","A","GD"
"47501","IN","Washington","Daviess","18","27","38.66","-87.18","A","GD"
"47512","IN","Bicknell","Knox","18","83","38.77","-87.31","A","GD"
"47513","IN","Birdseye","Dubois","18","37","38.32","-86.69","A","GD"
"47514","IN","Branchville","Perry","18","123","38.15","-86.59","A","GD"
"47515","IN","Bristow","Perry","18","123","38.18","-86.7","A","GD"
"47516","IN","Bruceville","Knox","18","83","38.76","-87.42","A","GD"
"47519","IN","Cannelburg","Daviess","18","27","38.64","-86.99","A","GD"
"47520","IN","Cannelton","Perry","18","123","37.94","-86.67","A","GD"
"47521","IN","Celestine","Dubois","18","37","38.4","-86.72","A","GD"
"47522","IN","Crane","Martin","18","101","38.89","-86.85","A","GD"
"47523","IN","Dale","Spencer","18","147","38.17","-87","A","GD"
"47524","IN","Decker","Knox","18","83","38.5","-87.57","A","GD"
"47525","IN","Derby","Perry","18","123","38.03","-86.56","A","GD"
"47527","IN","Dubois","Dubois","18","37","38.46","-86.78","A","GD"
"47528","IN","Edwardsport","Knox","18","83","38.82","-87.25","A","GD"
"47529","IN","Elnora","Daviess","18","27","38.87","-87.08","A","GD"
"47531","IN","Evanston","Spencer","18","147","38.03","-86.86","A","GD"
"47532","IN","Ferdinand","Dubois","18","37","38.22","-86.87","A","GD"
"47535","IN","Freelandville","Knox","18","83","38.87","-87.3","A","POB"
"47536","IN","Fulda","Spencer","18","147","38.11","-86.84","A","POB"
"47537","IN","Gentryville","Spencer","18","147","38.09","-87.05","A","GD"
"47541","IN","Holland","Dubois","18","37","38.24","-87.04","A","GD"
"47542","IN","Huntingburg","Dubois","18","37","38.3","-86.97","A","GD"
"47545","IN","Ireland","Dubois","18","37","38.29","-86.96","A","POB"
"47546","IN","Jasper","Dubois","18","37","38.41","-86.93","A","GD"
"47547","IN","Jasper","Dubois","18","37","38.42","-86.97","A","POB"
"47549","IN","Jasper","Dubois","18","37","38.39","-86.96","A","PVT"
"47550","IN","Lamar","Spencer","18","147","38.07","-86.92","A","GD"
"47551","IN","Leopold","Perry","18","123","38.11","-86.57","A","GD"
"47552","IN","Lincoln City","Spencer","18","147","38.11","-87","A","GD"
"47553","IN","Loogootee","Martin","18","101","38.68","-86.92","A","GD"
"47556","IN","Mariah Hill","Spencer","18","147","38.14","-86.85","A","POB"
"47557","IN","Monroe City","Knox","18","83","38.58","-87.34","A","GD"
"47558","IN","Montgomery","Daviess","18","27","38.66","-87.04","A","GD"
"47561","IN","Oaktown","Knox","18","83","38.86","-87.43","A","GD"
"47562","IN","Odon","Daviess","18","27","38.83","-86.98","A","GD"
"47564","IN","Otwell","Pike","18","125","38.47","-87.1","A","GD"
"47567","IN","Petersburg","Pike","18","125","38.47","-87.29","A","GD"
"47568","IN","Plainville","Daviess","18","27","38.8","-87.15","A","GD"
"47573","IN","Ragsdale","Knox","18","83","38.77","-87.33","A","GD"
"47574","IN","Rome","Perry","18","123","37.94","-86.54","A","GD"
"47575","IN","Saint Anthony","Dubois","18","37","38.32","-86.82","A","GD"
"47576","IN","Saint Croix","Perry","18","123","38.19","-86.6","A","GD"
"47577","IN","Saint Meinrad","Spencer","18","147","38.16","-86.81","A","GD"
"47578","IN","Sandborn","Knox","18","83","38.9","-87.19","A","GD"
"47579","IN","Santa Claus","Spencer","18","147","38.11","-86.92","A","GD"
"47580","IN","Schnellville","Dubois","18","37","38.36","-86.77","A","GD"
"47581","IN","Shoals","Martin","18","101","38.68","-86.77","A","GD"
"47584","IN","Spurgeon","Pike","18","125","38.25","-87.26","A","POB"
"47585","IN","Stendal","Pike","18","125","38.27","-87.16","A","GD"
"47586","IN","Tell City","Perry","18","123","37.98","-86.74","A","GD"
"47588","IN","Troy","Spencer","18","147","38.04","-86.79","A","GD"
"47590","IN","Velpen","Pike","18","125","38.35","-87.09","A","GD"
"47591","IN","Vincennes","Knox","18","83","38.66","-87.51","A","GD"
"47596","IN","Westphalia","Knox","18","83","38.86","-87.23","A","POB"
"47597","IN","Wheatland","Knox","18","83","38.65","-87.3","A","GD"
"47598","IN","Winslow","Pike","18","125","38.38","-87.21","A","GD"
"47601","IN","Boonville","Warrick","18","173","38.05","-87.26","A","GD"
"47610","IN","Chandler","Warrick","18","173","38.04","-87.39","A","GD"
"47611","IN","Chrisney","Spencer","18","147","38.02","-87.04","A","GD"
"47612","IN","Cynthiana","Posey","18","129","38.19","-87.7","A","GD"
"47613","IN","Elberfeld","Warrick","18","173","38.17","-87.43","A","GD"
"47615","IN","Grandview","Spencer","18","147","37.96","-86.97","A","GD"
"47616","IN","Griffin","Posey","18","129","38.24","-87.9","A","GD"
"47617","IN","Hatfield","Spencer","18","147","37.91","-87.2","A","POB"
"47618","IN","Inglefield","Vanderburgh","18","163","38.11","-87.56","A","POB"
"47619","IN","Lynnville","Warrick","18","173","38.2","-87.31","A","GD"
"47620","IN","Mount Vernon","Posey","18","129","37.94","-87.89","A","GD"
"47629","IN","Newburgh","Warrick","18","173","37.96","-87.4","A","POB"
"47630","IN","Newburgh","Warrick","18","173","37.96","-87.38","A","GD"
"47631","IN","New Harmony","Posey","18","129","38.11","-87.92","A","GD"
"47633","IN","Poseyville","Posey","18","129","38.17","-87.78","A","GD"
"47634","IN","Richland","Spencer","18","147","37.93","-87.2","A","GD"
"47635","IN","Rockport","Spencer","18","147","37.9","-87.08","A","GD"
"47637","IN","Tennyson","Warrick","18","173","38.12","-87.13","A","GD"
"47638","IN","Wadesville","Posey","18","129","38.08","-87.77","A","GD"
"47639","IN","Haubstadt","Gibson","18","51","38.19","-87.57","A","GD"
"47640","IN","Hazleton","Gibson","18","51","38.48","-87.52","A","GD"
"47647","IN","Buckskin","Gibson","18","51","38.23","-87.45","A","GD"
"47648","IN","Fort Branch","Gibson","18","51","38.25","-87.57","A","GD"
"47649","IN","Francisco","Gibson","18","51","38.34","-87.44","A","GD"
"47654","IN","Mackey","Gibson","18","51","38.25","-87.39","A","POB"
"47660","IN","Oakland City","Gibson","18","51","38.32","-87.34","A","GD"
"47665","IN","Owensville","Gibson","18","51","38.28","-87.71","A","GD"
"47666","IN","Patoka","Gibson","18","51","38.41","-87.59","A","GD"
"47670","IN","Princeton","Gibson","18","51","38.35","-87.57","A","GD"
"47683","IN","Somerville","Gibson","18","51","38.28","-87.38","A","POB"
"47701","IN","Evansville","Vanderburgh","18","163","37.97","-87.57","A","POB"
"47702","IN","Evansville","Vanderburgh","18","163","37.95","-87.56","A","POB"
"47703","IN","Evansville","Vanderburgh","18","163","37.95","-87.56","A","POB"
"47704","IN","Evansville","Vanderburgh","18","163","37.95","-87.56","A","POB"
"47705","IN","Evansville","Vanderburgh","18","163","37.95","-87.56","A","POB"
"47706","IN","Evansville","Vanderburgh","18","163","37.95","-87.56","A","POB"
"47708","IN","Evansville","Vanderburgh","18","163","37.97","-87.57","A","GD"
"47710","IN","Evansville","Vanderburgh","18","163","38","-87.58","A","GD"
"47711","IN","Evansville","Vanderburgh","18","163","38","-87.54","A","GD"
"47712","IN","Evansville","Vanderburgh","18","163","37.96","-87.64","A","GD"
"47713","IN","Evansville","Vanderburgh","18","163","37.96","-87.56","A","GD"
"47714","IN","Evansville","Vanderburgh","18","163","37.96","-87.52","A","GD"
"47715","IN","Evansville","Vanderburgh","18","163","37.98","-87.48","A","GD"
"47716","IN","Evansville","Vanderburgh","18","163","37.96","-87.49","A","POB"
"47719","IN","Evansville","Vanderburgh","18","163","37.99","-87.59","A","POB"
"47720","IN","Evansville","Vanderburgh","18","163","38.04","-87.64","A","GD"
"47721","IN","Evansville","Vanderburgh","18","163","37.91","-87.65","A","PVT"
"47722","IN","Evansville","Vanderburgh","18","163","37.98","-87.53","A","PVT"
"47724","IN","Evansville","Vanderburgh","18","163","38","-87.57","A","POB"
"47725","IN","Evansville","Vanderburgh","18","163","38.09","-87.52","A","GD"
"47728","IN","Evansville","Vanderburgh","18","163","37.95","-87.53","A","POB"
"47730","IN","Evansville","Vanderburgh","18","163","37.97","-87.57","A","POB"
"47731","IN","Evansville","Vanderburgh","18","163","37.97","-87.57","A","POB"
"47732","IN","Evansville","Vanderburgh","18","163","37.97","-87.57","A","POB"
"47733","IN","Evansville","Vanderburgh","18","163","37.97","-87.57","A","POB"
"47734","IN","Evansville","Vanderburgh","18","163","37.97","-87.57","A","POB"
"47735","IN","Evansville","Vanderburgh","18","163","37.97","-87.57","A","POB"
"47736","IN","Evansville","Vanderburgh","18","163","37.95","-87.56","A","POB"
"47737","IN","Evansville","Vanderburgh","18","163","37.97","-87.57","A","POB"
"47740","IN","Evansville","Vanderburgh","18","163","37.98","-87.59","A","PVT"
"47747","IN","Evansville","Vanderburgh","18","163","37.98","-87.57","A","PVT"
"47750","IN","Evansville","Vanderburgh","18","163","37.96","-87.51","A","PVT"
"47801","IN","Terre Haute","Vigo","18","167","39.47","-87.41","A","POB"
"47802","IN","Terre Haute","Vigo","18","167","39.4","-87.4","A","GD"
"47803","IN","Terre Haute","Vigo","18","167","39.47","-87.35","A","GD"
"47804","IN","Terre Haute","Vigo","18","167","39.49","-87.39","A","GD"
"47805","IN","Terre Haute","Vigo","18","167","39.54","-87.35","A","GD"
"47807","IN","Terre Haute","Vigo","18","167","39.47","-87.4","A","GD"
"47808","IN","Terre Haute","Vigo","18","167","39.51","-87.35","A","POB"
"47809","IN","Terre Haute","Vigo","18","167","39.47","-87.41","A","PVT"
"47830","IN","Bellmore","Parke","18","121","39.77","-87.17","A","POB"
"47831","IN","Blanford","Vermillion","18","165","39.65","-87.46","A","POB"
"47832","IN","Bloomingdale","Parke","18","121","39.86","-87.26","A","GD"
"47833","IN","Bowling Green","Clay","18","21","39.37","-86.97","A","GD"
"47834","IN","Brazil","Clay","18","21","39.52","-87.13","A","GD"
"47836","IN","Bridgeton","Parke","18","121","39.65","-87.18","A","POB"
"47837","IN","Carbon","Clay","18","21","39.63","-87.11","A","GD"
"47838","IN","Carlisle","Sullivan","18","153","38.96","-87.38","A","GD"
"47840","IN","Centerpoint","Clay","18","21","39.41","-87.07","A","GD"
"47841","IN","Clay City","Clay","18","21","39.28","-87.11","A","GD"
"47842","IN","Clinton","Vermillion","18","165","39.67","-87.44","A","GD"
"47845","IN","Coalmont","Clay","18","21","39.2","-87.19","A","POB"
"47846","IN","Cory","Clay","18","21","39.38","-87.2","A","GD"
"47847","IN","Dana","Vermillion","18","165","39.82","-87.49","A","GD"
"47848","IN","Dugger","Sullivan","18","153","39.07","-87.26","A","GD"
"47849","IN","Fairbanks","Sullivan","18","153","39.2","-87.56","A","GD"
"47850","IN","Farmersburg","Sullivan","18","153","39.25","-87.41","A","GD"
"47851","IN","Fontanet","Vigo","18","167","39.54","-87.32","A","POB"
"47852","IN","Graysville","Sullivan","18","153","39.1","-87.43","A","POB"
"47853","IN","Harmony","Clay","18","21","39.54","-87.07","A","POB"
"47854","IN","Hillsdale","Vermillion","18","165","39.8","-87.4","A","GD"
"47855","IN","Hymera","Sullivan","18","153","39.19","-87.3","A","POB"
"47857","IN","Knightsville","Clay","18","21","39.53","-87.09","A","POB"
"47858","IN","Lewis","Vigo","18","167","39.26","-87.24","A","GD"
"47859","IN","Marshall","Parke","18","121","39.87","-87.18","A","GD"
"47860","IN","Mecca","Parke","18","121","39.73","-87.33","A","POB"
"47861","IN","Merom","Sullivan","18","153","39.06","-87.57","A","GD"
"47862","IN","Montezuma","Parke","18","121","39.79","-87.36","A","GD"
"47863","IN","New Goshen","Vigo","18","167","39.58","-87.46","A","POB"
"47865","IN","Paxton","Sullivan","18","153","39.02","-87.39","A","POB"
"47866","IN","Pimento","Vigo","18","167","39.29","-87.33","A","GD"
"47868","IN","Poland","Owen","18","119","39.41","-86.9","A","GD"
"47869","IN","Prairie Creek","Vigo","18","167","39.27","-87.5","A","POB"
"47870","IN","Prairieton","Vigo","18","167","39.36","-87.41","A","POB"
"47871","IN","Riley","Vigo","18","167","39.39","-87.3","A","POB"
"47872","IN","Rockville","Parke","18","121","39.75","-87.18","A","GD"
"47874","IN","Rosedale","Parke","18","121","39.63","-87.26","A","GD"
"47875","IN","Saint Bernice","Vermillion","18","165","39.76","-87.49","A","POB"
"47876","IN","Saint Mary Of The Woods","Vigo","18","167","39.51","-87.46","A","POB"
"47878","IN","Seelyville","Vigo","18","167","39.49","-87.27","A","POB"
"47879","IN","Shelburn","Sullivan","18","153","39.18","-87.39","A","GD"
"47880","IN","Shepardsville","Vigo","18","167","39.6","-87.42","A","POB"
"47881","IN","Staunton","Clay","18","21","39.49","-87.19","A","POB"
"47882","IN","Sullivan","Sullivan","18","153","39.09","-87.4","A","GD"
"47884","IN","Universal","Vermillion","18","165","39.62","-87.45","A","POB"
"47885","IN","West Terre Haute","Vigo","18","167","39.5","-87.46","A","GD"
"47901","IN","Lafayette","Tippecanoe","18","157","40.42","-86.89","A","GD"
"47902","IN","Lafayette","Tippecanoe","18","157","40.41","-86.85","A","POB"
"47903","IN","Lafayette","Tippecanoe","18","157","40.42","-86.85","A","POB"
"47904","IN","Lafayette","Tippecanoe","18","157","40.43","-86.88","A","GD"
"47905","IN","Lafayette","Tippecanoe","18","157","40.42","-86.82","A","GD"
"47906","IN","West Lafayette","Tippecanoe","18","157","40.46","-86.93","A","GD"
"47907","IN","West Lafayette","Tippecanoe","18","157","40.42","-86.92","A","GD"
"47909","IN","Lafayette","Tippecanoe","18","157","40.36","-86.89","A","GD"
"47916","IN","Alamo","Montgomery","18","107","39.98","-87.06","A","POB"
"47917","IN","Ambia","Benton","18","7","40.47","-87.48","A","GD"
"47918","IN","Attica","Fountain","18","45","40.31","-87.23","A","GD"
"47920","IN","Battle Ground","Tippecanoe","18","157","40.54","-86.82","A","GD"
"47921","IN","Boswell","Benton","18","7","40.5","-87.38","A","GD"
"47922","IN","Brook","Newton","18","111","40.87","-87.36","A","GD"
"47923","IN","Brookston","White","18","181","40.6","-86.89","A","GD"
"47924","IN","Buck Creek","Tippecanoe","18","157","40.49","-86.76","A","POB"
"47925","IN","Buffalo","White","18","181","40.88","-86.74","A","POB"
"47926","IN","Burnettsville","White","18","181","40.77","-86.59","A","GD"
"47928","IN","Cayuga","Vermillion","18","165","39.94","-87.46","A","GD"
"47929","IN","Chalmers","White","18","181","40.67","-86.89","A","GD"
"47930","IN","Clarks Hill","Tippecanoe","18","157","40.25","-86.73","A","GD"
"47932","IN","Covington","Fountain","18","45","40.13","-87.42","A","GD"
"47933","IN","Crawfordsville","Montgomery","18","107","40.04","-86.89","A","GD"
"47940","IN","Darlington","Montgomery","18","107","40.12","-86.75","A","GD"
"47941","IN","Dayton","Tippecanoe","18","157","40.38","-86.77","A","POB"
"47942","IN","Earl Park","Benton","18","7","40.69","-87.43","A","GD"
"47943","IN","Fair Oaks","Jasper","18","73","41.07","-87.26","A","GD"
"47944","IN","Fowler","Benton","18","7","40.62","-87.33","A","GD"
"47946","IN","Francesville","Pulaski","18","131","40.98","-86.88","A","GD"
"47948","IN","Goodland","Newton","18","111","40.78","-87.29","A","GD"
"47949","IN","Hillsboro","Fountain","18","45","40.07","-87.14","A","GD"
"47950","IN","Idaville","White","18","181","40.8","-86.65","A","GD"
"47951","IN","Kentland","Newton","18","111","40.78","-87.44","A","GD"
"47952","IN","Kingman","Fountain","18","45","39.96","-87.3","A","GD"
"47954","IN","Ladoga","Montgomery","18","107","39.9","-86.8","A","GD"
"47955","IN","Linden","Montgomery","18","107","40.19","-86.89","A","GD"
"47957","IN","Medaryville","Pulaski","18","131","41.08","-86.88","A","GD"
"47958","IN","Mellott","Fountain","18","45","40.16","-87.15","A","POB"
"47959","IN","Monon","White","18","181","40.86","-86.88","A","GD"
"47960","IN","Monticello","White","18","181","40.78","-86.76","A","GD"
"47962","IN","Montmorenci","Tippecanoe","18","157","40.47","-87.03","A","POB"
"47963","IN","Morocco","Newton","18","111","40.96","-87.45","A","GD"
"47964","IN","Mount Ayr","Newton","18","111","40.95","-87.3","A","POB"
"47965","IN","New Market","Montgomery","18","107","39.95","-86.92","A","POB"
"47966","IN","Newport","Vermillion","18","165","39.89","-87.41","A","POB"
"47967","IN","New Richmond","Montgomery","18","107","40.18","-86.99","A","GD"
"47968","IN","New Ross","Montgomery","18","107","39.96","-86.74","A","GD"
"47969","IN","Newtown","Fountain","18","45","40.21","-87.15","A","POB"
"47970","IN","Otterbein","Benton","18","7","40.47","-87.12","A","GD"
"47971","IN","Oxford","Benton","18","7","40.53","-87.24","A","GD"
"47974","IN","Perrysville","Vermillion","18","165","40.04","-87.46","A","GD"
"47975","IN","Pine Village","Warren","18","171","40.45","-87.25","A","GD"
"47977","IN","Remington","Jasper","18","73","40.76","-87.15","A","GD"
"47978","IN","Rensselaer","Jasper","18","73","40.96","-87.14","A","GD"
"47980","IN","Reynolds","White","18","181","40.75","-86.89","A","GD"
"47981","IN","Romney","Tippecanoe","18","157","40.25","-86.92","A","GD"
"47982","IN","State Line","Warren","18","171","40.2","-87.53","A","POB"
"47983","IN","Stockwell","Tippecanoe","18","157","40.28","-86.77","A","POB"
"47984","IN","Talbot","Benton","18","7","40.51","-87.45","A","POB"
"47986","IN","Templeton","Benton","18","7","40.51","-87.21","A","POB"
"47987","IN","Veedersburg","Fountain","18","45","40.12","-87.24","A","GD"
"47988","IN","Wallace","Fountain","18","45","39.99","-87.15","A","POB"
"47989","IN","Waveland","Montgomery","18","107","39.89","-87.06","A","GD"
"47990","IN","Waynetown","Montgomery","18","107","40.08","-87.06","A","GD"
"47991","IN","West Lebanon","Warren","18","171","40.28","-87.41","A","GD"
"47992","IN","Westpoint","Tippecanoe","18","157","40.33","-87.05","A","GD"
"47993","IN","Williamsport","Warren","18","171","40.3","-87.39","A","GD"
"47994","IN","Wingate","Montgomery","18","107","40.17","-87.07","A","GD"
"47995","IN","Wolcott","White","18","181","40.75","-87.04","A","GD"
"47996","IN","West Lafayette","Tippecanoe","18","157","40.44","-86.91","A","POB"
"47997","IN","Yeoman","Carroll","18","15","40.67","-86.72","A","GD"
