"ZIPCode","State","City","County","StateFIPS","CountyFIPS","Latitude","Longitude","Preference","Type"
"15001","PA","Aliquippa","Beaver","42","7","40.6","-80.29","A","GD"
"15003","PA","Ambridge","Beaver","42","7","40.6","-80.22","A","GD"
"15004","PA","Atlasburg","Washington","42","125","40.34","-80.38","A","POB"
"15005","PA","Baden","Beaver","42","7","40.64","-80.21","A","GD"
"15006","PA","Bairdford","Allegheny","42","3","40.63","-79.88","A","POB"
"15007","PA","Bakerstown","Allegheny","42","3","40.65","-79.93","A","GD"
"15009","PA","Beaver","Beaver","42","7","40.7","-80.33","A","GD"
"15010","PA","Beaver Falls","Beaver","42","7","40.77","-80.34","A","GD"
"15012","PA","Belle Vernon","Fayette","42","51","40.14","-79.84","A","GD"
"15014","PA","Brackenridge","Allegheny","42","3","40.61","-79.74","A","GD"
"15015","PA","Bradfordwoods","Allegheny","42","3","40.64","-80.08","A","GD"
"15017","PA","Bridgeville","Allegheny","42","3","40.35","-80.12","A","GD"
"15018","PA","Buena Vista","Allegheny","42","3","40.27","-79.8","A","GD"
"15019","PA","Bulger","Washington","42","125","40.41","-80.33","A","GD"
"15020","PA","Bunola","Allegheny","42","3","40.24","-79.95","A","POB"
"15021","PA","Burgettstown","Washington","42","125","40.39","-80.42","A","GD"
"15022","PA","Charleroi","Washington","42","125","40.13","-79.91","A","GD"
"15024","PA","Cheswick","Allegheny","42","3","40.56","-79.83","A","GD"
"15025","PA","Clairton","Allegheny","42","3","40.3","-79.9","A","GD"
"15026","PA","Clinton","Beaver","42","7","40.51","-80.35","A","GD"
"15027","PA","Conway","Beaver","42","7","40.66","-80.24","A","GD"
"15028","PA","Coulters","Allegheny","42","3","40.3","-79.8","A","POB"
"15030","PA","Creighton","Allegheny","42","3","40.58","-79.78","A","GD"
"15031","PA","Cuddy","Allegheny","42","3","40.35","-80.16","A","GD"
"15032","PA","Curtisville","Allegheny","42","3","40.64","-79.84","A","POB"
"15033","PA","Donora","Washington","42","125","40.18","-79.86","A","GD"
"15034","PA","Dravosburg","Allegheny","42","3","40.35","-79.89","A","GD"
"15035","PA","East Mc Keesport","Allegheny","42","3","40.38","-79.81","A","GD"
"15037","PA","Elizabeth","Allegheny","42","3","40.27","-79.87","A","GD"
"15038","PA","Elrama","Washington","42","125","40.25","-79.92","A","POB"
"15042","PA","Freedom","Beaver","42","7","40.68","-80.23","A","GD"
"15043","PA","Georgetown","Beaver","42","7","40.57","-80.49","A","GD"
"15044","PA","Gibsonia","Allegheny","42","3","40.63","-79.96","A","GD"
"15045","PA","Glassport","Allegheny","42","3","40.33","-79.89","A","GD"
"15046","PA","Crescent","Allegheny","42","3","40.56","-80.23","A","GD"
"15047","PA","Greenock","Allegheny","42","3","40.32","-79.8","A","POB"
"15049","PA","Harwick","Allegheny","42","3","40.56","-79.81","A","GD"
"15050","PA","Hookstown","Beaver","42","7","40.56","-80.44","A","GD"
"15051","PA","Indianola","Allegheny","42","3","40.56","-79.86","A","GD"
"15052","PA","Industry","Beaver","42","7","40.66","-80.43","A","GD"
"15053","PA","Joffre","Washington","42","125","40.38","-80.36","A","GD"
"15054","PA","Langeloth","Washington","42","125","40.36","-80.41","A","POB"
"15055","PA","Lawrence","Washington","42","125","40.31","-80.12","A","GD"
"15056","PA","Leetsdale","Allegheny","42","3","40.56","-80.21","A","GD"
"15057","PA","Mc Donald","Washington","42","125","40.36","-80.25","A","GD"
"15059","PA","Midland","Beaver","42","7","40.65","-80.47","A","GD"
"15060","PA","Midway","Washington","42","125","40.37","-80.29","A","POB"
"15061","PA","Monaca","Beaver","42","7","40.68","-80.29","A","GD"
"15062","PA","Monessen","Westmoreland","42","129","40.15","-79.88","A","GD"
"15063","PA","Monongahela","Washington","42","125","40.19","-79.93","A","GD"
"15064","PA","Morgan","Allegheny","42","3","40.35","-80.15","A","GD"
"15065","PA","Natrona Heights","Allegheny","42","3","40.63","-79.73","A","GD"
"15066","PA","New Brighton","Beaver","42","7","40.74","-80.29","A","GD"
"15067","PA","New Eagle","Washington","42","125","40.21","-79.95","A","GD"
"15068","PA","New Kensington","Westmoreland","42","129","40.57","-79.74","A","GD"
"15069","PA","New Kensington","Westmoreland","42","129","40.57","-79.75","A","PVT"
"15071","PA","Oakdale","Allegheny","42","3","40.42","-80.19","A","GD"
"15072","PA","Pricedale","Westmoreland","42","129","40.14","-79.86","A","POB"
"15074","PA","Rochester","Beaver","42","7","40.71","-80.27","A","GD"
"15075","PA","Rural Ridge","Allegheny","42","3","40.59","-79.83","A","POB"
"15076","PA","Russellton","Allegheny","42","3","40.61","-79.83","A","GD"
"15077","PA","Shippingport","Beaver","42","7","40.63","-80.42","A","POB"
"15078","PA","Slovan","Washington","42","125","40.36","-80.39","A","GD"
"15081","PA","South Heights","Beaver","42","7","40.58","-80.24","A","POB"
"15082","PA","Sturgeon","Allegheny","42","3","40.38","-80.21","A","POB"
"15083","PA","Sutersville","Westmoreland","42","129","40.24","-79.8","A","GD"
"15084","PA","Tarentum","Allegheny","42","3","40.62","-79.79","A","GD"
"15085","PA","Trafford","Westmoreland","42","129","40.39","-79.74","A","GD"
"15086","PA","Warrendale","Allegheny","42","3","40.66","-80.09","A","GD"
"15087","PA","Webster","Westmoreland","42","129","40.19","-79.85","A","POB"
"15088","PA","West Elizabeth","Allegheny","42","3","40.27","-79.9","A","POB"
"15089","PA","West Newton","Westmoreland","42","129","40.21","-79.76","A","GD"
"15090","PA","Wexford","Allegheny","42","3","40.62","-80.06","A","GD"
"15091","PA","Wildwood","Allegheny","42","3","40.59","-79.97","A","POB"
"15095","PA","Warrendale","Allegheny","42","3","40.64","-80.11","A","POB"
"15096","PA","Warrendale","Allegheny","42","3","40.65","-80.09","A","PVT"
"15101","PA","Allison Park","Allegheny","42","3","40.57","-79.97","A","GD"
"15102","PA","Bethel Park","Allegheny","42","3","40.32","-80.04","A","GD"
"15104","PA","Braddock","Allegheny","42","3","40.41","-79.86","A","GD"
"15106","PA","Carnegie","Allegheny","42","3","40.4","-80.09","A","GD"
"15108","PA","Coraopolis","Allegheny","42","3","40.5","-80.19","A","GD"
"15110","PA","Duquesne","Allegheny","42","3","40.37","-79.85","A","GD"
"15112","PA","East Pittsburgh","Allegheny","42","3","40.4","-79.84","A","GD"
"15116","PA","Glenshaw","Allegheny","42","3","40.54","-79.96","A","GD"
"15120","PA","Homestead","Allegheny","42","3","40.4","-79.91","A","GD"
"15122","PA","West Mifflin","Allegheny","42","3","40.37","-79.89","A","GD"
"15123","PA","West Mifflin","Allegheny","42","3","40.34","-79.95","A","GD"
"15126","PA","Imperial","Allegheny","42","3","40.46","-80.27","A","GD"
"15127","PA","Ingomar","Allegheny","42","3","40.58","-80.06","A","POB"
"15129","PA","South Park","Allegheny","42","3","40.3","-80","A","GD"
"15131","PA","Mckeesport","Allegheny","42","3","40.34","-79.81","A","GD"
"15132","PA","Mckeesport","Allegheny","42","3","40.34","-79.85","A","GD"
"15133","PA","Mckeesport","Allegheny","42","3","40.33","-79.86","A","GD"
"15134","PA","Mckeesport","Allegheny","42","3","40.34","-79.84","A","POB"
"15135","PA","Mckeesport","Allegheny","42","3","40.31","-79.82","A","GD"
"15136","PA","Mc Kees Rocks","Allegheny","42","3","40.47","-80.08","A","GD"
"15137","PA","North Versailles","Allegheny","42","3","40.38","-79.81","A","GD"
"15139","PA","Oakmont","Allegheny","42","3","40.52","-79.84","A","GD"
"15140","PA","Pitcairn","Allegheny","42","3","40.41","-79.78","A","GD"
"15142","PA","Presto","Allegheny","42","3","40.38","-80.13","A","GD"
"15143","PA","Sewickley","Allegheny","42","3","40.56","-80.16","A","GD"
"15144","PA","Springdale","Allegheny","42","3","40.54","-79.78","A","GD"
"15145","PA","Turtle Creek","Allegheny","42","3","40.41","-79.83","A","GD"
"15146","PA","Monroeville","Allegheny","42","3","40.43","-79.76","A","GD"
"15147","PA","Verona","Allegheny","42","3","40.5","-79.83","A","GD"
"15148","PA","Wilmerding","Allegheny","42","3","40.39","-79.8","A","GD"
"15201","PA","Pittsburgh","Allegheny","42","3","40.47","-79.95","A","GD"
"15202","PA","Pittsburgh","Allegheny","42","3","40.5","-80.07","A","GD"
"15203","PA","Pittsburgh","Allegheny","42","3","40.43","-79.98","A","GD"
"15204","PA","Pittsburgh","Allegheny","42","3","40.46","-80.06","A","GD"
"15205","PA","Pittsburgh","Allegheny","42","3","40.44","-80.08","A","GD"
"15206","PA","Pittsburgh","Allegheny","42","3","40.47","-79.92","A","GD"
"15207","PA","Pittsburgh","Allegheny","42","3","40.4","-79.94","A","GD"
"15208","PA","Pittsburgh","Allegheny","42","3","40.45","-79.9","A","GD"
"15209","PA","Pittsburgh","Allegheny","42","3","40.49","-79.97","A","GD"
"15210","PA","Pittsburgh","Allegheny","42","3","40.41","-79.99","A","GD"
"15211","PA","Pittsburgh","Allegheny","42","3","40.43","-80.01","A","GD"
"15212","PA","Pittsburgh","Allegheny","42","3","40.46","-80.01","A","GD"
"15213","PA","Pittsburgh","Allegheny","42","3","40.44","-79.96","A","GD"
"15214","PA","Pittsburgh","Allegheny","42","3","40.48","-80.01","A","GD"
"15215","PA","Pittsburgh","Allegheny","42","3","40.5","-79.92","A","GD"
"15216","PA","Pittsburgh","Allegheny","42","3","40.4","-80.03","A","GD"
"15217","PA","Pittsburgh","Allegheny","42","3","40.43","-79.92","A","GD"
"15218","PA","Pittsburgh","Allegheny","42","3","40.42","-79.89","A","GD"
"15219","PA","Pittsburgh","Allegheny","42","3","40.44","-79.98","A","GD"
"15220","PA","Pittsburgh","Allegheny","42","3","40.43","-80.04","A","GD"
"15221","PA","Pittsburgh","Allegheny","42","3","40.44","-79.87","A","GD"
"15222","PA","Pittsburgh","Allegheny","42","3","40.45","-79.99","A","GD"
"15223","PA","Pittsburgh","Allegheny","42","3","40.5","-79.95","A","GD"
"15224","PA","Pittsburgh","Allegheny","42","3","40.46","-79.95","A","GD"
"15225","PA","Pittsburgh","Allegheny","42","3","40.51","-80.12","A","GD"
"15226","PA","Pittsburgh","Allegheny","42","3","40.39","-80.02","A","GD"
"15227","PA","Pittsburgh","Allegheny","42","3","40.38","-79.98","A","GD"
"15228","PA","Pittsburgh","Allegheny","42","3","40.37","-80.05","A","GD"
"15229","PA","Pittsburgh","Allegheny","42","3","40.52","-80.03","A","GD"
"15230","PA","Pittsburgh","Allegheny","42","3","40.51","-80.08","A","POB"
"15231","PA","Pittsburgh","Allegheny","42","3","40.5","-80.19","A","POB"
"15232","PA","Pittsburgh","Allegheny","42","3","40.45","-79.93","A","GD"
"15233","PA","Pittsburgh","Allegheny","42","3","40.46","-80.03","A","GD"
"15234","PA","Pittsburgh","Allegheny","42","3","40.37","-80.02","A","GD"
"15235","PA","Pittsburgh","Allegheny","42","3","40.46","-79.83","A","GD"
"15236","PA","Pittsburgh","Allegheny","42","3","40.35","-79.98","A","GD"
"15237","PA","Pittsburgh","Allegheny","42","3","40.55","-80.04","A","GD"
"15238","PA","Pittsburgh","Allegheny","42","3","40.52","-79.87","A","GD"
"15239","PA","Pittsburgh","Allegheny","42","3","40.48","-79.74","A","GD"
"15240","PA","Pittsburgh","Allegheny","42","3","40.45","-79.96","A","POB"
"15241","PA","Pittsburgh","Allegheny","42","3","40.33","-80.07","A","GD"
"15242","PA","Pittsburgh","Allegheny","42","3","40.42","-80.05","A","POB"
"15243","PA","Pittsburgh","Allegheny","42","3","40.37","-80.07","A","GD"
"15244","PA","Pittsburgh","Allegheny","42","3","40.44","-80.14","A","POB"
"15250","PA","Pittsburgh","Allegheny","42","3","40.45","-79.95","A","PVT"
"15251","PA","Pittsburgh","Allegheny","42","3","40.45","-79.95","A","PVT"
"15252","PA","Pittsburgh","Allegheny","42","3","40.44","-80","A","PVT"
"15253","PA","Pittsburgh","Allegheny","42","3","40.46","-80.02","A","POB"
"15254","PA","Pittsburgh","Allegheny","42","3","40.44","-80","A","PVT"
"15255","PA","Pittsburgh","Allegheny","42","3","40.46","-80.02","A","PVT"
"15257","PA","Pittsburgh","Allegheny","42","3","40.44","-80","A","PVT"
"15258","PA","Pittsburgh","Allegheny","42","3","40.44","-80","A","PVT"
"15259","PA","Pittsburgh","Allegheny","42","3","40.44","-80","A","PVT"
"15260","PA","Pittsburgh","Allegheny","42","3","40.44","-79.95","A","GD"
"15261","PA","Pittsburgh","Allegheny","42","3","40.44","-79.96","A","PVT"
"15262","PA","Pittsburgh","Allegheny","42","3","40.47","-79.99","A","PVT"
"15264","PA","Pittsburgh","Allegheny","42","3","40.44","-79.96","A","POB"
"15265","PA","Pittsburgh","Allegheny","42","3","40.44","-80","A","PVT"
"15267","PA","Pittsburgh","Allegheny","42","3","40.47","-80.04","A","PVT"
"15268","PA","Pittsburgh","Allegheny","42","3","40.46","-80.02","A","PVT"
"15270","PA","Pittsburgh","Allegheny","42","3","40.4","-80.03","A","PVT"
"15272","PA","Pittsburgh","Allegheny","42","3","40.44","-80","A","GD"
"15274","PA","Pittsburgh","Allegheny","42","3","40.44","-79.96","A","POB"
"15275","PA","Pittsburgh","Allegheny","42","3","40.44","-80.09","A","GD"
"15276","PA","Pittsburgh","Allegheny","42","3","40.44","-80.09","A","GD"
"15277","PA","Pittsburgh","Allegheny","42","3","40.44","-80.1","A","PVT"
"15278","PA","Pittsburgh","Allegheny","42","3","40.51","-80.08","A","PVT"
"15279","PA","Pittsburgh","Allegheny","42","3","40.47","-80.04","A","PVT"
"15281","PA","Pittsburgh","Allegheny","42","3","40.44","-80","A","PVT"
"15282","PA","Pittsburgh","Allegheny","42","3","40.44","-79.99","A","PVT"
"15283","PA","Pittsburgh","Allegheny","42","3","40.42","-80.05","A","PVT"
"15286","PA","Pittsburgh","Allegheny","42","3","40.46","-80.03","A","PVT"
"15289","PA","Pittsburgh","Allegheny","42","3","40.44","-79.94","A","PVT"
"15290","PA","Pittsburgh","Allegheny","42","3","40.46","-80.02","A","GD"
"15295","PA","Pittsburgh","Allegheny","42","3","40.44","-80","A","GD"
"15301","PA","Washington","Washington","42","125","40.17","-80.25","A","GD"
"15310","PA","Aleppo","Greene","42","59","39.79","-80.49","A","GD"
"15311","PA","Amity","Washington","42","125","40.04","-80.19","A","GD"
"15312","PA","Avella","Washington","42","125","40.26","-80.45","A","GD"
"15313","PA","Beallsville","Washington","42","125","40.07","-80.02","A","POB"
"15314","PA","Bentleyville","Washington","42","125","40.14","-80.01","A","GD"
"15315","PA","Bobtown","Greene","42","59","39.76","-79.98","A","POB"
"15316","PA","Brave","Greene","42","59","39.72","-80.26","A","GD"
"15317","PA","Canonsburg","Washington","42","125","40.27","-80.17","A","GD"
"15320","PA","Carmichaels","Greene","42","59","39.89","-79.97","A","GD"
"15321","PA","Cecil","Washington","42","125","40.32","-80.19","A","GD"
"15322","PA","Clarksville","Greene","42","59","39.98","-80.04","A","GD"
"15323","PA","Claysville","Washington","42","125","40.11","-80.41","A","GD"
"15324","PA","Cokeburg","Washington","42","125","40.1","-80.06","A","POB"
"15325","PA","Crucible","Greene","42","59","39.95","-79.97","A","POB"
"15327","PA","Dilliner","Greene","42","59","39.75","-79.95","A","GD"
"15329","PA","Prosperity","Washington","42","125","40.02","-80.26","A","GD"
"15330","PA","Eighty Four","Washington","42","125","40.18","-80.1","A","GD"
"15331","PA","Ellsworth","Washington","42","125","40.11","-80.02","A","POB"
"15332","PA","Finleyville","Washington","42","125","40.25","-79.99","A","GD"
"15333","PA","Fredericktown","Washington","42","125","40.01","-80","A","GD"
"15334","PA","Garards Fort","Greene","42","59","39.81","-79.96","A","GD"
"15336","PA","Gastonville","Washington","42","125","40.26","-80.01","A","POB"
"15337","PA","Graysville","Greene","42","59","39.94","-80.38","A","GD"
"15338","PA","Greensboro","Greene","42","59","39.81","-79.95","A","GD"
"15339","PA","Hendersonville","Washington","42","125","40.3","-80.16","A","POB"
"15340","PA","Hickory","Washington","42","125","40.29","-80.32","A","GD"
"15341","PA","Holbrook","Greene","42","59","39.82","-80.34","A","GD"
"15342","PA","Houston","Washington","42","125","40.24","-80.21","A","GD"
"15344","PA","Jefferson","Greene","42","59","39.93","-80.06","A","GD"
"15345","PA","Marianna","Washington","42","125","40.02","-80.1","A","GD"
"15346","PA","Mather","Greene","42","59","39.93","-80.07","A","POB"
"15347","PA","Meadow Lands","Washington","42","125","40.22","-80.22","A","POB"
"15348","PA","Millsboro","Washington","42","125","39.99","-79.99","A","POB"
"15349","PA","Mount Morris","Greene","42","59","39.75","-80.07","A","GD"
"15350","PA","Muse","Washington","42","125","40.29","-80.2","A","POB"
"15351","PA","Nemacolin","Greene","42","59","39.88","-79.93","A","POB"
"15352","PA","New Freeport","Greene","42","59","39.75","-80.39","A","GD"
"15353","PA","Nineveh","Greene","42","59","39.96","-80.31","A","POB"
"15357","PA","Rices Landing","Greene","42","59","39.95","-79.99","A","GD"
"15358","PA","Richeyville","Washington","42","125","40.06","-80","A","POB"
"15359","PA","Rogersville","Greene","42","59","39.88","-80.27","A","GD"
"15360","PA","Scenery Hill","Washington","42","125","40.08","-80.07","A","GD"
"15361","PA","Southview","Washington","42","125","40.33","-80.26","A","POB"
"15362","PA","Spraggs","Greene","42","59","39.76","-80.21","A","GD"
"15363","PA","Strabane","Washington","42","125","40.25","-80.2","A","GD"
"15364","PA","Sycamore","Greene","42","59","39.94","-80.29","A","GD"
"15365","PA","Taylorstown","Washington","42","125","40.16","-80.38","A","POB"
"15366","PA","Van Voorhis","Washington","42","125","40.16","-79.97","A","POB"
"15367","PA","Venetia","Washington","42","125","40.27","-80.06","A","GD"
"15368","PA","Vestaburg","Washington","42","125","40.02","-79.99","A","POB"
"15370","PA","Waynesburg","Greene","42","59","39.89","-80.17","A","GD"
"15376","PA","West Alexander","Washington","42","125","40.11","-80.5","A","GD"
"15377","PA","West Finley","Washington","42","125","39.98","-80.45","A","GD"
"15378","PA","Westland","Washington","42","125","40.28","-80.27","A","POB"
"15379","PA","West Middletown","Washington","42","125","40.24","-80.42","A","POB"
"15380","PA","Wind Ridge","Greene","42","59","39.88","-80.47","A","GD"
"15401","PA","Uniontown","Fayette","42","51","39.9","-79.73","A","GD"
"15410","PA","Adah","Fayette","42","51","39.91","-79.9","A","GD"
"15411","PA","Addison","Somerset","42","111","39.75","-79.36","A","GD"
"15412","PA","Allenport","Washington","42","125","40.09","-79.85","A","POB"
"15413","PA","Allison","Fayette","42","51","39.99","-79.87","A","GD"
"15415","PA","Brier Hill","Fayette","42","51","39.96","-79.82","A","POB"
"15416","PA","Brownfield","Fayette","42","51","39.86","-79.71","A","POB"
"15417","PA","Brownsville","Fayette","42","51","40.02","-79.9","A","GD"
"15419","PA","California","Washington","42","125","40.06","-79.89","A","GD"
"15420","PA","Cardale","Fayette","42","51","39.96","-79.87","A","POB"
"15421","PA","Chalk Hill","Fayette","42","51","39.85","-79.6","A","POB"
"15422","PA","Chestnut Ridge","Fayette","42","51","39.98","-79.81","A","POB"
"15423","PA","Coal Center","Washington","42","125","40.08","-79.92","A","GD"
"15424","PA","Confluence","Somerset","42","111","39.81","-79.35","A","GD"
"15425","PA","Connellsville","Fayette","42","51","40.02","-79.58","A","GD"
"15427","PA","Daisytown","Washington","42","125","40.06","-79.96","A","GD"
"15428","PA","Dawson","Fayette","42","51","40.07","-79.67","A","GD"
"15429","PA","Denbo","Washington","42","125","40","-79.94","A","POB"
"15430","PA","Dickerson Run","Fayette","42","51","40.04","-79.66","A","POB"
"15431","PA","Dunbar","Fayette","42","51","39.97","-79.62","A","GD"
"15432","PA","Dunlevy","Washington","42","125","40.12","-79.86","A","POB"
"15433","PA","East Millsboro","Fayette","42","51","39.97","-79.95","A","GD"
"15434","PA","Elco","Washington","42","125","40.08","-79.87","A","POB"
"15435","PA","Fairbank","Fayette","42","51","39.94","-79.85","A","POB"
"15436","PA","Fairchance","Fayette","42","51","39.82","-79.75","A","GD"
"15437","PA","Farmington","Fayette","42","51","39.79","-79.59","A","GD"
"15438","PA","Fayette City","Fayette","42","51","40.09","-79.84","A","GD"
"15439","PA","Gans","Fayette","42","51","39.74","-79.82","A","POB"
"15440","PA","Gibbon Glade","Fayette","42","51","39.73","-79.61","A","GD"
"15442","PA","Grindstone","Fayette","42","51","40.01","-79.83","A","GD"
"15443","PA","Hibbs","Fayette","42","51","39.93","-79.89","A","POB"
"15444","PA","Hiller","Fayette","42","51","40.01","-79.91","A","GD"
"15445","PA","Hopwood","Fayette","42","51","39.88","-79.69","A","GD"
"15446","PA","Indian Head","Fayette","42","51","40.03","-79.39","A","GD"
"15447","PA","Isabella","Fayette","42","51","39.95","-79.94","A","POB"
"15448","PA","Jacobs Creek","Westmoreland","42","129","40.14","-79.74","A","POB"
"15449","PA","Keisterville","Fayette","42","51","39.96","-79.78","A","POB"
"15450","PA","La Belle","Fayette","42","51","40.01","-79.98","A","GD"
"15451","PA","Lake Lynn","Fayette","42","51","39.74","-79.84","A","GD"
"15454","PA","Leckrone","Fayette","42","51","39.86","-79.87","A","POB"
"15455","PA","Leisenring","Fayette","42","51","40","-79.64","A","POB"
"15456","PA","Lemont Furnace","Fayette","42","51","39.92","-79.66","A","GD"
"15458","PA","Mc Clellandtown","Fayette","42","51","39.89","-79.87","A","GD"
"15459","PA","Markleysburg","Fayette","42","51","39.76","-79.46","A","GD"
"15460","PA","Martin","Fayette","42","51","39.81","-79.91","A","POB"
"15461","PA","Masontown","Fayette","42","51","39.85","-79.9","A","GD"
"15462","PA","Melcroft","Fayette","42","51","40.05","-79.39","A","GD"
"15463","PA","Merrittstown","Fayette","42","51","39.97","-79.9","A","POB"
"15464","PA","Mill Run","Fayette","42","51","39.93","-79.44","A","GD"
"15465","PA","Mount Braddock","Fayette","42","51","39.94","-79.65","A","POB"
"15466","PA","Newell","Fayette","42","51","40.08","-79.9","A","POB"
"15467","PA","New Geneva","Fayette","42","51","39.79","-79.91","A","POB"
"15468","PA","New Salem","Fayette","42","51","39.94","-79.84","A","GD"
"15469","PA","Normalville","Fayette","42","51","40.01","-79.44","A","GD"
"15470","PA","Ohiopyle","Fayette","42","51","39.85","-79.53","A","GD"
"15472","PA","Oliver","Fayette","42","51","39.92","-79.72","A","POB"
"15473","PA","Perryopolis","Fayette","42","51","40.08","-79.76","A","GD"
"15474","PA","Point Marion","Fayette","42","51","39.74","-79.9","A","GD"
"15475","PA","Republic","Fayette","42","51","39.96","-79.88","A","POB"
"15476","PA","Ronco","Fayette","42","51","39.87","-79.92","A","POB"
"15477","PA","Roscoe","Washington","42","125","40.08","-79.87","A","POB"
"15478","PA","Smithfield","Fayette","42","51","39.8","-79.81","A","GD"
"15479","PA","Smithton","Westmoreland","42","129","40.16","-79.74","A","GD"
"15480","PA","Smock","Fayette","42","51","39.99","-79.77","A","GD"
"15482","PA","Star Junction","Fayette","42","51","40.06","-79.76","A","POB"
"15483","PA","Stockdale","Washington","42","125","40.08","-79.85","A","POB"
"15484","PA","Uledi","Fayette","42","51","39.89","-79.79","A","POB"
"15485","PA","Ursina","Somerset","42","111","39.82","-79.33","A","POB"
"15486","PA","Vanderbilt","Fayette","42","51","40.03","-79.69","A","GD"
"15488","PA","Waltersburg","Fayette","42","51","39.98","-79.75","A","GD"
"15489","PA","West Leisenring","Fayette","42","51","39.96","-79.7","A","POB"
"15490","PA","White","Fayette","42","51","40.07","-79.45","A","GD"
"15492","PA","Wickhaven","Fayette","42","51","40.12","-79.76","A","POB"
"15501","PA","Somerset","Somerset","42","111","40.03","-79.11","A","GD"
"15502","PA","Hidden Valley","Somerset","42","111","40.05","-79.25","A","POB"
"15510","PA","Somerset","Somerset","42","111","39.97","-79.04","A","PVT"
"15520","PA","Acosta","Somerset","42","111","40.11","-79.07","A","POB"
"15521","PA","Alum Bank","Bedford","42","9","40.19","-78.63","A","GD"
"15522","PA","Bedford","Bedford","42","9","39.98","-78.53","A","GD"
"15530","PA","Berlin","Somerset","42","111","39.94","-78.92","A","GD"
"15531","PA","Boswell","Somerset","42","111","40.18","-79.07","A","GD"
"15532","PA","Boynton","Somerset","42","111","39.76","-79.07","A","POB"
"15533","PA","Breezewood","Bedford","42","9","39.99","-78.24","A","GD"
"15534","PA","Buffalo Mills","Bedford","42","9","39.9","-78.7","A","GD"
"15535","PA","Clearville","Bedford","42","9","39.82","-78.47","A","GD"
"15536","PA","Crystal Spring","Fulton","42","57","39.95","-78.2","A","GD"
"15537","PA","Everett","Bedford","42","9","40.01","-78.37","A","GD"
"15538","PA","Fairhope","Somerset","42","111","39.86","-78.83","A","GD"
"15539","PA","Fishertown","Bedford","42","9","40.13","-78.58","A","GD"
"15540","PA","Fort Hill","Somerset","42","111","39.8","-79.25","A","GD"
"15541","PA","Friedens","Somerset","42","111","40.05","-78.99","A","GD"
"15542","PA","Garrett","Somerset","42","111","39.86","-79.07","A","GD"
"15544","PA","Gray","Somerset","42","111","40.13","-79.09","A","POB"
"15545","PA","Hyndman","Bedford","42","9","39.79","-78.74","A","GD"
"15546","PA","Jenners","Somerset","42","111","40.14","-79.05","A","GD"
"15547","PA","Jennerstown","Somerset","42","111","40.16","-79.07","A","POB"
"15548","PA","Kantner","Somerset","42","111","40.1","-78.94","A","GD"
"15549","PA","Listie","Somerset","42","111","40.03","-79.01","A","POB"
"15550","PA","Manns Choice","Bedford","42","9","40","-78.64","A","GD"
"15551","PA","Markleton","Somerset","42","111","39.89","-79.26","A","GD"
"15552","PA","Meyersdale","Somerset","42","111","39.8","-79.02","A","GD"
"15553","PA","New Baltimore","Somerset","42","111","39.99","-78.77","A","POB"
"15554","PA","New Paris","Bedford","42","9","40.13","-78.61","A","GD"
"15555","PA","Quecreek","Somerset","42","111","40.09","-79.08","A","POB"
"15557","PA","Rockwood","Somerset","42","111","39.94","-79.22","A","GD"
"15558","PA","Salisbury","Somerset","42","111","39.74","-79.09","A","GD"
"15559","PA","Schellsburg","Bedford","42","9","40.05","-78.67","A","GD"
"15560","PA","Shanksville","Somerset","42","111","40.02","-78.91","A","POB"
"15561","PA","Sipesville","Somerset","42","111","40.09","-79.09","A","POB"
"15562","PA","Springs","Somerset","42","111","39.74","-79.14","A","GD"
"15563","PA","Stoystown","Somerset","42","111","40.1","-78.95","A","GD"
"15564","PA","Wellersburg","Somerset","42","111","39.73","-78.84","A","GD"
"15565","PA","West Salisbury","Somerset","42","111","39.75","-79.1","A","GD"
"15601","PA","Greensburg","Westmoreland","42","129","40.3","-79.54","A","GD"
"15605","PA","Greensburg","Westmoreland","42","129","40.35","-79.52","A","PVT"
"15606","PA","Greensburg","Westmoreland","42","129","40.3","-79.54","A","PVT"
"15610","PA","Acme","Westmoreland","42","129","40.14","-79.42","A","GD"
"15611","PA","Adamsburg","Westmoreland","42","129","40.31","-79.65","A","GD"
"15612","PA","Alverton","Westmoreland","42","129","40.14","-79.59","A","GD"
"15613","PA","Apollo","Westmoreland","42","129","40.56","-79.58","A","GD"
"15615","PA","Ardara","Westmoreland","42","129","40.36","-79.74","A","GD"
"15616","PA","Armbrust","Westmoreland","42","129","40.22","-79.55","A","POB"
"15617","PA","Arona","Westmoreland","42","129","40.27","-79.66","A","POB"
"15618","PA","Avonmore","Westmoreland","42","129","40.54","-79.45","A","GD"
"15619","PA","Bovard","Westmoreland","42","129","40.32","-79.5","A","POB"
"15620","PA","Bradenville","Westmoreland","42","129","40.32","-79.34","A","GD"
"15621","PA","Calumet","Westmoreland","42","129","40.21","-79.48","A","POB"
"15622","PA","Champion","Westmoreland","42","129","40.03","-79.31","A","GD"
"15623","PA","Claridge","Westmoreland","42","129","40.37","-79.62","A","GD"
"15624","PA","Crabtree","Westmoreland","42","129","40.36","-79.47","A","POB"
"15625","PA","Darragh","Westmoreland","42","129","40.27","-79.68","A","POB"
"15626","PA","Delmont","Westmoreland","42","129","40.41","-79.57","A","GD"
"15627","PA","Derry","Westmoreland","42","129","40.34","-79.31","A","GD"
"15628","PA","Donegal","Westmoreland","42","129","40.11","-79.38","A","GD"
"15629","PA","East Vandergrift","Westmoreland","42","129","40.6","-79.56","A","POB"
"15631","PA","Everson","Fayette","42","51","40.09","-79.59","A","POB"
"15632","PA","Export","Westmoreland","42","129","40.43","-79.61","A","GD"
"15633","PA","Forbes Road","Westmoreland","42","129","40.35","-79.52","A","POB"
"15634","PA","Grapeville","Westmoreland","42","129","40.32","-79.61","A","GD"
"15635","PA","Hannastown","Westmoreland","42","129","40.35","-79.5","A","POB"
"15636","PA","Harrison City","Westmoreland","42","129","40.36","-79.66","A","GD"
"15637","PA","Herminie","Westmoreland","42","129","40.26","-79.71","A","GD"
"15638","PA","Hostetter","Westmoreland","42","129","40.27","-79.4","A","POB"
"15639","PA","Hunker","Westmoreland","42","129","40.2","-79.59","A","GD"
"15640","PA","Hutchinson","Westmoreland","42","129","40.23","-79.73","A","POB"
"15641","PA","Hyde Park","Westmoreland","42","129","40.63","-79.59","A","GD"
"15642","PA","Irwin","Westmoreland","42","129","40.33","-79.71","A","GD"
"15644","PA","Jeannette","Westmoreland","42","129","40.33","-79.61","A","GD"
"15646","PA","Jones Mills","Westmoreland","42","129","40.09","-79.34","A","GD"
"15647","PA","Larimer","Westmoreland","42","129","40.34","-79.73","A","GD"
"15650","PA","Latrobe","Westmoreland","42","129","40.3","-79.39","A","GD"
"15655","PA","Laughlintown","Westmoreland","42","129","40.2","-79.19","A","GD"
"15656","PA","Leechburg","Armstrong","42","5","40.63","-79.61","A","GD"
"15658","PA","Ligonier","Westmoreland","42","129","40.25","-79.23","A","GD"
"15660","PA","Lowber","Westmoreland","42","129","40.24","-79.77","A","POB"
"15661","PA","Loyalhanna","Westmoreland","42","129","40.32","-79.36","A","GD"
"15662","PA","Luxor","Westmoreland","42","129","40.34","-79.48","A","POB"
"15663","PA","Madison","Westmoreland","42","129","40.25","-79.68","A","POB"
"15664","PA","Mammoth","Westmoreland","42","129","40.15","-79.54","A","POB"
"15665","PA","Manor","Westmoreland","42","129","40.33","-79.67","A","GD"
"15666","PA","Mount Pleasant","Westmoreland","42","129","40.16","-79.52","A","GD"
"15668","PA","Murrysville","Westmoreland","42","129","40.45","-79.68","A","GD"
"15670","PA","New Alexandria","Westmoreland","42","129","40.4","-79.43","A","GD"
"15671","PA","New Derry","Westmoreland","42","129","40.35","-79.32","A","GD"
"15672","PA","New Stanton","Westmoreland","42","129","40.23","-79.62","A","GD"
"15673","PA","North Apollo","Armstrong","42","5","40.59","-79.56","A","POB"
"15674","PA","Norvelt","Westmoreland","42","129","40.21","-79.5","A","POB"
"15675","PA","Penn","Westmoreland","42","129","40.33","-79.64","A","GD"
"15676","PA","Pleasant Unity","Westmoreland","42","129","40.24","-79.46","A","POB"
"15677","PA","Rector","Westmoreland","42","129","40.18","-79.24","A","GD"
"15678","PA","Rillton","Westmoreland","42","129","40.29","-79.73","A","GD"
"15679","PA","Ruffs Dale","Westmoreland","42","129","40.19","-79.66","A","GD"
"15680","PA","Salina","Westmoreland","42","129","40.52","-79.5","A","POB"
"15681","PA","Saltsburg","Indiana","42","63","40.5","-79.44","A","GD"
"15682","PA","Schenley","Armstrong","42","5","40.68","-79.66","A","POB"
"15683","PA","Scottdale","Westmoreland","42","129","40.1","-79.59","A","GD"
"15684","PA","Slickville","Westmoreland","42","129","40.46","-79.52","A","GD"
"15685","PA","Southwest","Westmoreland","42","129","40.15","-79.54","A","POB"
"15686","PA","Spring Church","Armstrong","42","5","40.62","-79.43","A","GD"
"15687","PA","Stahlstown","Westmoreland","42","129","40.13","-79.31","A","GD"
"15688","PA","Tarrs","Westmoreland","42","129","40.17","-79.59","A","GD"
"15689","PA","United","Westmoreland","42","129","40.22","-79.49","A","POB"
"15690","PA","Vandergrift","Westmoreland","42","129","40.61","-79.56","A","GD"
"15691","PA","Wendel","Westmoreland","42","129","40.29","-79.69","A","POB"
"15692","PA","Westmoreland City","Westmoreland","42","129","40.33","-79.68","A","GD"
"15693","PA","Whitney","Westmoreland","42","129","40.25","-79.41","A","POB"
"15695","PA","Wyano","Westmoreland","42","129","40.2","-79.7","A","POB"
"15696","PA","Youngstown","Westmoreland","42","129","40.28","-79.37","A","POB"
"15697","PA","Youngwood","Westmoreland","42","129","40.24","-79.58","A","GD"
"15698","PA","Yukon","Westmoreland","42","129","40.22","-79.69","A","GD"
"15701","PA","Indiana","Indiana","42","63","40.63","-79.16","A","GD"
"15705","PA","Indiana","Indiana","42","63","40.61","-79.15","A","PVT"
"15710","PA","Alverda","Indiana","42","63","40.64","-78.87","A","POB"
"15711","PA","Anita","Jefferson","42","65","41","-78.97","A","GD"
"15712","PA","Arcadia","Indiana","42","63","40.79","-78.85","A","POB"
"15713","PA","Aultman","Indiana","42","63","40.56","-79.26","A","GD"
"15714","PA","Northern Cambria","Cambria","42","21","40.66","-78.8","A","GD"
"15715","PA","Big Run","Jefferson","42","65","40.97","-78.88","A","POB"
"15716","PA","Black Lick","Indiana","42","63","40.47","-79.19","A","POB"
"15717","PA","Blairsville","Indiana","42","63","40.45","-79.25","A","GD"
"15720","PA","Brush Valley","Indiana","42","63","40.53","-79.06","A","POB"
"15721","PA","Burnside","Clearfield","42","33","40.81","-78.79","A","POB"
"15722","PA","Carrolltown","Cambria","42","21","40.59","-78.72","A","GD"
"15723","PA","Chambersville","Indiana","42","63","40.7","-79.16","A","POB"
"15724","PA","Cherry Tree","Indiana","42","63","40.74","-78.81","A","GD"
"15725","PA","Clarksburg","Indiana","42","63","40.52","-79.35","A","GD"
"15727","PA","Clune","Indiana","42","63","40.56","-79.3","A","POB"
"15728","PA","Clymer","Indiana","42","63","40.68","-78.99","A","GD"
"15729","PA","Commodore","Indiana","42","63","40.71","-78.93","A","GD"
"15730","PA","Coolspring","Jefferson","42","65","41.05","-79.09","A","GD"
"15731","PA","Coral","Indiana","42","63","40.5","-79.17","A","POB"
"15732","PA","Creekside","Indiana","42","63","40.71","-79.21","A","GD"
"15733","PA","De Lancey","Jefferson","42","65","40.98","-78.96","A","POB"
"15734","PA","Dixonville","Indiana","42","63","40.72","-79.01","A","POB"
"15736","PA","Elderton","Armstrong","42","5","40.69","-79.34","A","POB"
"15737","PA","Elmora","Cambria","42","21","40.61","-78.76","A","POB"
"15738","PA","Emeigh","Cambria","42","21","40.69","-78.79","A","POB"
"15739","PA","Ernest","Indiana","42","63","40.68","-79.17","A","POB"
"15741","PA","Gipsy","Indiana","42","63","40.81","-78.88","A","POB"
"15742","PA","Glen Campbell","Indiana","42","63","40.81","-78.85","A","GD"
"15744","PA","Hamilton","Jefferson","42","65","40.92","-79.08","A","GD"
"15745","PA","Heilwood","Indiana","42","63","40.62","-78.92","A","POB"
"15746","PA","Hillsdale","Indiana","42","63","40.76","-78.89","A","POB"
"15747","PA","Home","Indiana","42","63","40.76","-79.14","A","GD"
"15748","PA","Homer City","Indiana","42","63","40.53","-79.14","A","GD"
"15750","PA","Josephine","Indiana","42","63","40.48","-79.19","A","GD"
"15752","PA","Kent","Indiana","42","63","40.54","-79.28","A","POB"
"15753","PA","La Jose","Clearfield","42","33","40.79","-78.67","A","GD"
"15754","PA","Lucernemines","Indiana","42","63","40.56","-79.15","A","POB"
"15756","PA","Mc Intyre","Indiana","42","63","40.57","-79.3","A","POB"
"15757","PA","Mahaffey","Clearfield","42","33","40.88","-78.73","A","GD"
"15758","PA","Marchand","Indiana","42","63","40.87","-79.05","A","GD"
"15759","PA","Marion Center","Indiana","42","63","40.77","-79.03","A","GD"
"15760","PA","Marsteller","Cambria","42","21","40.65","-78.8","A","GD"
"15761","PA","Mentcle","Indiana","42","63","40.63","-78.89","A","GD"
"15762","PA","Nicktown","Cambria","42","21","40.59","-78.83","A","GD"
"15763","PA","Northpoint","Indiana","42","63","40.9","-79.12","A","GD"
"15764","PA","Oliveburg","Jefferson","42","65","40.99","-79.03","A","GD"
"15765","PA","Penn Run","Indiana","42","63","40.6","-79","A","GD"
"15767","PA","Punxsutawney","Jefferson","42","65","40.95","-78.97","A","GD"
"15770","PA","Ringgold","Jefferson","42","65","41","-79.17","A","GD"
"15771","PA","Rochester Mills","Indiana","42","63","40.83","-79","A","GD"
"15772","PA","Rossiter","Indiana","42","63","40.87","-78.91","A","GD"
"15773","PA","Saint Benedict","Cambria","42","21","40.63","-78.73","A","GD"
"15774","PA","Shelocta","Indiana","42","63","40.66","-79.33","A","GD"
"15775","PA","Spangler","Cambria","42","21","40.64","-78.77","A","GD"
"15776","PA","Sprankle Mills","Jefferson","42","65","41.01","-79.12","A","GD"
"15777","PA","Starford","Indiana","42","63","40.7","-78.96","A","GD"
"15778","PA","Timblin","Jefferson","42","65","40.97","-79.2","A","GD"
"15779","PA","Torrance","Westmoreland","42","129","40.42","-79.23","A","POB"
"15780","PA","Valier","Jefferson","42","65","40.92","-79.05","A","GD"
"15781","PA","Walston","Jefferson","42","65","40.96","-78.99","A","POB"
"15783","PA","West Lebanon","Indiana","42","63","40.6","-79.35","A","POB"
"15784","PA","Worthville","Jefferson","42","65","41.02","-79.14","A","GD"
"15801","PA","Du Bois","Clearfield","42","33","41.13","-78.75","A","GD"
"15821","PA","Benezett","Elk","42","47","41.35","-78.36","A","GD"
"15822","PA","Brandy Camp","Elk","42","47","41.32","-78.69","A","GD"
"15823","PA","Brockport","Elk","42","47","41.25","-78.72","A","GD"
"15824","PA","Brockway","Jefferson","42","65","41.23","-78.81","A","GD"
"15825","PA","Brookville","Jefferson","42","65","41.16","-79.06","A","GD"
"15827","PA","Byrnedale","Elk","42","47","41.3","-78.5","A","GD"
"15828","PA","Clarington","Forest","42","53","41.32","-79.15","A","GD"
"15829","PA","Corsica","Jefferson","42","65","41.18","-79.2","A","GD"
"15831","PA","Dagus Mines","Elk","42","47","41.35","-78.61","A","POB"
"15832","PA","Driftwood","Cameron","42","23","41.35","-78.19","A","GD"
"15834","PA","Emporium","Cameron","42","23","41.52","-78.26","A","GD"
"15840","PA","Falls Creek","Jefferson","42","65","41.15","-78.81","A","GD"
"15841","PA","Force","Elk","42","47","41.26","-78.51","A","POB"
"15845","PA","Johnsonburg","Elk","42","47","41.49","-78.68","A","GD"
"15846","PA","Kersey","Elk","42","47","41.35","-78.6","A","GD"
"15847","PA","Knox Dale","Jefferson","42","65","41.09","-79.03","A","POB"
"15848","PA","Luthersburg","Clearfield","42","33","41.04","-78.71","A","GD"
"15849","PA","Penfield","Clearfield","42","33","41.18","-78.56","A","GD"
"15851","PA","Reynoldsville","Jefferson","42","65","41.1","-78.89","A","GD"
"15853","PA","Ridgway","Elk","42","47","41.41","-78.76","A","GD"
"15856","PA","Rockton","Clearfield","42","33","41.09","-78.64","A","GD"
"15857","PA","Saint Marys","Elk","42","47","41.44","-78.54","A","GD"
"15860","PA","Sigel","Jefferson","42","65","41.36","-79.04","A","GD"
"15861","PA","Sinnamahoning","Cameron","42","23","41.32","-78.08","A","GD"
"15863","PA","Stump Creek","Jefferson","42","65","41.01","-78.84","A","POB"
"15864","PA","Summerville","Jefferson","42","65","41.1","-79.19","A","GD"
"15865","PA","Sykesville","Jefferson","42","65","41.05","-78.82","A","GD"
"15866","PA","Troutville","Clearfield","42","33","41.02","-78.79","A","GD"
"15868","PA","Weedville","Elk","42","47","41.28","-78.44","A","GD"
"15870","PA","Wilcox","Elk","42","47","41.58","-78.6","A","GD"
"15901","PA","Johnstown","Cambria","42","21","40.32","-78.92","A","GD"
"15902","PA","Johnstown","Cambria","42","21","40.31","-78.9","A","GD"
"15904","PA","Johnstown","Cambria","42","21","40.29","-78.86","A","GD"
"15905","PA","Johnstown","Cambria","42","21","40.3","-78.94","A","GD"
"15906","PA","Johnstown","Cambria","42","21","40.35","-78.94","A","GD"
"15907","PA","Johnstown","Cambria","42","21","40.33","-78.92","A","POB"
"15909","PA","Johnstown","Cambria","42","21","40.37","-78.88","A","GD"
"15915","PA","Johnstown","Cambria","42","21","40.31","-78.86","A","GD"
"15920","PA","Armagh","Indiana","42","63","40.46","-79.05","A","GD"
"15921","PA","Beaverdale","Cambria","42","21","40.31","-78.69","A","POB"
"15922","PA","Belsano","Cambria","42","21","40.52","-78.88","A","POB"
"15923","PA","Bolivar","Westmoreland","42","129","40.38","-79.15","A","GD"
"15924","PA","Cairnbrook","Somerset","42","111","40.12","-78.8","A","GD"
"15925","PA","Cassandra","Cambria","42","21","40.41","-78.64","A","POB"
"15926","PA","Central City","Somerset","42","111","40.09","-78.82","A","GD"
"15927","PA","Colver","Cambria","42","21","40.54","-78.79","A","GD"
"15928","PA","Davidsville","Somerset","42","111","40.23","-78.93","A","GD"
"15929","PA","Dilltown","Indiana","42","63","40.47","-79","A","POB"
"15930","PA","Dunlo","Cambria","42","21","40.29","-78.72","A","POB"
"15931","PA","Ebensburg","Cambria","42","21","40.5","-78.74","A","GD"
"15934","PA","Elton","Cambria","42","21","40.28","-78.8","A","POB"
"15935","PA","Hollsopple","Somerset","42","111","40.21","-78.96","A","GD"
"15936","PA","Hooversville","Somerset","42","111","40.16","-78.91","A","GD"
"15937","PA","Jerome","Somerset","42","111","40.21","-78.99","A","POB"
"15938","PA","Lilly","Cambria","42","21","40.43","-78.62","A","GD"
"15940","PA","Loretto","Cambria","42","21","40.51","-78.63","A","GD"
"15942","PA","Mineral Point","Cambria","42","21","40.41","-78.83","A","GD"
"15943","PA","Nanty Glo","Cambria","42","21","40.47","-78.84","A","GD"
"15944","PA","New Florence","Westmoreland","42","129","40.37","-79.08","A","GD"
"15945","PA","Parkhill","Cambria","42","21","40.36","-78.86","A","GD"
"15946","PA","Portage","Cambria","42","21","40.38","-78.66","A","GD"
"15948","PA","Revloc","Cambria","42","21","40.49","-78.76","A","POB"
"15949","PA","Robinson","Indiana","42","63","40.4","-79.13","A","GD"
"15951","PA","Saint Michael","Cambria","42","21","40.34","-78.77","A","POB"
"15952","PA","Salix","Cambria","42","21","40.3","-78.76","A","GD"
"15953","PA","Seanor","Somerset","42","111","40.21","-78.89","A","GD"
"15954","PA","Seward","Westmoreland","42","129","40.42","-79.02","A","GD"
"15955","PA","Sidman","Cambria","42","21","40.32","-78.72","A","GD"
"15956","PA","South Fork","Cambria","42","21","40.36","-78.79","A","GD"
"15957","PA","Strongstown","Indiana","42","63","40.55","-78.9","A","GD"
"15958","PA","Summerhill","Cambria","42","21","40.38","-78.74","A","GD"
"15959","PA","Tire Hill","Somerset","42","111","40.27","-78.92","A","POB"
"15960","PA","Twin Rocks","Cambria","42","21","40.5","-78.87","A","POB"
"15961","PA","Vintondale","Cambria","42","21","40.47","-78.94","A","GD"
"15962","PA","Wilmore","Cambria","42","21","40.39","-78.72","A","POB"
"15963","PA","Windber","Somerset","42","111","40.23","-78.82","A","GD"
"16001","PA","Butler","Butler","42","19","40.88","-79.91","A","GD"
"16002","PA","Butler","Butler","42","19","40.82","-79.86","A","GD"
"16003","PA","Butler","Butler","42","19","40.86","-79.9","A","POB"
"16016","PA","Boyers","Butler","42","19","41.11","-79.9","A","PVT"
"16017","PA","Boyers","Butler","42","19","41.09","-79.91","A","PVT"
"16018","PA","Boyers","Butler","42","19","41.09","-79.91","A","PVT"
"16020","PA","Boyers","Butler","42","19","41.11","-79.91","A","GD"
"16021","PA","Branchton","Butler","42","19","41.07","-79.99","A","GD"
"16022","PA","Bruin","Butler","42","19","41.06","-79.73","A","POB"
"16023","PA","Cabot","Butler","42","19","40.78","-79.76","A","GD"
"16024","PA","Callery","Butler","42","19","40.74","-80.04","A","POB"
"16025","PA","Chicora","Butler","42","19","40.95","-79.75","A","GD"
"16027","PA","Connoquenessing","Butler","42","19","40.82","-80.01","A","POB"
"16028","PA","East Brady","Clarion","42","31","40.97","-79.62","A","GD"
"16029","PA","East Butler","Butler","42","19","40.88","-79.84","A","POB"
"16030","PA","Eau Claire","Butler","42","19","41.14","-79.8","A","POB"
"16033","PA","Evans City","Butler","42","19","40.78","-80.05","A","GD"
"16034","PA","Fenelton","Butler","42","19","40.87","-79.73","A","GD"
"16035","PA","Forestville","Butler","42","19","41.11","-80.01","A","POB"
"16036","PA","Foxburg","Clarion","42","31","41.13","-79.67","A","POB"
"16037","PA","Harmony","Butler","42","19","40.82","-80.13","A","GD"
"16038","PA","Harrisville","Butler","42","19","41.16","-79.96","A","GD"
"16039","PA","Herman","Butler","42","19","40.84","-79.81","A","POB"
"16040","PA","Hilliards","Butler","42","19","41.1","-79.83","A","GD"
"16041","PA","Karns City","Butler","42","19","41.01","-79.7","A","GD"
"16045","PA","Lyndora","Butler","42","19","40.85","-79.91","A","GD"
"16046","PA","Mars","Butler","42","19","40.7","-80.04","A","GD"
"16048","PA","North Washington","Butler","42","19","41.05","-79.82","A","POB"
"16049","PA","Parker","Armstrong","42","5","41.1","-79.66","A","GD"
"16050","PA","Petrolia","Butler","42","19","41.03","-79.75","A","GD"
"16051","PA","Portersville","Butler","42","19","40.95","-80.14","A","GD"
"16052","PA","Prospect","Butler","42","19","40.91","-80.06","A","GD"
"16053","PA","Renfrew","Butler","42","19","40.81","-79.98","A","GD"
"16054","PA","Saint Petersburg","Clarion","42","31","41.16","-79.65","A","POB"
"16055","PA","Sarver","Butler","42","19","40.72","-79.74","A","GD"
"16056","PA","Saxonburg","Butler","42","19","40.73","-79.83","A","GD"
"16057","PA","Slippery Rock","Butler","42","19","41.03","-80.05","A","GD"
"16058","PA","Turkey City","Clarion","42","31","41.18","-79.61","A","POB"
"16059","PA","Valencia","Butler","42","19","40.7","-79.94","A","GD"
"16061","PA","West Sunbury","Butler","42","19","41.01","-79.89","A","GD"
"16063","PA","Zelienople","Butler","42","19","40.78","-80.13","A","GD"
"16066","PA","Cranberry Township","Butler","42","19","40.7","-80.11","A","GD"
"16101","PA","New Castle","Lawrence","42","73","40.99","-80.33","A","GD"
"16102","PA","New Castle","Lawrence","42","73","40.97","-80.39","A","GD"
"16103","PA","New Castle","Lawrence","42","73","40.99","-80.29","A","POB"
"16105","PA","New Castle","Lawrence","42","73","41.04","-80.34","A","GD"
"16107","PA","New Castle","Lawrence","42","73","40.99","-80.29","A","POB"
"16108","PA","New Castle","Lawrence","42","73","40.99","-80.29","A","GD"
"16110","PA","Adamsville","Crawford","42","39","41.51","-80.38","A","GD"
"16111","PA","Atlantic","Crawford","42","39","41.52","-80.28","A","GD"
"16112","PA","Bessemer","Lawrence","42","73","40.97","-80.49","A","GD"
"16113","PA","Clark","Mercer","42","85","41.28","-80.43","A","POB"
"16114","PA","Clarks Mills","Mercer","42","85","41.41","-80.18","A","GD"
"16115","PA","Darlington","Beaver","42","7","40.8","-80.45","A","GD"
"16116","PA","Edinburg","Lawrence","42","73","41.03","-80.45","A","GD"
"16117","PA","Ellwood City","Lawrence","42","73","40.86","-80.28","A","GD"
"16120","PA","Enon Valley","Lawrence","42","73","40.89","-80.47","A","GD"
"16121","PA","Farrell","Mercer","42","85","41.21","-80.49","A","GD"
"16123","PA","Fombell","Beaver","42","7","40.81","-80.2","A","GD"
"16124","PA","Fredonia","Mercer","42","85","41.33","-80.26","A","GD"
"16125","PA","Greenville","Mercer","42","85","41.4","-80.38","A","GD"
"16127","PA","Grove City","Mercer","42","85","41.17","-80.08","A","GD"
"16130","PA","Hadley","Mercer","42","85","41.45","-80.21","A","GD"
"16131","PA","Hartstown","Crawford","42","39","41.55","-80.37","A","GD"
"16132","PA","Hillsville","Lawrence","42","73","41.01","-80.51","A","POB"
"16133","PA","Jackson Center","Mercer","42","85","41.27","-80.12","A","GD"
"16134","PA","Jamestown","Mercer","42","85","41.51","-80.46","A","GD"
"16136","PA","Koppel","Beaver","42","7","40.83","-80.32","A","POB"
"16137","PA","Mercer","Mercer","42","85","41.23","-80.23","A","GD"
"16140","PA","New Bedford","Lawrence","42","73","41.1","-80.51","A","POB"
"16141","PA","New Galilee","Beaver","42","7","40.86","-80.4","A","GD"
"16142","PA","New Wilmington","Lawrence","42","73","41.13","-80.34","A","GD"
"16143","PA","Pulaski","Lawrence","42","73","41.11","-80.46","A","GD"
"16145","PA","Sandy Lake","Mercer","42","85","41.39","-80.1","A","GD"
"16146","PA","Sharon","Mercer","42","85","41.23","-80.5","A","GD"
"16148","PA","Hermitage","Mercer","42","85","41.23","-80.45","A","GD"
"16150","PA","Sharpsville","Mercer","42","85","41.27","-80.46","A","GD"
"16151","PA","Sheakleyville","Mercer","42","85","41.44","-80.21","A","POB"
"16153","PA","Stoneboro","Mercer","42","85","41.33","-80.1","A","GD"
"16154","PA","Transfer","Mercer","42","85","41.33","-80.43","A","GD"
"16155","PA","Villa Maria","Lawrence","42","73","41.07","-80.51","A","POB"
"16156","PA","Volant","Lawrence","42","73","41.1","-80.23","A","GD"
"16157","PA","Wampum","Lawrence","42","73","40.89","-80.34","A","GD"
"16159","PA","West Middlesex","Mercer","42","85","41.17","-80.46","A","GD"
"16160","PA","West Pittsburg","Lawrence","42","73","40.93","-80.36","A","POB"
"16161","PA","Wheatland","Mercer","42","85","41.2","-80.49","A","POB"
"16172","PA","New Wilmington","Lawrence","42","73","41.12","-80.33","A","PVT"
"16201","PA","Kittanning","Armstrong","42","5","40.81","-79.5","A","GD"
"16210","PA","Adrian","Armstrong","42","5","40.89","-79.5","A","GD"
"16211","PA","Beyer","Indiana","42","63","40.79","-79.2","A","POB"
"16212","PA","Cadogan","Armstrong","42","5","40.75","-79.58","A","POB"
"16213","PA","Callensburg","Clarion","42","31","41.13","-79.56","A","POB"
"16214","PA","Clarion","Clarion","42","31","41.2","-79.37","A","GD"
"16217","PA","Cooksburg","Forest","42","53","41.33","-79.19","A","GD"
"16218","PA","Cowansville","Armstrong","42","5","40.92","-79.59","A","GD"
"16220","PA","Crown","Clarion","42","31","41.39","-79.27","A","POB"
"16221","PA","Curllsville","Clarion","42","31","41.22","-79.51","A","POB"
"16222","PA","Dayton","Armstrong","42","5","40.86","-79.25","A","GD"
"16223","PA","Distant","Armstrong","42","5","40.97","-79.36","A","POB"
"16224","PA","Fairmount City","Clarion","42","31","41.05","-79.29","A","GD"
"16225","PA","Fisher","Clarion","42","31","41.26","-79.25","A","POB"
"16226","PA","Ford City","Armstrong","42","5","40.74","-79.51","A","GD"
"16228","PA","Ford Cliff","Armstrong","42","5","40.76","-79.54","A","GD"
"16229","PA","Freeport","Armstrong","42","5","40.7","-79.67","A","GD"
"16230","PA","Hawthorn","Clarion","42","31","41.02","-79.27","A","POB"
"16232","PA","Knox","Clarion","42","31","41.23","-79.55","A","GD"
"16233","PA","Leeper","Clarion","42","31","41.36","-79.26","A","GD"
"16234","PA","Limestone","Clarion","42","31","41.14","-79.3","A","POB"
"16235","PA","Lucinda","Clarion","42","31","41.32","-79.35","A","GD"
"16236","PA","Mc Grann","Armstrong","42","5","40.78","-79.52","A","POB"
"16238","PA","Manorville","Armstrong","42","5","40.79","-79.52","A","POB"
"16239","PA","Marienville","Forest","42","53","41.48","-79.13","A","GD"
"16240","PA","Mayport","Clarion","42","31","41.03","-79.22","A","GD"
"16242","PA","New Bethlehem","Clarion","42","31","41.01","-79.35","A","GD"
"16244","PA","Nu Mine","Armstrong","42","5","40.8","-79.28","A","POB"
"16245","PA","Oak Ridge","Armstrong","42","5","41.01","-79.3","A","POB"
"16246","PA","Plumville","Indiana","42","63","40.79","-79.18","A","POB"
"16248","PA","Rimersburg","Clarion","42","31","41.04","-79.51","A","GD"
"16249","PA","Rural Valley","Armstrong","42","5","40.78","-79.31","A","GD"
"16250","PA","Sagamore","Armstrong","42","5","40.78","-79.23","A","POB"
"16253","PA","Seminole","Armstrong","42","5","40.95","-79.34","A","GD"
"16254","PA","Shippenville","Clarion","42","31","41.25","-79.46","A","GD"
"16255","PA","Sligo","Clarion","42","31","41.12","-79.47","A","GD"
"16256","PA","Smicksburg","Indiana","42","63","40.87","-79.12","A","GD"
"16257","PA","Snydersburg","Clarion","42","31","41.33","-79.36","A","GD"
"16258","PA","Strattanville","Clarion","42","31","41.22","-79.3","A","GD"
"16259","PA","Templeton","Armstrong","42","5","40.92","-79.46","A","GD"
"16260","PA","Vowinckel","Clarion","42","31","41.4","-79.22","A","GD"
"16261","PA","Widnoon","Armstrong","42","5","40.96","-79.47","A","GD"
"16262","PA","Worthington","Armstrong","42","5","40.84","-79.65","A","GD"
"16263","PA","Yatesboro","Armstrong","42","5","40.8","-79.33","A","POB"
"16301","PA","Oil City","Venango","42","121","41.44","-79.68","A","GD"
"16311","PA","Carlton","Mercer","42","85","41.46","-80.02","A","GD"
"16312","PA","Chandlers Valley","Warren","42","123","41.93","-79.3","A","POB"
"16313","PA","Clarendon","Warren","42","123","41.77","-79.11","A","GD"
"16314","PA","Cochranton","Crawford","42","39","41.52","-80.06","A","GD"
"16316","PA","Conneaut Lake","Crawford","42","39","41.61","-80.3","A","GD"
"16317","PA","Cooperstown","Venango","42","121","41.52","-79.86","A","GD"
"16319","PA","Cranberry","Venango","42","121","41.32","-79.62","A","GD"
"16321","PA","East Hickory","Forest","42","53","41.58","-79.4","A","POB"
"16322","PA","Endeavor","Forest","42","53","41.6","-79.37","A","POB"
"16323","PA","Franklin","Venango","42","121","41.41","-79.84","A","GD"
"16326","PA","Fryburg","Clarion","42","31","41.36","-79.43","A","GD"
"16327","PA","Guys Mills","Crawford","42","39","41.63","-79.96","A","GD"
"16328","PA","Hydetown","Crawford","42","39","41.65","-79.72","A","POB"
"16329","PA","Irvine","Warren","42","123","41.82","-79.27","A","GD"
"16331","PA","Kossuth","Clarion","42","31","41.29","-79.57","A","GD"
"16332","PA","Lickingville","Clarion","42","31","41.37","-79.36","A","GD"
"16333","PA","Ludlow","Mckean","42","83","41.73","-78.94","A","POB"
"16334","PA","Marble","Clarion","42","31","41.32","-79.45","A","GD"
"16335","PA","Meadville","Crawford","42","39","41.63","-80.15","A","GD"
"16340","PA","Pittsfield","Warren","42","123","41.83","-79.42","A","GD"
"16341","PA","Pleasantville","Venango","42","121","41.57","-79.54","A","GD"
"16342","PA","Polk","Venango","42","121","41.35","-79.92","A","GD"
"16343","PA","Reno","Venango","42","121","41.41","-79.75","A","POB"
"16344","PA","Rouseville","Venango","42","121","41.47","-79.69","A","POB"
"16345","PA","Russell","Warren","42","123","41.95","-79.12","A","GD"
"16346","PA","Seneca","Venango","42","121","41.38","-79.69","A","GD"
"16347","PA","Sheffield","Warren","42","123","41.66","-79.04","A","GD"
"16350","PA","Sugar Grove","Warren","42","123","41.98","-79.33","A","GD"
"16351","PA","Tidioute","Warren","42","123","41.68","-79.38","A","GD"
"16352","PA","Tiona","Warren","42","123","41.77","-79.06","A","POB"
"16353","PA","Tionesta","Forest","42","53","41.49","-79.39","A","GD"
"16354","PA","Titusville","Crawford","42","39","41.62","-79.69","A","GD"
"16360","PA","Townville","Crawford","42","39","41.68","-79.89","A","GD"
"16361","PA","Tylersburg","Clarion","42","31","41.38","-79.35","A","POB"
"16362","PA","Utica","Venango","42","121","41.45","-79.96","A","GD"
"16364","PA","Venus","Venango","42","121","41.37","-79.52","A","GD"
"16365","PA","Warren","Warren","42","123","41.85","-79.15","A","GD"
"16366","PA","Warren","Warren","42","123","41.84","-79.14","A","PVT"
"16367","PA","Warren","Warren","42","123","41.85","-79.15","A","PVT"
"16368","PA","Warren","Warren","42","123","41.85","-79.15","A","PVT"
"16369","PA","Warren","Warren","42","123","41.85","-79.15","A","PVT"
"16370","PA","West Hickory","Forest","42","53","41.57","-79.42","A","POB"
"16371","PA","Youngsville","Warren","42","123","41.86","-79.32","A","GD"
"16372","PA","Clintonville","Venango","42","121","41.2","-79.87","A","POB"
"16373","PA","Emlenton","Venango","42","121","41.19","-79.7","A","GD"
"16374","PA","Kennerdell","Venango","42","121","41.26","-79.82","A","GD"
"16375","PA","Lamartine","Clarion","42","31","41.22","-79.63","A","POB"
"16388","PA","Meadville","Crawford","42","39","41.65","-80.15","A","PVT"
"16401","PA","Albion","Erie","42","49","41.89","-80.38","A","GD"
"16402","PA","Bear Lake","Warren","42","123","41.96","-79.47","A","GD"
"16403","PA","Cambridge Springs","Crawford","42","39","41.8","-80.04","A","GD"
"16404","PA","Centerville","Crawford","42","39","41.73","-79.79","A","GD"
"16405","PA","Columbus","Warren","42","123","41.94","-79.56","A","GD"
"16406","PA","Conneautville","Crawford","42","39","41.75","-80.36","A","GD"
"16407","PA","Corry","Erie","42","49","41.92","-79.66","A","GD"
"16410","PA","Cranesville","Erie","42","49","41.92","-80.33","A","GD"
"16411","PA","East Springfield","Erie","42","49","41.98","-80.43","A","GD"
"16412","PA","Edinboro","Erie","42","49","41.87","-80.15","A","GD"
"16413","PA","Elgin","Erie","42","49","41.9","-79.74","A","POB"
"16415","PA","Fairview","Erie","42","49","42.04","-80.23","A","GD"
"16416","PA","Garland","Warren","42","123","41.81","-79.45","A","POB"
"16417","PA","Girard","Erie","42","49","41.99","-80.31","A","GD"
"16420","PA","Grand Valley","Warren","42","123","41.7","-79.55","A","GD"
"16421","PA","Harborcreek","Erie","42","49","42.17","-79.94","A","GD"
"16422","PA","Harmonsburg","Crawford","42","39","41.66","-80.32","A","POB"
"16423","PA","Lake City","Erie","42","49","42.02","-80.34","A","GD"
"16424","PA","Linesville","Crawford","42","39","41.65","-80.45","A","GD"
"16426","PA","Mc Kean","Erie","42","49","41.99","-80.15","A","GD"
"16427","PA","Mill Village","Erie","42","49","41.88","-79.97","A","POB"
"16428","PA","North East","Erie","42","49","42.2","-79.83","A","GD"
"16430","PA","North Springfield","Erie","42","49","42","-80.43","A","GD"
"16432","PA","Riceville","Crawford","42","39","41.78","-79.8","A","GD"
"16433","PA","Saegertown","Crawford","42","39","41.73","-80.15","A","GD"
"16434","PA","Spartansburg","Crawford","42","39","41.8","-79.67","A","GD"
"16435","PA","Springboro","Crawford","42","39","41.82","-80.38","A","GD"
"16436","PA","Spring Creek","Warren","42","123","41.86","-79.49","A","GD"
"16438","PA","Union City","Erie","42","49","41.88","-79.84","A","GD"
"16440","PA","Venango","Crawford","42","39","41.78","-80.12","A","GD"
"16441","PA","Waterford","Erie","42","49","41.95","-79.99","A","GD"
"16442","PA","Wattsburg","Erie","42","49","42.03","-79.83","A","GD"
"16443","PA","West Springfield","Erie","42","49","41.94","-80.47","A","GD"
"16444","PA","Edinboro","Erie","42","49","41.87","-80.13","A","PVT"
"16475","PA","Albion","Erie","42","49","41.89","-80.38","A","PVT"
"16501","PA","Erie","Erie","42","49","42.12","-80.08","A","GD"
"16502","PA","Erie","Erie","42","49","42.11","-80.1","A","GD"
"16503","PA","Erie","Erie","42","49","42.13","-80.06","A","GD"
"16504","PA","Erie","Erie","42","49","42.11","-80.05","A","GD"
"16505","PA","Erie","Erie","42","49","42.1","-80.15","A","GD"
"16506","PA","Erie","Erie","42","49","42.07","-80.15","A","GD"
"16507","PA","Erie","Erie","42","49","42.13","-80.08","A","GD"
"16508","PA","Erie","Erie","42","49","42.1","-80.09","A","GD"
"16509","PA","Erie","Erie","42","49","42.07","-80.07","A","GD"
"16510","PA","Erie","Erie","42","49","42.12","-80","A","GD"
"16511","PA","Erie","Erie","42","49","42.16","-80.01","A","GD"
"16512","PA","Erie","Erie","42","49","42.11","-79.96","A","POB"
"16514","PA","Erie","Erie","42","49","42.11","-79.96","A","POB"
"16515","PA","Erie","Erie","42","49","42.11","-79.96","A","GD"
"16522","PA","Erie","Erie","42","49","42.12","-80.08","A","PVT"
"16530","PA","Erie","Erie","42","49","42.13","-80.08","A","PVT"
"16531","PA","Erie","Erie","42","49","42.16","-80.01","A","PVT"
"16534","PA","Erie","Erie","42","49","42.12","-80.09","A","PVT"
"16538","PA","Erie","Erie","42","49","42.13","-80.08","A","PVT"
"16541","PA","Erie","Erie","42","49","42.12","-80.09","A","PVT"
"16544","PA","Erie","Erie","42","49","42.11","-80.1","A","PVT"
"16546","PA","Erie","Erie","42","49","42.11","-80.05","A","PVT"
"16550","PA","Erie","Erie","42","49","42.14","-80.09","A","PVT"
"16553","PA","Erie","Erie","42","49","42.13","-80.08","A","PVT"
"16563","PA","Erie","Erie","42","49","42.12","-79.98","A","PVT"
"16565","PA","Erie","Erie","42","49","42.07","-80.1","A","GD"
"16601","PA","Altoona","Blair","42","13","40.53","-78.4","A","GD"
"16602","PA","Altoona","Blair","42","13","40.5","-78.39","A","GD"
"16603","PA","Altoona","Blair","42","13","40.52","-78.38","A","POB"
"16611","PA","Alexandria","Huntingdon","42","61","40.56","-78.1","A","GD"
"16613","PA","Ashville","Cambria","42","21","40.56","-78.54","A","GD"
"16616","PA","Beccaria","Clearfield","42","33","40.77","-78.44","A","GD"
"16617","PA","Bellwood","Blair","42","13","40.6","-78.33","A","GD"
"16619","PA","Blandburg","Cambria","42","21","40.68","-78.42","A","POB"
"16620","PA","Brisbin","Clearfield","42","33","40.84","-78.35","A","POB"
"16621","PA","Broad Top","Huntingdon","42","61","40.21","-78.14","A","GD"
"16622","PA","Calvin","Huntingdon","42","61","40.32","-78.06","A","GD"
"16623","PA","Cassville","Huntingdon","42","61","40.28","-78.04","A","GD"
"16624","PA","Chest Springs","Cambria","42","21","40.58","-78.61","A","POB"
"16625","PA","Claysburg","Blair","42","13","40.28","-78.5","A","GD"
"16627","PA","Coalport","Clearfield","42","33","40.76","-78.51","A","GD"
"16629","PA","Coupon","Cambria","42","21","40.54","-78.52","A","GD"
"16630","PA","Cresson","Cambria","42","21","40.46","-78.59","A","GD"
"16631","PA","Curryville","Blair","42","13","40.27","-78.35","A","POB"
"16633","PA","Defiance","Bedford","42","9","40.16","-78.23","A","POB"
"16634","PA","Dudley","Huntingdon","42","61","40.21","-78.18","A","POB"
"16635","PA","Duncansville","Blair","42","13","40.42","-78.45","A","GD"
"16636","PA","Dysart","Cambria","42","21","40.61","-78.52","A","GD"
"16637","PA","East Freedom","Blair","42","13","40.34","-78.45","A","GD"
"16638","PA","Entriken","Huntingdon","42","61","40.34","-78.2","A","GD"
"16639","PA","Fallentimber","Cambria","42","21","40.69","-78.46","A","GD"
"16640","PA","Flinton","Cambria","42","21","40.7","-78.56","A","GD"
"16641","PA","Gallitzin","Cambria","42","21","40.49","-78.55","A","GD"
"16644","PA","Glasgow","Cambria","42","21","40.69","-78.44","A","POB"
"16645","PA","Glen Hope","Clearfield","42","33","40.8","-78.5","A","POB"
"16646","PA","Hastings","Cambria","42","21","40.67","-78.71","A","GD"
"16647","PA","Hesston","Huntingdon","42","61","40.41","-78.1","A","GD"
"16648","PA","Hollidaysburg","Blair","42","13","40.44","-78.38","A","GD"
"16650","PA","Hopewell","Bedford","42","9","40.12","-78.28","A","GD"
"16651","PA","Houtzdale","Clearfield","42","33","40.83","-78.36","A","GD"
"16652","PA","Huntingdon","Huntingdon","42","61","40.5","-77.98","A","GD"
"16654","PA","Huntingdon","Huntingdon","42","61","40.48","-78.01","A","PVT"
"16655","PA","Imler","Bedford","42","9","40.24","-78.54","A","GD"
"16656","PA","Irvona","Clearfield","42","33","40.79","-78.56","A","GD"
"16657","PA","James Creek","Huntingdon","42","61","40.33","-78.18","A","GD"
"16659","PA","Loysburg","Bedford","42","9","40.16","-78.38","A","GD"
"16660","PA","Mc Connellstown","Huntingdon","42","61","40.45","-78.08","A","POB"
"16661","PA","Madera","Clearfield","42","33","40.83","-78.46","A","GD"
"16662","PA","Martinsburg","Blair","42","13","40.3","-78.32","A","GD"
"16663","PA","Morann","Clearfield","42","33","40.79","-78.36","A","POB"
"16664","PA","New Enterprise","Bedford","42","9","40.18","-78.42","A","GD"
"16665","PA","Newry","Blair","42","13","40.39","-78.44","A","POB"
"16666","PA","Osceola Mills","Clearfield","42","33","40.85","-78.29","A","GD"
"16667","PA","Osterburg","Bedford","42","9","40.17","-78.53","A","GD"
"16668","PA","Patton","Cambria","42","21","40.63","-78.63","A","GD"
"16669","PA","Petersburg","Huntingdon","42","61","40.64","-77.92","A","GD"
"16670","PA","Queen","Bedford","42","9","40.26","-78.51","A","GD"
"16671","PA","Ramey","Clearfield","42","33","40.8","-78.4","A","POB"
"16672","PA","Riddlesburg","Bedford","42","9","40.16","-78.25","A","POB"
"16673","PA","Roaring Spring","Blair","42","13","40.32","-78.4","A","GD"
"16674","PA","Robertsdale","Huntingdon","42","61","40.2","-78.09","A","GD"
"16675","PA","Saint Boniface","Cambria","42","21","40.67","-78.68","A","POB"
"16677","PA","Sandy Ridge","Centre","42","27","40.81","-78.23","A","POB"
"16678","PA","Saxton","Bedford","42","9","40.22","-78.25","A","GD"
"16679","PA","Six Mile Run","Bedford","42","9","40.16","-78.19","A","GD"
"16680","PA","Smithmill","Clearfield","42","33","40.75","-78.4","A","GD"
"16681","PA","Smokerun","Clearfield","42","33","40.8","-78.43","A","POB"
"16682","PA","Sproul","Blair","42","13","40.27","-78.46","A","GD"
"16683","PA","Spruce Creek","Huntingdon","42","61","40.64","-78.09","A","GD"
"16684","PA","Tipton","Blair","42","13","40.64","-78.3","A","POB"
"16685","PA","Todd","Huntingdon","42","61","40.28","-78.07","A","GD"
"16686","PA","Tyrone","Blair","42","13","40.67","-78.24","A","GD"
"16689","PA","Waterfall","Fulton","42","57","40.1","-78.09","A","GD"
"16691","PA","Wells Tannery","Fulton","42","57","40.08","-78.14","A","GD"
"16692","PA","Westover","Clearfield","42","33","40.75","-78.71","A","GD"
"16693","PA","Williamsburg","Blair","42","13","40.46","-78.22","A","GD"
"16694","PA","Wood","Bedford","42","9","40.17","-78.14","A","POB"
"16695","PA","Woodbury","Bedford","42","9","40.21","-78.37","A","GD"
"16698","PA","Houtzdale","Clearfield","42","33","40.82","-78.35","A","PVT"
"16699","PA","Cresson","Cambria","42","21","40.45","-78.56","A","PVT"
"16701","PA","Bradford","Mckean","42","83","41.94","-78.68","A","GD"
"16720","PA","Austin","Potter","42","105","41.58","-78.05","A","GD"
"16724","PA","Crosby","Mckean","42","83","41.75","-78.38","A","POB"
"16725","PA","Custer City","Mckean","42","83","41.91","-78.65","A","POB"
"16726","PA","Cyclone","Mckean","42","83","41.81","-78.57","A","GD"
"16727","PA","Derrick City","Mckean","42","83","41.98","-78.53","A","GD"
"16728","PA","De Young","Elk","42","47","41.57","-78.92","A","GD"
"16729","PA","Duke Center","Mckean","42","83","41.96","-78.48","A","GD"
"16730","PA","East Smethport","Mckean","42","83","41.82","-78.42","A","POB"
"16731","PA","Eldred","Mckean","42","83","41.96","-78.39","A","GD"
"16732","PA","Gifford","Mckean","42","83","41.85","-78.61","A","GD"
"16733","PA","Hazel Hurst","Mckean","42","83","41.71","-78.59","A","POB"
"16734","PA","James City","Elk","42","47","41.62","-78.84","A","POB"
"16735","PA","Kane","Mckean","42","83","41.65","-78.81","A","GD"
"16738","PA","Lewis Run","Mckean","42","83","41.82","-78.71","A","GD"
"16740","PA","Mount Jewett","Mckean","42","83","41.72","-78.62","A","GD"
"16743","PA","Port Allegany","Mckean","42","83","41.8","-78.27","A","GD"
"16744","PA","Rew","Mckean","42","83","41.87","-78.57","A","GD"
"16745","PA","Rixford","Mckean","42","83","41.92","-78.5","A","GD"
"16746","PA","Roulette","Potter","42","105","41.8","-78.15","A","GD"
"16748","PA","Shinglehouse","Potter","42","105","41.95","-78.16","A","GD"
"16749","PA","Smethport","Mckean","42","83","41.8","-78.44","A","GD"
"16750","PA","Turtlepoint","Mckean","42","83","41.88","-78.33","A","GD"
"16801","PA","State College","Centre","42","27","40.79","-77.85","A","GD"
"16802","PA","University Park","Centre","42","27","40.8","-77.86","A","GD"
"16803","PA","State College","Centre","42","27","40.81","-77.89","A","GD"
"16804","PA","State College","Centre","42","27","40.79","-77.84","A","POB"
"16805","PA","State College","Centre","42","27","40.79","-77.9","A","POB"
"16820","PA","Aaronsburg","Centre","42","27","40.89","-77.43","A","GD"
"16821","PA","Allport","Clearfield","42","33","40.97","-78.2","A","GD"
"16822","PA","Beech Creek","Clinton","42","35","41.13","-77.69","A","GD"
"16823","PA","Bellefonte","Centre","42","27","40.91","-77.77","A","GD"
"16825","PA","Bigler","Clearfield","42","33","40.99","-78.31","A","POB"
"16826","PA","Blanchard","Centre","42","27","41.07","-77.6","A","POB"
"16827","PA","Boalsburg","Centre","42","27","40.78","-77.78","A","GD"
"16828","PA","Centre Hall","Centre","42","27","40.83","-77.69","A","GD"
"16829","PA","Clarence","Centre","42","27","41.07","-77.9","A","GD"
"16830","PA","Clearfield","Clearfield","42","33","41.03","-78.43","A","GD"
"16832","PA","Coburn","Centre","42","27","40.86","-77.46","A","GD"
"16833","PA","Curwensville","Clearfield","42","33","40.94","-78.56","A","GD"
"16834","PA","Drifting","Clearfield","42","33","41.04","-78.11","A","POB"
"16835","PA","Fleming","Centre","42","27","40.91","-77.88","A","POB"
"16836","PA","Frenchville","Clearfield","42","33","41.13","-78.26","A","GD"
"16837","PA","Glen Richey","Clearfield","42","33","40.95","-78.47","A","GD"
"16838","PA","Grampian","Clearfield","42","33","40.98","-78.63","A","GD"
"16839","PA","Grassflat","Clearfield","42","33","41","-78.11","A","GD"
"16840","PA","Hawk Run","Clearfield","42","33","40.93","-78.2","A","GD"
"16841","PA","Howard","Centre","42","27","41.03","-77.67","A","GD"
"16843","PA","Hyde","Clearfield","42","33","41","-78.46","A","POB"
"16844","PA","Julian","Centre","42","27","40.9","-77.92","A","GD"
"16845","PA","Karthaus","Clearfield","42","33","41.15","-78.08","A","GD"
"16847","PA","Kylertown","Clearfield","42","33","40.99","-78.17","A","POB"
"16848","PA","Lamar","Clinton","42","35","41.01","-77.54","A","POB"
"16849","PA","Lanse","Clearfield","42","33","40.97","-78.12","A","POB"
"16850","PA","Lecontes Mills","Clearfield","42","33","41.08","-78.28","A","GD"
"16851","PA","Lemont","Centre","42","27","40.82","-77.81","A","POB"
"16852","PA","Madisonburg","Centre","42","27","40.93","-77.52","A","GD"
"16853","PA","Milesburg","Centre","42","27","40.94","-77.79","A","POB"
"16854","PA","Millheim","Centre","42","27","40.89","-77.48","A","GD"
"16855","PA","Mineral Springs","Clearfield","42","33","41","-78.37","A","POB"
"16856","PA","Mingoville","Centre","42","27","40.91","-77.78","A","POB"
"16858","PA","Morrisdale","Clearfield","42","33","40.98","-78.21","A","GD"
"16859","PA","Moshannon","Centre","42","27","41.03","-78.02","A","GD"
"16860","PA","Munson","Clearfield","42","33","40.95","-78.17","A","GD"
"16861","PA","New Millport","Clearfield","42","33","40.88","-78.53","A","GD"
"16863","PA","Olanta","Clearfield","42","33","40.91","-78.49","A","GD"
"16864","PA","Orviston","Centre","42","27","41.09","-77.66","A","GD"
"16865","PA","Pennsylvania Furnace","Centre","42","27","40.71","-77.97","A","GD"
"16866","PA","Philipsburg","Centre","42","27","40.89","-78.2","A","GD"
"16868","PA","Pine Grove Mills","Centre","42","27","40.73","-77.88","A","POB"
"16870","PA","Port Matilda","Centre","42","27","40.8","-78.02","A","GD"
"16871","PA","Pottersdale","Clearfield","42","33","41.19","-78.04","A","GD"
"16872","PA","Rebersburg","Centre","42","27","40.96","-77.38","A","GD"
"16873","PA","Shawville","Clearfield","42","33","41.07","-78.36","A","POB"
"16874","PA","Snow Shoe","Centre","42","27","41.02","-77.95","A","GD"
"16875","PA","Spring Mills","Centre","42","27","40.83","-77.58","A","GD"
"16876","PA","Wallaceton","Clearfield","42","33","40.96","-78.29","A","POB"
"16877","PA","Warriors Mark","Huntingdon","42","61","40.73","-78.07","A","GD"
"16878","PA","West Decatur","Clearfield","42","33","40.94","-78.31","A","GD"
"16879","PA","Winburne","Clearfield","42","33","40.97","-78.15","A","GD"
"16881","PA","Woodland","Clearfield","42","33","41.02","-78.32","A","GD"
"16882","PA","Woodward","Centre","42","27","40.91","-77.33","A","GD"
"16901","PA","Wellsboro","Tioga","42","117","41.74","-77.32","A","GD"
"16910","PA","Alba","Bradford","42","15","41.7","-76.83","A","GD"
"16911","PA","Arnot","Tioga","42","117","41.66","-77.12","A","POB"
"16912","PA","Blossburg","Tioga","42","117","41.67","-77.05","A","GD"
"16914","PA","Columbia Cross Roads","Bradford","42","15","41.86","-76.78","A","GD"
"16915","PA","Coudersport","Potter","42","105","41.8","-77.99","A","GD"
"16917","PA","Covington","Tioga","42","117","41.74","-77.07","A","GD"
"16920","PA","Elkland","Tioga","42","117","41.99","-77.3","A","GD"
"16921","PA","Gaines","Tioga","42","117","41.72","-77.56","A","GD"
"16922","PA","Galeton","Potter","42","105","41.7","-77.67","A","GD"
"16923","PA","Genesee","Potter","42","105","41.95","-77.87","A","GD"
"16925","PA","Gillett","Bradford","42","15","41.95","-76.78","A","GD"
"16926","PA","Granville Summit","Bradford","42","15","41.72","-76.71","A","GD"
"16927","PA","Harrison Valley","Potter","42","105","41.96","-77.67","A","GD"
"16928","PA","Knoxville","Tioga","42","117","41.95","-77.43","A","GD"
"16929","PA","Lawrenceville","Tioga","42","117","41.98","-77.13","A","GD"
"16930","PA","Liberty","Tioga","42","117","41.55","-77.15","A","GD"
"16932","PA","Mainesburg","Tioga","42","117","41.8","-76.94","A","GD"
"16933","PA","Mansfield","Tioga","42","117","41.81","-77.07","A","GD"
"16935","PA","Middlebury Center","Tioga","42","117","41.87","-77.32","A","GD"
"16936","PA","Millerton","Tioga","42","117","41.95","-76.95","A","GD"
"16937","PA","Mills","Potter","42","105","41.97","-77.72","A","GD"
"16938","PA","Morris","Tioga","42","117","41.56","-77.34","A","GD"
"16939","PA","Morris Run","Tioga","42","117","41.68","-77.02","A","POB"
"16940","PA","Nelson","Tioga","42","117","41.98","-77.24","A","POB"
"16941","PA","Genesee","Potter","42","105","41.99","-77.76","A","GD"
"16942","PA","Osceola","Tioga","42","117","41.97","-77.34","A","GD"
"16943","PA","Sabinsville","Tioga","42","117","41.85","-77.59","A","GD"
"16945","PA","Sylvania","Bradford","42","15","41.81","-76.86","A","POB"
"16946","PA","Tioga","Tioga","42","117","41.92","-77.14","A","GD"
"16947","PA","Troy","Bradford","42","15","41.77","-76.79","A","GD"
"16948","PA","Ulysses","Potter","42","105","41.88","-77.76","A","GD"
"16950","PA","Westfield","Tioga","42","117","41.9","-77.53","A","GD"
"17001","PA","Camp Hill","Cumberland","42","41","40.24","-76.92","A","POB"
"17002","PA","Allensville","Mifflin","42","87","40.52","-77.83","A","GD"
"17003","PA","Annville","Lebanon","42","75","40.37","-76.55","A","GD"
"17004","PA","Belleville","Mifflin","42","87","40.6","-77.73","A","GD"
"17005","PA","Berrysburg","Dauphin","42","43","40.6","-76.81","A","POB"
"17006","PA","Blain","Perry","42","99","40.31","-77.53","A","GD"
"17007","PA","Boiling Springs","Cumberland","42","41","40.14","-77.12","A","GD"
"17009","PA","Burnham","Mifflin","42","87","40.64","-77.57","A","GD"
"17010","PA","Campbelltown","Lebanon","42","75","40.28","-76.58","A","POB"
"17011","PA","Camp Hill","Cumberland","42","41","40.24","-76.93","A","GD"
"17012","PA","Camp Hill","Cumberland","42","41","40.18","-76.99","A","PVT"
"17013","PA","Carlisle","Cumberland","42","41","40.21","-77.19","A","GD"
"17014","PA","Cocolamus","Juniata","42","67","40.66","-77.1","A","GD"
"17015","PA","Carlisle","Cumberland","42","41","40.19","-77.21","A","GD"
"17016","PA","Cornwall","Lebanon","42","75","40.27","-76.4","A","POB"
"17017","PA","Dalmatia","Northumberland","42","97","40.64","-76.88","A","GD"
"17018","PA","Dauphin","Dauphin","42","43","40.38","-76.94","A","GD"
"17019","PA","Dillsburg","York","42","133","40.1","-77.03","A","GD"
"17020","PA","Duncannon","Perry","42","99","40.41","-77.03","A","GD"
"17021","PA","East Waterford","Juniata","42","67","40.35","-77.64","A","GD"
"17022","PA","Elizabethtown","Lancaster","42","71","40.16","-76.61","A","GD"
"17023","PA","Elizabethville","Dauphin","42","43","40.56","-76.82","A","GD"
"17024","PA","Elliottsburg","Perry","42","99","40.41","-77.3","A","GD"
"17025","PA","Enola","Cumberland","42","41","40.29","-76.95","A","GD"
"17026","PA","Fredericksburg","Lebanon","42","75","40.45","-76.43","A","GD"
"17027","PA","Grantham","Cumberland","42","41","40.16","-77","A","POB"
"17028","PA","Grantville","Dauphin","42","43","40.39","-76.65","A","GD"
"17029","PA","Granville","Mifflin","42","87","40.55","-77.62","A","GD"
"17030","PA","Gratz","Dauphin","42","43","40.61","-76.72","A","GD"
"17032","PA","Halifax","Dauphin","42","43","40.47","-76.88","A","GD"
"17033","PA","Hershey","Dauphin","42","43","40.28","-76.64","A","GD"
"17034","PA","Highspire","Dauphin","42","43","40.21","-76.78","A","GD"
"17035","PA","Honey Grove","Juniata","42","67","40.42","-77.59","A","GD"
"17036","PA","Hummelstown","Dauphin","42","43","40.27","-76.71","A","GD"
"17037","PA","Ickesburg","Perry","42","99","40.44","-77.41","A","GD"
"17038","PA","Jonestown","Lebanon","42","75","40.44","-76.52","A","GD"
"17039","PA","Kleinfeltersville","Lebanon","42","75","40.29","-76.24","A","POB"
"17040","PA","Landisburg","Perry","42","99","40.34","-77.31","A","GD"
"17041","PA","Lawn","Lebanon","42","75","40.22","-76.54","A","POB"
"17042","PA","Lebanon","Lebanon","42","75","40.32","-76.43","A","GD"
"17043","PA","Lemoyne","Cumberland","42","41","40.25","-76.9","A","GD"
"17044","PA","Lewistown","Mifflin","42","87","40.59","-77.58","A","GD"
"17045","PA","Liverpool","Perry","42","99","40.59","-76.99","A","GD"
"17046","PA","Lebanon","Lebanon","42","75","40.36","-76.43","A","GD"
"17047","PA","Loysville","Perry","42","99","40.37","-77.41","A","GD"
"17048","PA","Lykens","Dauphin","42","43","40.59","-76.72","A","GD"
"17049","PA","Mc Alisterville","Juniata","42","67","40.65","-77.24","A","GD"
"17050","PA","Mechanicsburg","Cumberland","42","41","40.25","-77.01","A","GD"
"17051","PA","Mc Veytown","Mifflin","42","87","40.47","-77.76","A","GD"
"17052","PA","Mapleton Depot","Huntingdon","42","61","40.34","-77.98","A","GD"
"17053","PA","Marysville","Perry","42","99","40.34","-76.96","A","GD"
"17054","PA","Mattawana","Mifflin","42","87","40.5","-77.73","A","POB"
"17055","PA","Mechanicsburg","Cumberland","42","41","40.19","-77","A","GD"
"17056","PA","Mexico","Juniata","42","67","40.54","-77.35","A","POB"
"17057","PA","Middletown","Dauphin","42","43","40.2","-76.74","A","GD"
"17058","PA","Mifflin","Juniata","42","67","40.52","-77.5","A","GD"
"17059","PA","Mifflintown","Juniata","42","67","40.58","-77.37","A","GD"
"17060","PA","Mill Creek","Huntingdon","42","61","40.45","-77.91","A","GD"
"17061","PA","Millersburg","Dauphin","42","43","40.55","-76.94","A","GD"
"17062","PA","Millerstown","Perry","42","99","40.55","-77.16","A","GD"
"17063","PA","Milroy","Mifflin","42","87","40.74","-77.53","A","GD"
"17064","PA","Mount Gretna","Lebanon","42","75","40.25","-76.47","A","POB"
"17065","PA","Mount Holly Springs","Cumberland","42","41","40.12","-77.19","A","GD"
"17066","PA","Mount Union","Huntingdon","42","61","40.37","-77.87","A","GD"
"17067","PA","Myerstown","Lebanon","42","75","40.39","-76.32","A","GD"
"17068","PA","New Bloomfield","Perry","42","99","40.41","-77.17","A","GD"
"17069","PA","New Buffalo","Perry","42","99","40.45","-76.97","A","POB"
"17070","PA","New Cumberland","York","42","133","40.22","-76.87","A","GD"
"17071","PA","New Germantown","Perry","42","99","40.3","-77.58","A","POB"
"17072","PA","New Kingstown","Cumberland","42","41","40.23","-77.08","A","POB"
"17073","PA","Newmanstown","Lebanon","42","75","40.31","-76.25","A","GD"
"17074","PA","Newport","Perry","42","99","40.48","-77.15","A","GD"
"17075","PA","Newton Hamilton","Mifflin","42","87","40.39","-77.84","A","POB"
"17076","PA","Oakland Mills","Juniata","42","67","40.62","-77.31","A","GD"
"17077","PA","Ono","Lebanon","42","75","40.4","-76.54","A","POB"
"17078","PA","Palmyra","Lebanon","42","75","40.3","-76.59","A","GD"
"17080","PA","Pillow","Dauphin","42","43","40.64","-76.8","A","POB"
"17081","PA","Plainfield","Cumberland","42","41","40.2","-77.29","A","POB"
"17082","PA","Port Royal","Juniata","42","67","40.51","-77.42","A","GD"
"17083","PA","Quentin","Lebanon","42","75","40.28","-76.44","A","POB"
"17084","PA","Reedsville","Mifflin","42","87","40.67","-77.6","A","GD"
"17085","PA","Rexmont","Lebanon","42","75","40.28","-76.38","A","POB"
"17086","PA","Richfield","Juniata","42","67","40.69","-77.12","A","GD"
"17087","PA","Richland","Lebanon","42","75","40.38","-76.26","A","GD"
"17088","PA","Schaefferstown","Lebanon","42","75","40.3","-76.3","A","POB"
"17089","PA","Camp Hill","Cumberland","42","41","40.25","-76.92","A","PVT"
"17090","PA","Shermans Dale","Perry","42","99","40.33","-77.18","A","GD"
"17093","PA","Summerdale","Cumberland","42","41","40.31","-76.93","A","POB"
"17094","PA","Thompsontown","Juniata","42","67","40.57","-77.23","A","GD"
"17097","PA","Wiconisco","Dauphin","42","43","40.57","-76.69","A","POB"
"17098","PA","Williamstown","Dauphin","42","43","40.58","-76.62","A","GD"
"17099","PA","Yeagertown","Mifflin","42","87","40.64","-77.58","A","GD"
"17101","PA","Harrisburg","Dauphin","42","43","40.26","-76.88","A","GD"
"17102","PA","Harrisburg","Dauphin","42","43","40.27","-76.89","A","GD"
"17103","PA","Harrisburg","Dauphin","42","43","40.28","-76.86","A","GD"
"17104","PA","Harrisburg","Dauphin","42","43","40.26","-76.86","A","GD"
"17105","PA","Harrisburg","Dauphin","42","43","40.3","-76.8","A","POB"
"17106","PA","Harrisburg","Dauphin","42","43","40.23","-76.82","A","POB"
"17107","PA","Harrisburg","Dauphin","42","43","40.3","-76.88","A","PVT"
"17108","PA","Harrisburg","Dauphin","42","43","40.28","-76.85","A","POB"
"17109","PA","Harrisburg","Dauphin","42","43","40.29","-76.83","A","GD"
"17110","PA","Harrisburg","Dauphin","42","43","40.3","-76.89","A","GD"
"17111","PA","Harrisburg","Dauphin","42","43","40.26","-76.8","A","GD"
"17112","PA","Harrisburg","Dauphin","42","43","40.34","-76.78","A","GD"
"17113","PA","Harrisburg","Dauphin","42","43","40.23","-76.83","A","GD"
"17120","PA","Harrisburg","Dauphin","42","43","40.27","-76.88","A","PVT"
"17121","PA","Harrisburg","Dauphin","42","43","40.31","-76.88","A","PVT"
"17122","PA","Harrisburg","Dauphin","42","43","40.26","-76.88","A","PVT"
"17123","PA","Harrisburg","Dauphin","42","43","40.26","-76.88","A","PVT"
"17124","PA","Harrisburg","Dauphin","42","43","40.26","-76.88","A","PVT"
"17125","PA","Harrisburg","Dauphin","42","43","40.26","-76.88","A","PVT"
"17126","PA","Harrisburg","Dauphin","42","43","40.26","-76.88","A","PVT"
"17127","PA","Harrisburg","Dauphin","42","43","40.26","-76.88","A","PVT"
"17128","PA","Harrisburg","Dauphin","42","43","40.26","-76.88","A","PVT"
"17129","PA","Harrisburg","Dauphin","42","43","40.26","-76.88","A","GD"
"17130","PA","Harrisburg","Dauphin","42","43","40.27","-76.89","A","PVT"
"17140","PA","Harrisburg","Dauphin","42","43","40.26","-76.81","A","PVT"
"17177","PA","Harrisburg","Dauphin","42","43","40.29","-76.81","A","PVT"
"17201","PA","Chambersburg","Franklin","42","55","39.95","-77.65","A","GD"
"17202","PA","Chambersburg","Franklin","42","55","39.91","-77.65","A","GD"
"17210","PA","Amberson","Franklin","42","55","40.2","-77.65","A","POB"
"17211","PA","Artemas","Bedford","42","9","39.75","-78.42","A","GD"
"17212","PA","Big Cove Tannery","Fulton","42","57","39.82","-78.07","A","GD"
"17213","PA","Blairs Mills","Huntingdon","42","61","40.26","-77.76","A","GD"
"17214","PA","Blue Ridge Summit","Franklin","42","55","39.73","-77.47","A","GD"
"17215","PA","Burnt Cabins","Fulton","42","57","40.09","-77.88","A","GD"
"17217","PA","Concord","Franklin","42","55","40.24","-77.71","A","GD"
"17219","PA","Doylesburg","Franklin","42","55","40.23","-77.7","A","GD"
"17220","PA","Dry Run","Franklin","42","55","40.18","-77.75","A","GD"
"17221","PA","Fannettsburg","Franklin","42","55","40.07","-77.82","A","GD"
"17222","PA","Fayetteville","Franklin","42","55","39.89","-77.52","A","GD"
"17223","PA","Fort Littleton","Fulton","42","57","40.07","-77.96","A","GD"
"17224","PA","Fort Loudon","Franklin","42","55","39.95","-77.91","A","GD"
"17225","PA","Greencastle","Franklin","42","55","39.79","-77.75","A","GD"
"17228","PA","Harrisonville","Fulton","42","57","40","-78.09","A","GD"
"17229","PA","Hustontown","Fulton","42","57","40.07","-78.02","A","GD"
"17231","PA","Lemasters","Franklin","42","55","39.86","-77.86","A","POB"
"17232","PA","Lurgan","Franklin","42","55","40.09","-77.63","A","GD"
"17233","PA","Mc Connellsburg","Fulton","42","57","39.95","-78","A","GD"
"17235","PA","Marion","Franklin","42","55","39.86","-77.7","A","POB"
"17236","PA","Mercersburg","Franklin","42","55","39.8","-77.91","A","GD"
"17237","PA","Mont Alto","Franklin","42","55","39.84","-77.55","A","GD"
"17238","PA","Needmore","Fulton","42","57","39.85","-78.14","A","GD"
"17239","PA","Neelyton","Huntingdon","42","61","40.11","-77.85","A","GD"
"17240","PA","Newburg","Cumberland","42","41","40.15","-77.56","A","GD"
"17241","PA","Newville","Cumberland","42","41","40.18","-77.41","A","GD"
"17243","PA","Orbisonia","Huntingdon","42","61","40.26","-77.86","A","GD"
"17244","PA","Orrstown","Franklin","42","55","40.08","-77.64","A","GD"
"17246","PA","Pleasant Hall","Franklin","42","55","40.05","-77.66","A","GD"
"17247","PA","Quincy","Franklin","42","55","39.8","-77.58","A","POB"
"17249","PA","Rockhill Furnace","Huntingdon","42","61","40.24","-77.9","A","POB"
"17250","PA","Rouzerville","Franklin","42","55","39.74","-77.52","A","POB"
"17251","PA","Roxbury","Franklin","42","55","40.13","-77.68","A","POB"
"17252","PA","Saint Thomas","Franklin","42","55","39.91","-77.81","A","GD"
"17253","PA","Saltillo","Huntingdon","42","61","40.21","-78.01","A","POB"
"17254","PA","Scotland","Franklin","42","55","39.97","-77.59","A","POB"
"17255","PA","Shade Gap","Huntingdon","42","61","40.15","-77.86","A","GD"
"17256","PA","Shady Grove","Franklin","42","55","39.78","-77.68","A","POB"
"17257","PA","Shippensburg","Cumberland","42","41","40.06","-77.5","A","GD"
"17260","PA","Shirleysburg","Huntingdon","42","61","40.3","-77.89","A","GD"
"17261","PA","South Mountain","Franklin","42","55","39.85","-77.5","A","POB"
"17262","PA","Spring Run","Franklin","42","55","40.14","-77.74","A","GD"
"17263","PA","State Line","Franklin","42","55","39.72","-77.72","A","POB"
"17264","PA","Three Springs","Huntingdon","42","61","40.19","-77.98","A","GD"
"17265","PA","Upperstrasburg","Franklin","42","55","40.03","-77.77","A","GD"
"17266","PA","Walnut Bottom","Cumberland","42","41","40.09","-77.41","A","GD"
"17267","PA","Warfordsburg","Fulton","42","57","39.8","-78.24","A","GD"
"17268","PA","Waynesboro","Franklin","42","55","39.77","-77.57","A","GD"
"17271","PA","Willow Hill","Franklin","42","55","40.1","-77.81","A","GD"
"17272","PA","Zullinger","Franklin","42","55","39.77","-77.62","A","POB"
"17301","PA","Abbottstown","Adams","42","1","39.89","-76.98","A","GD"
"17302","PA","Airville","York","42","133","39.81","-76.4","A","GD"
"17303","PA","Arendtsville","Adams","42","1","39.92","-77.3","A","POB"
"17304","PA","Aspers","Adams","42","1","39.98","-77.23","A","GD"
"17306","PA","Bendersville","Adams","42","1","39.98","-77.25","A","POB"
"17307","PA","Biglerville","Adams","42","1","39.94","-77.3","A","GD"
"17309","PA","Brogue","York","42","133","39.87","-76.44","A","GD"
"17310","PA","Cashtown","Adams","42","1","39.89","-77.36","A","POB"
"17311","PA","Codorus","York","42","133","39.82","-76.84","A","POB"
"17312","PA","Craley","York","42","133","39.95","-76.51","A","POB"
"17313","PA","Dallastown","York","42","133","39.9","-76.65","A","GD"
"17314","PA","Delta","York","42","133","39.75","-76.33","A","GD"
"17315","PA","Dover","York","42","133","40.01","-76.86","A","GD"
"17316","PA","East Berlin","Adams","42","1","39.96","-77.01","A","GD"
"17317","PA","East Prospect","York","42","133","39.97","-76.52","A","POB"
"17318","PA","Emigsville","York","42","133","40.02","-76.73","A","POB"
"17319","PA","Etters","York","42","133","40.15","-76.79","A","GD"
"17320","PA","Fairfield","Adams","42","1","39.76","-77.38","A","GD"
"17321","PA","Fawn Grove","York","42","133","39.75","-76.44","A","GD"
"17322","PA","Felton","York","42","133","39.85","-76.55","A","GD"
"17323","PA","Franklintown","York","42","133","40.07","-77.03","A","POB"
"17324","PA","Gardners","Adams","42","1","40.03","-77.22","A","GD"
"17325","PA","Gettysburg","Adams","42","1","39.83","-77.22","A","GD"
"17327","PA","Glen Rock","York","42","133","39.78","-76.75","A","GD"
"17329","PA","Glenville","York","42","133","39.76","-76.85","A","GD"
"17331","PA","Hanover","York","42","133","39.8","-76.98","A","GD"
"17332","PA","Hanover","York","42","133","39.8","-76.99","A","PVT"
"17333","PA","Hanover","York","42","133","39.82","-76.99","A","PVT"
"17334","PA","Hanover","York","42","133","39.8","-76.97","A","PVT"
"17335","PA","Hanover","York","42","133","39.81","-76.98","A","PVT"
"17337","PA","Idaville","Adams","42","1","40.02","-77.2","A","POB"
"17339","PA","Lewisberry","York","42","133","40.14","-76.87","A","GD"
"17340","PA","Littlestown","Adams","42","1","39.75","-77.11","A","GD"
"17342","PA","Loganville","York","42","133","39.85","-76.71","A","POB"
"17343","PA","Mc Knightstown","Adams","42","1","39.87","-77.33","A","POB"
"17344","PA","Mc Sherrystown","Adams","42","1","39.81","-77.02","A","GD"
"17345","PA","Manchester","York","42","133","40.07","-76.72","A","GD"
"17347","PA","Mount Wolf","York","42","133","40.07","-76.7","A","GD"
"17349","PA","New Freedom","York","42","133","39.75","-76.68","A","GD"
"17350","PA","New Oxford","Adams","42","1","39.88","-77.07","A","GD"
"17352","PA","New Park","York","42","133","39.77","-76.5","A","GD"
"17353","PA","Orrtanna","Adams","42","1","39.88","-77.39","A","GD"
"17354","PA","Porters Sideling","York","42","133","39.85","-76.88","A","GD"
"17355","PA","Railroad","York","42","133","39.76","-76.7","A","POB"
"17356","PA","Red Lion","York","42","133","39.9","-76.6","A","GD"
"17358","PA","Rossville","York","42","133","40.07","-76.93","A","POB"
"17360","PA","Seven Valleys","York","42","133","39.85","-76.76","A","GD"
"17361","PA","Shrewsbury","York","42","133","39.76","-76.68","A","GD"
"17362","PA","Spring Grove","York","42","133","39.86","-76.86","A","GD"
"17363","PA","Stewartstown","York","42","133","39.77","-76.59","A","GD"
"17364","PA","Thomasville","York","42","133","39.92","-76.9","A","GD"
"17365","PA","Wellsville","York","42","133","40.06","-76.94","A","GD"
"17366","PA","Windsor","York","42","133","39.93","-76.56","A","GD"
"17368","PA","Wrightsville","York","42","133","40","-76.52","A","GD"
"17370","PA","York Haven","York","42","133","40.12","-76.76","A","GD"
"17371","PA","York New Salem","York","42","133","39.9","-76.79","A","POB"
"17372","PA","York Springs","Adams","42","1","40","-77.11","A","GD"
"17375","PA","Peach Glen","Adams","42","1","39.97","-77.23","A","GD"
"17401","PA","York","York","42","133","39.96","-76.73","A","GD"
"17402","PA","York","York","42","133","39.96","-76.67","A","GD"
"17403","PA","York","York","42","133","39.95","-76.71","A","GD"
"17404","PA","York","York","42","133","39.98","-76.76","A","GD"
"17405","PA","York","York","42","133","39.97","-76.68","A","POB"
"17406","PA","York","York","42","133","40","-76.66","A","GD"
"17407","PA","York","York","42","133","39.88","-76.71","A","GD"
"17408","PA","York","York","42","133","39.95","-76.8","A","GD"
"17501","PA","Akron","Lancaster","42","71","40.16","-76.2","A","GD"
"17502","PA","Bainbridge","Lancaster","42","71","40.1","-76.67","A","GD"
"17503","PA","Bart","Lancaster","42","71","39.94","-76.09","A","POB"
"17504","PA","Bausman","Lancaster","42","71","40.06","-76.34","A","POB"
"17505","PA","Bird In Hand","Lancaster","42","71","40.06","-76.19","A","GD"
"17506","PA","Blue Ball","Lancaster","42","71","40.12","-76.05","A","POB"
"17507","PA","Bowmansville","Lancaster","42","71","40.2","-76.02","A","POB"
"17508","PA","Brownstown","Lancaster","42","71","40.13","-76.22","A","POB"
"17509","PA","Christiana","Lancaster","42","71","39.92","-76.03","A","GD"
"17512","PA","Columbia","Lancaster","42","71","40.04","-76.49","A","GD"
"17516","PA","Conestoga","Lancaster","42","71","39.95","-76.36","A","GD"
"17517","PA","Denver","Lancaster","42","71","40.23","-76.11","A","GD"
"17518","PA","Drumore","Lancaster","42","71","39.8","-76.26","A","GD"
"17519","PA","East Earl","Lancaster","42","71","40.14","-76.02","A","GD"
"17520","PA","East Petersburg","Lancaster","42","71","40.1","-76.35","A","GD"
"17521","PA","Elm","Lancaster","42","71","40.2","-76.35","A","POB"
"17522","PA","Ephrata","Lancaster","42","71","40.18","-76.18","A","GD"
"17527","PA","Gap","Lancaster","42","71","40.01","-75.99","A","GD"
"17528","PA","Goodville","Lancaster","42","71","40.13","-76.01","A","POB"
"17529","PA","Gordonville","Lancaster","42","71","40.04","-76.11","A","GD"
"17532","PA","Holtwood","Lancaster","42","71","39.85","-76.3","A","GD"
"17533","PA","Hopeland","Lancaster","42","71","40.23","-76.27","A","POB"
"17534","PA","Intercourse","Lancaster","42","71","40.05","-76.12","A","POB"
"17535","PA","Kinzers","Lancaster","42","71","40.01","-76.05","A","GD"
"17536","PA","Kirkwood","Lancaster","42","71","39.85","-76.07","A","GD"
"17537","PA","Lampeter","Lancaster","42","71","39.99","-76.24","A","POB"
"17538","PA","Landisville","Lancaster","42","71","40.09","-76.42","A","GD"
"17540","PA","Leola","Lancaster","42","71","40.1","-76.2","A","GD"
"17543","PA","Lititz","Lancaster","42","71","40.16","-76.3","A","GD"
"17545","PA","Manheim","Lancaster","42","71","40.17","-76.41","A","GD"
"17547","PA","Marietta","Lancaster","42","71","40.06","-76.57","A","GD"
"17549","PA","Martindale","Lancaster","42","71","40.15","-76.09","A","POB"
"17550","PA","Maytown","Lancaster","42","71","40.07","-76.58","A","POB"
"17551","PA","Millersville","Lancaster","42","71","39.99","-76.36","A","GD"
"17552","PA","Mount Joy","Lancaster","42","71","40.11","-76.51","A","GD"
"17554","PA","Mountville","Lancaster","42","71","40.04","-76.43","A","GD"
"17555","PA","Narvon","Lancaster","42","71","40.13","-75.97","A","GD"
"17557","PA","New Holland","Lancaster","42","71","40.1","-76.07","A","GD"
"17560","PA","New Providence","Lancaster","42","71","39.92","-76.22","A","GD"
"17562","PA","Paradise","Lancaster","42","71","39.99","-76.1","A","GD"
"17563","PA","Peach Bottom","Lancaster","42","71","39.77","-76.19","A","GD"
"17564","PA","Penryn","Lancaster","42","71","40.16","-76.37","A","POB"
"17565","PA","Pequea","Lancaster","42","71","39.9","-76.33","A","GD"
"17566","PA","Quarryville","Lancaster","42","71","39.88","-76.15","A","GD"
"17567","PA","Reamstown","Lancaster","42","71","40.21","-76.12","A","POB"
"17568","PA","Refton","Lancaster","42","71","39.95","-76.23","A","POB"
"17569","PA","Reinholds","Lancaster","42","71","40.26","-76.09","A","GD"
"17570","PA","Rheems","Lancaster","42","71","40.13","-76.57","A","POB"
"17572","PA","Ronks","Lancaster","42","71","40.01","-76.15","A","GD"
"17573","PA","Lancaster","Lancaster","42","71","40.03","-76.17","A","PVT"
"17575","PA","Silver Spring","Lancaster","42","71","40.07","-76.43","A","POB"
"17576","PA","Smoketown","Lancaster","42","71","40.04","-76.2","A","GD"
"17578","PA","Stevens","Lancaster","42","71","40.23","-76.16","A","GD"
"17579","PA","Strasburg","Lancaster","42","71","39.96","-76.18","A","GD"
"17580","PA","Talmage","Lancaster","42","71","40.12","-76.21","A","POB"
"17581","PA","Terre Hill","Lancaster","42","71","40.16","-76.05","A","GD"
"17582","PA","Washington Boro","Lancaster","42","71","39.99","-76.45","A","GD"
"17583","PA","West Willow","Lancaster","42","71","39.97","-76.29","A","POB"
"17584","PA","Willow Street","Lancaster","42","71","39.96","-76.27","A","GD"
"17585","PA","Witmer","Lancaster","42","71","40.05","-76.21","A","POB"
"17601","PA","Lancaster","Lancaster","42","71","40.07","-76.32","A","GD"
"17602","PA","Lancaster","Lancaster","42","71","40.03","-76.28","A","GD"
"17603","PA","Lancaster","Lancaster","42","71","40.03","-76.33","A","GD"
"17604","PA","Lancaster","Lancaster","42","71","40.1","-76.28","A","POB"
"17605","PA","Lancaster","Lancaster","42","71","40.02","-76.25","A","POB"
"17606","PA","Lancaster","Lancaster","42","71","40.11","-76.3","A","POB"
"17607","PA","Lancaster","Lancaster","42","71","40.03","-76.35","A","POB"
"17608","PA","Lancaster","Lancaster","42","71","40.03","-76.35","A","POB"
"17611","PA","Lancaster","Lancaster","42","71","40.04","-76.31","A","GD"
"17622","PA","Lancaster","Lancaster","42","71","40.04","-76.31","A","PVT"
"17699","PA","Lancaster","Lancaster","42","71","40.04","-76.3","A","PVT"
"17701","PA","Williamsport","Lycoming","42","81","41.26","-77.01","A","GD"
"17702","PA","Williamsport","Lycoming","42","81","41.22","-77.02","A","GD"
"17703","PA","Williamsport","Lycoming","42","81","41.24","-77","A","POB"
"17705","PA","Williamsport","Lycoming","42","81","41.24","-77.04","A","PVT"
"17720","PA","Antes Fort","Lycoming","42","81","41.24","-77.05","A","POB"
"17721","PA","Avis","Clinton","42","35","41.18","-77.32","A","POB"
"17723","PA","Cammal","Lycoming","42","81","41.42","-77.49","A","GD"
"17724","PA","Canton","Bradford","42","15","41.66","-76.82","A","GD"
"17726","PA","Castanea","Clinton","42","35","41.12","-77.43","A","POB"
"17727","PA","Cedar Run","Lycoming","42","81","41.51","-77.5","A","GD"
"17728","PA","Cogan Station","Lycoming","42","81","41.32","-77.08","A","GD"
"17729","PA","Cross Fork","Potter","42","105","41.48","-77.76","A","GD"
"17730","PA","Dewart","Northumberland","42","97","41.11","-76.88","A","POB"
"17731","PA","Eagles Mere","Sullivan","42","113","41.42","-76.58","A","POB"
"17735","PA","Grover","Bradford","42","15","41.61","-76.87","A","POB"
"17737","PA","Hughesville","Lycoming","42","81","41.26","-76.7","A","GD"
"17739","PA","Jersey Mills","Lycoming","42","81","41.39","-77.42","A","POB"
"17740","PA","Jersey Shore","Lycoming","42","81","41.22","-77.27","A","GD"
"17742","PA","Lairdsville","Lycoming","42","81","41.23","-76.61","A","GD"
"17744","PA","Linden","Lycoming","42","81","41.23","-77.16","A","GD"
"17745","PA","Lock Haven","Clinton","42","35","41.18","-77.43","A","GD"
"17747","PA","Loganton","Clinton","42","35","41.04","-77.31","A","GD"
"17748","PA","Mc Elhattan","Clinton","42","35","41.15","-77.35","A","POB"
"17749","PA","Mc Ewensville","Northumberland","42","97","41.07","-76.82","A","POB"
"17750","PA","Mackeyville","Clinton","42","35","41.06","-77.46","A","POB"
"17751","PA","Mill Hall","Clinton","42","35","41.11","-77.5","A","GD"
"17752","PA","Montgomery","Lycoming","42","81","41.17","-76.89","A","GD"
"17754","PA","Montoursville","Lycoming","42","81","41.27","-76.91","A","GD"
"17756","PA","Muncy","Lycoming","42","81","41.21","-76.75","A","GD"
"17758","PA","Muncy Valley","Sullivan","42","113","41.35","-76.55","A","GD"
"17760","PA","North Bend","Clinton","42","35","41.38","-77.67","A","POB"
"17762","PA","Picture Rocks","Lycoming","42","81","41.28","-76.71","A","POB"
"17763","PA","Ralston","Lycoming","42","81","41.52","-76.97","A","POB"
"17764","PA","Renovo","Clinton","42","35","41.34","-77.8","A","GD"
"17765","PA","Roaring Branch","Tioga","42","117","41.57","-76.96","A","GD"
"17768","PA","Shunk","Sullivan","42","113","41.55","-76.74","A","GD"
"17769","PA","Slate Run","Lycoming","42","81","41.2","-77.25","A","POB"
"17771","PA","Trout Run","Lycoming","42","81","41.44","-77.04","A","GD"
"17772","PA","Turbotville","Northumberland","42","97","41.1","-76.74","A","GD"
"17774","PA","Unityville","Lycoming","42","81","41.25","-76.55","A","GD"
"17776","PA","Waterville","Lycoming","42","81","41.4","-77.33","A","GD"
"17777","PA","Watsontown","Northumberland","42","97","41.09","-76.85","A","GD"
"17778","PA","Westport","Clinton","42","35","41.29","-77.95","A","GD"
"17779","PA","Woolrich","Clinton","42","35","41.2","-77.38","A","POB"
"17801","PA","Sunbury","Northumberland","42","97","40.85","-76.76","A","GD"
"17810","PA","Allenwood","Lycoming","42","81","41.12","-76.99","A","GD"
"17812","PA","Beaver Springs","Snyder","42","109","40.75","-77.22","A","GD"
"17813","PA","Beavertown","Snyder","42","109","40.77","-77.17","A","GD"
"17814","PA","Benton","Columbia","42","37","41.24","-76.37","A","GD"
"17815","PA","Bloomsburg","Columbia","42","37","41.01","-76.43","A","GD"
"17820","PA","Catawissa","Columbia","42","37","40.91","-76.44","A","GD"
"17821","PA","Danville","Montour","42","93","40.98","-76.63","A","GD"
"17822","PA","Danville","Montour","42","93","40.97","-76.61","A","PVT"
"17823","PA","Dornsife","Northumberland","42","97","40.72","-76.74","A","GD"
"17824","PA","Elysburg","Northumberland","42","97","40.86","-76.52","A","GD"
"17827","PA","Freeburg","Snyder","42","109","40.76","-76.95","A","GD"
"17829","PA","Hartleton","Union","42","119","40.9","-77.16","A","POB"
"17830","PA","Herndon","Northumberland","42","97","40.69","-76.81","A","GD"
"17831","PA","Hummels Wharf","Snyder","42","109","40.77","-76.96","A","POB"
"17832","PA","Marion Heights","Northumberland","42","97","40.81","-76.46","A","POB"
"17833","PA","Kreamer","Snyder","42","109","40.8","-76.97","A","POB"
"17834","PA","Kulpmont","Northumberland","42","97","40.79","-76.47","A","GD"
"17835","PA","Laurelton","Union","42","119","40.88","-77.2","A","POB"
"17836","PA","Leck Kill","Northumberland","42","97","40.72","-76.6","A","GD"
"17837","PA","Lewisburg","Union","42","119","40.97","-76.92","A","GD"
"17840","PA","Locust Gap","Northumberland","42","97","40.77","-76.44","A","POB"
"17841","PA","Mc Clure","Snyder","42","109","40.72","-77.34","A","GD"
"17842","PA","Middleburg","Snyder","42","109","40.8","-77.03","A","GD"
"17843","PA","Beaver Springs","Snyder","42","109","40.75","-77.21","A","GD"
"17844","PA","Mifflinburg","Union","42","119","40.94","-77.07","A","GD"
"17845","PA","Millmont","Union","42","119","40.88","-77.2","A","GD"
"17846","PA","Millville","Columbia","42","37","41.13","-76.51","A","GD"
"17847","PA","Milton","Northumberland","42","97","41.01","-76.83","A","GD"
"17850","PA","Montandon","Northumberland","42","97","40.97","-76.86","A","POB"
"17851","PA","Mount Carmel","Northumberland","42","97","40.8","-76.42","A","GD"
"17853","PA","Mount Pleasant Mills","Snyder","42","109","40.7","-77","A","GD"
"17855","PA","New Berlin","Union","42","119","40.88","-76.98","A","GD"
"17856","PA","New Columbia","Union","42","119","41.05","-76.9","A","GD"
"17857","PA","Northumberland","Northumberland","42","97","40.91","-76.79","A","GD"
"17858","PA","Numidia","Columbia","42","37","40.88","-76.4","A","POB"
"17859","PA","Orangeville","Columbia","42","37","41.1","-76.4","A","GD"
"17860","PA","Paxinos","Northumberland","42","97","40.84","-76.63","A","GD"
"17861","PA","Paxtonville","Snyder","42","109","40.77","-77.08","A","POB"
"17862","PA","Penns Creek","Snyder","42","109","40.86","-77.06","A","POB"
"17864","PA","Port Trevorton","Snyder","42","109","40.69","-76.9","A","GD"
"17865","PA","Potts Grove","Northumberland","42","97","40.99","-76.79","A","POB"
"17866","PA","Coal Township","Northumberland","42","97","40.78","-76.56","A","GD"
"17867","PA","Rebuck","Northumberland","42","97","40.72","-76.69","A","GD"
"17868","PA","Riverside","Northumberland","42","97","40.96","-76.63","A","POB"
"17870","PA","Selinsgrove","Snyder","42","109","40.82","-76.87","A","GD"
"17872","PA","Shamokin","Northumberland","42","97","40.78","-76.56","A","GD"
"17876","PA","Shamokin Dam","Snyder","42","109","40.85","-76.82","A","GD"
"17877","PA","Snydertown","Northumberland","42","97","40.88","-76.67","A","POB"
"17878","PA","Stillwater","Columbia","42","37","41.17","-76.33","A","GD"
"17880","PA","Swengel","Union","42","119","40.89","-77.12","A","POB"
"17881","PA","Trevorton","Northumberland","42","97","40.78","-76.68","A","GD"
"17882","PA","Troxelville","Snyder","42","109","40.8","-77.21","A","POB"
"17883","PA","Vicksburg","Union","42","119","40.94","-76.99","A","POB"
"17884","PA","Washingtonville","Montour","42","93","41.05","-76.67","A","POB"
"17885","PA","Weikert","Union","42","119","40.85","-77.31","A","POB"
"17886","PA","West Milton","Union","42","119","41.02","-76.87","A","GD"
"17887","PA","White Deer","Union","42","119","41.08","-76.9","A","POB"
"17888","PA","Wilburton","Columbia","42","37","40.81","-76.38","A","GD"
"17889","PA","Winfield","Union","42","119","40.89","-76.92","A","GD"
"17901","PA","Pottsville","Schuylkill","42","107","40.69","-76.22","A","GD"
"17920","PA","Aristes","Columbia","42","37","40.82","-76.34","A","POB"
"17921","PA","Ashland","Schuylkill","42","107","40.77","-76.35","A","GD"
"17922","PA","Auburn","Schuylkill","42","107","40.59","-76.13","A","GD"
"17923","PA","Branchdale","Schuylkill","42","107","40.66","-76.32","A","POB"
"17925","PA","Brockton","Schuylkill","42","107","40.75","-76.07","A","POB"
"17929","PA","Cressona","Schuylkill","42","107","40.63","-76.19","A","GD"
"17930","PA","Cumbola","Schuylkill","42","107","40.71","-76.14","A","POB"
"17931","PA","Frackville","Schuylkill","42","107","40.78","-76.23","A","GD"
"17932","PA","Frackville","Schuylkill","42","107","40.78","-76.23","A","PVT"
"17933","PA","Friedensburg","Schuylkill","42","107","40.6","-76.24","A","POB"
"17934","PA","Gilberton","Schuylkill","42","107","40.8","-76.22","A","GD"
"17935","PA","Girardville","Schuylkill","42","107","40.79","-76.28","A","GD"
"17936","PA","Gordon","Schuylkill","42","107","40.75","-76.34","A","POB"
"17938","PA","Hegins","Schuylkill","42","107","40.65","-76.49","A","GD"
"17941","PA","Klingerstown","Schuylkill","42","107","40.69","-76.63","A","GD"
"17943","PA","Lavelle","Schuylkill","42","107","40.76","-76.38","A","POB"
"17944","PA","Llewellyn","Schuylkill","42","107","40.67","-76.28","A","POB"
"17945","PA","Locustdale","Schuylkill","42","107","40.78","-76.37","A","POB"
"17946","PA","Lost Creek","Schuylkill","42","107","40.81","-76.25","A","POB"
"17948","PA","Mahanoy City","Schuylkill","42","107","40.82","-76.14","A","GD"
"17949","PA","Mahanoy Plane","Schuylkill","42","107","40.79","-76.24","A","POB"
"17951","PA","Mar Lin","Schuylkill","42","107","40.68","-76.25","A","POB"
"17952","PA","Mary D","Schuylkill","42","107","40.76","-76.06","A","POB"
"17953","PA","Middleport","Schuylkill","42","107","40.74","-76.1","A","POB"
"17954","PA","Minersville","Schuylkill","42","107","40.69","-76.26","A","GD"
"17957","PA","Muir","Schuylkill","42","107","40.59","-76.52","A","GD"
"17959","PA","New Philadelphia","Schuylkill","42","107","40.73","-76.13","A","GD"
"17960","PA","New Ringgold","Schuylkill","42","107","40.7","-75.96","A","GD"
"17961","PA","Orwigsburg","Schuylkill","42","107","40.65","-76.08","A","GD"
"17963","PA","Pine Grove","Schuylkill","42","107","40.56","-76.38","A","GD"
"17964","PA","Pitman","Schuylkill","42","107","40.71","-76.52","A","GD"
"17965","PA","Port Carbon","Schuylkill","42","107","40.7","-76.17","A","GD"
"17966","PA","Ravine","Schuylkill","42","107","40.56","-76.33","A","POB"
"17967","PA","Ringtown","Schuylkill","42","107","40.86","-76.22","A","GD"
"17968","PA","Sacramento","Schuylkill","42","107","40.64","-76.61","A","GD"
"17970","PA","Saint Clair","Schuylkill","42","107","40.72","-76.19","A","GD"
"17972","PA","Schuylkill Haven","Schuylkill","42","107","40.61","-76.19","A","GD"
"17974","PA","Seltzer","Schuylkill","42","107","40.7","-76.24","A","POB"
"17976","PA","Shenandoah","Schuylkill","42","107","40.82","-76.2","A","GD"
"17978","PA","Spring Glen","Schuylkill","42","107","40.63","-76.62","A","GD"
"17979","PA","Summit Station","Schuylkill","42","107","40.56","-76.2","A","POB"
"17980","PA","Tower City","Schuylkill","42","107","40.58","-76.56","A","GD"
"17981","PA","Tremont","Schuylkill","42","107","40.63","-76.4","A","GD"
"17982","PA","Tuscarora","Schuylkill","42","107","40.77","-76.03","A","POB"
"17983","PA","Valley View","Schuylkill","42","107","40.64","-76.54","A","GD"
"17985","PA","Zion Grove","Schuylkill","42","107","40.91","-76.2","A","GD"
"18001","PA","Lehigh Valley","Northampton","42","95","40.58","-75.47","A","POB"
"18002","PA","Lehigh Valley","Northampton","42","95","40.58","-75.47","A","POB"
"18003","PA","Lehigh Valley","Northampton","42","95","40.64","-75.44","A","PVT"
"18011","PA","Alburtis","Lehigh","42","77","40.5","-75.62","A","GD"
"18012","PA","Aquashicola","Carbon","42","25","40.81","-75.77","A","POB"
"18013","PA","Bangor","Northampton","42","95","40.86","-75.19","A","GD"
"18014","PA","Bath","Northampton","42","95","40.76","-75.41","A","GD"
"18015","PA","Bethlehem","Northampton","42","95","40.6","-75.38","A","GD"
"18016","PA","Bethlehem","Northampton","42","95","40.63","-75.39","A","GD"
"18017","PA","Bethlehem","Northampton","42","95","40.65","-75.37","A","GD"
"18018","PA","Bethlehem","Northampton","42","95","40.62","-75.39","A","GD"
"18020","PA","Bethlehem","Northampton","42","95","40.66","-75.33","A","GD"
"18025","PA","Bethlehem","Lehigh","42","77","40.63","-75.37","A","PVT"
"18030","PA","Bowmanstown","Carbon","42","25","40.8","-75.66","A","POB"
"18031","PA","Breinigsville","Lehigh","42","77","40.55","-75.64","A","GD"
"18032","PA","Catasauqua","Lehigh","42","77","40.66","-75.47","A","GD"
"18034","PA","Center Valley","Lehigh","42","77","40.54","-75.41","A","GD"
"18035","PA","Cherryville","Northampton","42","95","40.75","-75.54","A","GD"
"18036","PA","Coopersburg","Lehigh","42","77","40.51","-75.4","A","GD"
"18037","PA","Coplay","Lehigh","42","77","40.67","-75.51","A","GD"
"18038","PA","Danielsville","Northampton","42","95","40.79","-75.48","A","GD"
"18039","PA","Durham","Bucks","42","17","40.58","-75.23","A","POB"
"18040","PA","Easton","Northampton","42","95","40.73","-75.22","A","GD"
"18041","PA","East Greenville","Montgomery","42","91","40.41","-75.51","A","GD"
"18042","PA","Easton","Northampton","42","95","40.68","-75.22","A","GD"
"18043","PA","Easton","Northampton","42","95","40.69","-75.22","A","POB"
"18044","PA","Easton","Northampton","42","95","40.69","-75.22","A","POB"
"18045","PA","Easton","Northampton","42","95","40.69","-75.27","A","GD"
"18046","PA","East Texas","Lehigh","42","77","40.55","-75.56","A","POB"
"18049","PA","Emmaus","Lehigh","42","77","40.53","-75.5","A","GD"
"18051","PA","Fogelsville","Lehigh","42","77","40.59","-75.65","A","GD"
"18052","PA","Whitehall","Lehigh","42","77","40.65","-75.49","A","GD"
"18053","PA","Germansville","Lehigh","42","77","40.71","-75.71","A","GD"
"18054","PA","Green Lane","Montgomery","42","91","40.35","-75.44","A","GD"
"18055","PA","Hellertown","Northampton","42","95","40.59","-75.33","A","GD"
"18056","PA","Hereford","Berks","42","11","40.45","-75.55","A","GD"
"18058","PA","Kunkletown","Monroe","42","89","40.9","-75.49","A","GD"
"18059","PA","Laurys Station","Lehigh","42","77","40.73","-75.53","A","GD"
"18060","PA","Limeport","Lehigh","42","77","40.51","-75.45","A","POB"
"18062","PA","Macungie","Lehigh","42","77","40.52","-75.57","A","GD"
"18063","PA","Martins Creek","Northampton","42","95","40.78","-75.18","A","POB"
"18064","PA","Nazareth","Northampton","42","95","40.75","-75.32","A","GD"
"18065","PA","Neffs","Lehigh","42","77","40.7","-75.61","A","POB"
"18066","PA","New Tripoli","Lehigh","42","77","40.66","-75.74","A","GD"
"18067","PA","Northampton","Northampton","42","95","40.69","-75.49","A","GD"
"18068","PA","Old Zionsville","Lehigh","42","77","40.48","-75.52","A","POB"
"18069","PA","Orefield","Lehigh","42","77","40.62","-75.6","A","GD"
"18070","PA","Palm","Montgomery","42","91","40.43","-75.54","A","GD"
"18071","PA","Palmerton","Carbon","42","25","40.81","-75.6","A","GD"
"18072","PA","Pen Argyl","Northampton","42","95","40.85","-75.25","A","GD"
"18073","PA","Pennsburg","Montgomery","42","91","40.39","-75.49","A","GD"
"18074","PA","Perkiomenville","Montgomery","42","91","40.32","-75.51","A","GD"
"18076","PA","Red Hill","Montgomery","42","91","40.38","-75.48","A","GD"
"18077","PA","Riegelsville","Bucks","42","17","40.58","-75.22","A","GD"
"18078","PA","Schnecksville","Lehigh","42","77","40.67","-75.61","A","GD"
"18079","PA","Slatedale","Lehigh","42","77","40.74","-75.66","A","POB"
"18080","PA","Slatington","Lehigh","42","77","40.74","-75.62","A","GD"
"18081","PA","Springtown","Bucks","42","17","40.56","-75.29","A","POB"
"18083","PA","Stockertown","Northampton","42","95","40.75","-75.27","A","POB"
"18084","PA","Sumneytown","Montgomery","42","91","40.32","-75.45","A","POB"
"18085","PA","Tatamy","Northampton","42","95","40.74","-75.25","A","POB"
"18086","PA","Treichlers","Northampton","42","95","40.74","-75.55","A","POB"
"18087","PA","Trexlertown","Lehigh","42","77","40.55","-75.6","A","GD"
"18088","PA","Walnutport","Northampton","42","95","40.76","-75.57","A","GD"
"18091","PA","Wind Gap","Northampton","42","95","40.83","-75.31","A","GD"
"18092","PA","Zionsville","Lehigh","42","77","40.47","-75.52","A","GD"
"18098","PA","Emmaus","Lehigh","42","77","40.53","-75.5","A","PVT"
"18099","PA","Emmaus","Lehigh","42","77","40.54","-75.5","A","PVT"
"18101","PA","Allentown","Lehigh","42","77","40.6","-75.47","A","GD"
"18102","PA","Allentown","Lehigh","42","77","40.61","-75.48","A","GD"
"18103","PA","Allentown","Lehigh","42","77","40.58","-75.47","A","GD"
"18104","PA","Allentown","Lehigh","42","77","40.6","-75.52","A","GD"
"18105","PA","Allentown","Lehigh","42","77","40.6","-75.49","A","POB"
"18106","PA","Allentown","Lehigh","42","77","40.57","-75.59","A","GD"
"18109","PA","Allentown","Lehigh","42","77","40.62","-75.44","A","GD"
"18195","PA","Allentown","Lehigh","42","77","40.58","-75.62","A","GD"
"18201","PA","Hazleton","Luzerne","42","79","40.96","-75.98","A","GD"
"18202","PA","Hazleton","Luzerne","42","79","40.96","-76.03","A","GD"
"18210","PA","Albrightsville","Carbon","42","25","41","-75.56","A","GD"
"18211","PA","Andreas","Schuylkill","42","107","40.75","-75.83","A","GD"
"18212","PA","Ashfield","Carbon","42","25","40.78","-75.71","A","POB"
"18214","PA","Barnesville","Schuylkill","42","107","40.82","-76.07","A","GD"
"18216","PA","Beaver Meadows","Luzerne","42","79","40.93","-75.92","A","GD"
"18218","PA","Coaldale","Schuylkill","42","107","40.82","-75.91","A","GD"
"18219","PA","Conyngham","Luzerne","42","79","40.99","-76.06","A","POB"
"18220","PA","Delano","Schuylkill","42","107","40.84","-76.07","A","POB"
"18221","PA","Drifton","Luzerne","42","79","41","-75.91","A","POB"
"18222","PA","Drums","Luzerne","42","79","41.03","-76","A","GD"
"18223","PA","Ebervale","Luzerne","42","79","40.98","-75.96","A","POB"
"18224","PA","Freeland","Luzerne","42","79","41.02","-75.9","A","GD"
"18225","PA","Harleigh","Luzerne","42","79","40.98","-75.97","A","POB"
"18229","PA","Jim Thorpe","Carbon","42","25","40.91","-75.69","A","GD"
"18230","PA","Junedale","Carbon","42","25","40.92","-75.94","A","POB"
"18231","PA","Kelayres","Schuylkill","42","107","40.9","-76","A","POB"
"18232","PA","Lansford","Carbon","42","25","40.83","-75.88","A","GD"
"18234","PA","Lattimer Mines","Luzerne","42","79","40.99","-75.96","A","POB"
"18235","PA","Lehighton","Carbon","42","25","40.83","-75.7","A","GD"
"18237","PA","Mcadoo","Schuylkill","42","107","40.89","-76","A","GD"
"18239","PA","Milnesville","Luzerne","42","79","40.99","-75.98","A","POB"
"18240","PA","Nesquehoning","Carbon","42","25","40.86","-75.84","A","GD"
"18241","PA","Nuremberg","Schuylkill","42","107","40.94","-76.16","A","GD"
"18242","PA","Oneida","Schuylkill","42","107","40.91","-76.13","A","POB"
"18244","PA","Parryville","Carbon","42","25","40.83","-75.68","A","POB"
"18245","PA","Quakake","Schuylkill","42","107","40.85","-76.04","A","POB"
"18246","PA","Rock Glen","Luzerne","42","79","40.96","-76.19","A","POB"
"18247","PA","Saint Johns","Luzerne","42","79","41.03","-76.01","A","POB"
"18248","PA","Sheppton","Schuylkill","42","107","40.9","-76.12","A","POB"
"18249","PA","Sugarloaf","Luzerne","42","79","40.99","-76.1","A","GD"
"18250","PA","Summit Hill","Carbon","42","25","40.83","-75.87","A","GD"
"18251","PA","Sybertsville","Luzerne","42","79","41.01","-76.08","A","POB"
"18252","PA","Tamaqua","Schuylkill","42","107","40.79","-75.98","A","GD"
"18254","PA","Tresckow","Carbon","42","25","40.91","-75.96","A","POB"
"18255","PA","Weatherly","Carbon","42","25","40.94","-75.83","A","GD"
"18256","PA","Weston","Luzerne","42","79","40.94","-76.14","A","POB"
"18301","PA","East Stroudsburg","Monroe","42","89","41.02","-75.18","A","GD"
"18302","PA","East Stroudsburg","Monroe","42","89","41.09","-75.11","A","GD"
"18320","PA","Analomink","Monroe","42","89","41.05","-75.22","A","POB"
"18321","PA","Bartonsville","Monroe","42","89","41.01","-75.29","A","GD"
"18322","PA","Brodheadsville","Monroe","42","89","40.92","-75.4","A","GD"
"18323","PA","Buck Hill Falls","Monroe","42","89","41.19","-75.27","A","POB"
"18324","PA","Bushkill","Pike","42","103","41.14","-75","A","GD"
"18325","PA","Canadensis","Monroe","42","89","41.21","-75.24","A","GD"
"18326","PA","Cresco","Monroe","42","89","41.14","-75.27","A","GD"
"18327","PA","Delaware Water Gap","Monroe","42","89","40.98","-75.14","A","POB"
"18328","PA","Dingmans Ferry","Pike","42","103","41.24","-74.96","A","GD"
"18330","PA","Effort","Monroe","42","89","40.97","-75.46","A","GD"
"18331","PA","Gilbert","Monroe","42","89","40.91","-75.44","A","GD"
"18332","PA","Henryville","Monroe","42","89","41.09","-75.27","A","GD"
"18333","PA","Kresgeville","Monroe","42","89","40.9","-75.5","A","GD"
"18334","PA","Long Pond","Monroe","42","89","41.08","-75.43","A","GD"
"18335","PA","Marshalls Creek","Monroe","42","89","41.07","-75.11","A","POB"
"18336","PA","Matamoras","Pike","42","103","41.37","-74.71","A","GD"
"18337","PA","Milford","Pike","42","103","41.33","-74.87","A","GD"
"18340","PA","Millrift","Pike","42","103","41.42","-74.77","A","POB"
"18341","PA","Minisink Hills","Monroe","42","89","41","-75.14","A","POB"
"18342","PA","Mountainhome","Monroe","42","89","41.17","-75.27","A","POB"
"18343","PA","Mount Bethel","Northampton","42","95","40.9","-75.11","A","GD"
"18344","PA","Mount Pocono","Monroe","42","89","41.12","-75.35","A","GD"
"18346","PA","Pocono Summit","Monroe","42","89","41.12","-75.4","A","GD"
"18347","PA","Pocono Lake","Monroe","42","89","41.14","-75.55","A","GD"
"18348","PA","Pocono Lake Preserve","Monroe","42","89","41.11","-75.48","A","POB"
"18349","PA","Pocono Manor","Monroe","42","89","41.1","-75.36","A","POB"
"18350","PA","Pocono Pines","Monroe","42","89","41.11","-75.46","A","GD"
"18351","PA","Portland","Northampton","42","95","40.92","-75.1","A","POB"
"18352","PA","Reeders","Monroe","42","89","41.01","-75.36","A","GD"
"18353","PA","Saylorsburg","Monroe","42","89","40.91","-75.36","A","GD"
"18354","PA","Sciota","Monroe","42","89","40.93","-75.32","A","GD"
"18355","PA","Scotrun","Monroe","42","89","41.07","-75.36","A","GD"
"18356","PA","Shawnee On Delaware","Monroe","42","89","41.01","-75.12","A","POB"
"18357","PA","Skytop","Monroe","42","89","41.23","-75.24","A","POB"
"18360","PA","Stroudsburg","Monroe","42","89","40.98","-75.26","A","GD"
"18370","PA","Swiftwater","Monroe","42","89","41.09","-75.33","A","GD"
"18371","PA","Tamiment","Pike","42","103","41.15","-75.03","A","GD"
"18372","PA","Tannersville","Monroe","42","89","41.05","-75.32","A","GD"
"18403","PA","Archbald","Lackawanna","42","69","41.5","-75.55","A","GD"
"18405","PA","Beach Lake","Wayne","42","127","41.6","-75.1","A","GD"
"18407","PA","Carbondale","Lackawanna","42","69","41.58","-75.51","A","GD"
"18410","PA","Chinchilla","Lackawanna","42","69","41.48","-75.68","A","POB"
"18411","PA","Clarks Summit","Lackawanna","42","69","41.48","-75.71","A","GD"
"18413","PA","Clifford","Susquehanna","42","115","41.65","-75.6","A","POB"
"18414","PA","Dalton","Lackawanna","42","69","41.54","-75.73","A","GD"
"18415","PA","Damascus","Wayne","42","127","41.74","-75.12","A","GD"
"18416","PA","Elmhurst","Lackawanna","42","69","41.38","-75.55","A","POB"
"18417","PA","Equinunk","Wayne","42","127","41.81","-75.2","A","GD"
"18419","PA","Factoryville","Wyoming","42","131","41.57","-75.79","A","GD"
"18420","PA","Fleetville","Lackawanna","42","69","41.6","-75.71","A","POB"
"18421","PA","Forest City","Susquehanna","42","115","41.65","-75.47","A","GD"
"18424","PA","Gouldsboro","Lackawanna","42","69","41.25","-75.48","A","GD"
"18425","PA","Greeley","Pike","42","103","41.42","-75.02","A","GD"
"18426","PA","Greentown","Pike","42","103","41.34","-75.25","A","GD"
"18427","PA","Hamlin","Wayne","42","127","41.4","-75.41","A","POB"
"18428","PA","Hawley","Pike","42","103","41.43","-75.14","A","GD"
"18430","PA","Herrick Center","Susquehanna","42","115","41.75","-75.48","A","GD"
"18431","PA","Honesdale","Wayne","42","127","41.6","-75.26","A","GD"
"18433","PA","Jermyn","Lackawanna","42","69","41.55","-75.57","A","GD"
"18434","PA","Jessup","Lackawanna","42","69","41.47","-75.56","A","GD"
"18435","PA","Lackawaxen","Pike","42","103","41.5","-75.01","A","GD"
"18436","PA","Lake Ariel","Wayne","42","127","41.43","-75.38","A","GD"
"18437","PA","Lake Como","Wayne","42","127","41.85","-75.33","A","GD"
"18438","PA","Lakeville","Wayne","42","127","41.43","-75.25","A","GD"
"18439","PA","Lakewood","Wayne","42","127","41.83","-75.35","A","GD"
"18440","PA","La Plume","Lackawanna","42","69","41.56","-75.75","A","POB"
"18441","PA","Lenoxville","Susquehanna","42","115","41.66","-75.63","A","GD"
"18443","PA","Milanville","Wayne","42","127","41.67","-75.1","A","GD"
"18444","PA","Moscow","Lackawanna","42","69","41.34","-75.53","A","GD"
"18445","PA","Newfoundland","Wayne","42","127","41.29","-75.36","A","GD"
"18446","PA","Nicholson","Wyoming","42","131","41.64","-75.75","A","GD"
"18447","PA","Olyphant","Lackawanna","42","69","41.49","-75.61","A","GD"
"18448","PA","Olyphant","Lackawanna","42","69","41.45","-75.58","A","PVT"
"18449","PA","Orson","Wayne","42","127","41.81","-75.45","A","POB"
"18451","PA","Paupack","Pike","42","103","41.41","-75.23","A","GD"
"18452","PA","Peckville","Lackawanna","42","69","41.48","-75.59","A","GD"
"18453","PA","Pleasant Mount","Wayne","42","127","41.75","-75.37","A","GD"
"18454","PA","Poyntelle","Wayne","42","127","41.83","-75.43","A","POB"
"18455","PA","Preston Park","Wayne","42","127","41.88","-75.35","A","GD"
"18456","PA","Prompton","Wayne","42","127","41.6","-75.34","A","GD"
"18457","PA","Rowland","Pike","42","103","41.47","-75.04","A","POB"
"18458","PA","Shohola","Pike","42","103","41.41","-74.93","A","GD"
"18459","PA","South Canaan","Wayne","42","127","41.5","-75.43","A","POB"
"18460","PA","South Sterling","Wayne","42","127","41.27","-75.33","A","GD"
"18461","PA","Starlight","Wayne","42","127","41.92","-75.33","A","GD"
"18462","PA","Starrucca","Wayne","42","127","41.9","-75.43","A","GD"
"18463","PA","Sterling","Wayne","42","127","41.35","-75.4","A","GD"
"18464","PA","Tafton","Pike","42","103","41.42","-75.19","A","GD"
"18465","PA","Thompson","Susquehanna","42","115","41.83","-75.52","A","GD"
"18466","PA","Tobyhanna","Monroe","42","89","41.19","-75.37","A","GD"
"18469","PA","Tyler Hill","Wayne","42","127","41.69","-75.13","A","GD"
"18470","PA","Union Dale","Susquehanna","42","115","41.72","-75.54","A","GD"
"18471","PA","Waverly","Lackawanna","42","69","41.53","-75.7","A","POB"
"18472","PA","Waymart","Wayne","42","127","41.59","-75.39","A","GD"
"18473","PA","White Mills","Wayne","42","127","41.53","-75.21","A","POB"
"18501","PA","Scranton","Lackawanna","42","69","41.37","-75.68","A","POB"
"18502","PA","Scranton","Lackawanna","42","69","41.41","-75.67","A","POB"
"18503","PA","Scranton","Lackawanna","42","69","41.41","-75.67","A","GD"
"18504","PA","Scranton","Lackawanna","42","69","41.42","-75.69","A","GD"
"18505","PA","Scranton","Lackawanna","42","69","41.39","-75.66","A","GD"
"18507","PA","Moosic","Lackawanna","42","69","41.35","-75.71","A","GD"
"18508","PA","Scranton","Lackawanna","42","69","41.44","-75.66","A","GD"
"18509","PA","Scranton","Lackawanna","42","69","41.43","-75.65","A","GD"
"18510","PA","Scranton","Lackawanna","42","69","41.41","-75.65","A","GD"
"18512","PA","Scranton","Lackawanna","42","69","41.43","-75.62","A","GD"
"18515","PA","Scranton","Lackawanna","42","69","41.45","-75.66","A","GD"
"18517","PA","Taylor","Lackawanna","42","69","41.39","-75.72","A","GD"
"18518","PA","Old Forge","Lackawanna","42","69","41.37","-75.74","A","GD"
"18519","PA","Scranton","Lackawanna","42","69","41.46","-75.63","A","GD"
"18540","PA","Scranton","Lackawanna","42","69","41.37","-75.66","A","PVT"
"18577","PA","Scranton","Lackawanna","42","69","41.42","-75.6","A","PVT"
"18601","PA","Beach Haven","Luzerne","42","79","41.07","-76.18","A","POB"
"18602","PA","Bear Creek","Luzerne","42","79","41.18","-75.75","A","POB"
"18603","PA","Berwick","Columbia","42","37","41.06","-76.25","A","GD"
"18610","PA","Blakeslee","Monroe","42","89","41.05","-75.54","A","GD"
"18611","PA","Cambra","Luzerne","42","79","41.2","-76.31","A","POB"
"18612","PA","Dallas","Luzerne","42","79","41.35","-75.98","A","GD"
"18614","PA","Dushore","Sullivan","42","113","41.5","-76.38","A","GD"
"18615","PA","Falls","Wyoming","42","131","41.46","-75.85","A","GD"
"18616","PA","Forksville","Sullivan","42","113","41.51","-76.62","A","GD"
"18617","PA","Glen Lyon","Luzerne","42","79","41.18","-76.07","A","GD"
"18618","PA","Harveys Lake","Luzerne","42","79","41.36","-76.04","A","GD"
"18619","PA","Hillsgrove","Sullivan","42","113","41.46","-76.7","A","GD"
"18621","PA","Hunlock Creek","Luzerne","42","79","41.26","-76.09","A","GD"
"18622","PA","Huntington Mills","Luzerne","42","79","41.2","-76.27","A","GD"
"18623","PA","Laceyville","Wyoming","42","131","41.66","-76.14","A","GD"
"18624","PA","Lake Harmony","Carbon","42","25","41.06","-75.6","A","POB"
"18625","PA","Lake Winola","Wyoming","42","131","41.51","-75.85","A","POB"
"18626","PA","Laporte","Sullivan","42","113","41.42","-76.5","A","POB"
"18627","PA","Lehman","Luzerne","42","79","41.32","-76.02","A","POB"
"18628","PA","Lopez","Sullivan","42","113","41.44","-76.32","A","GD"
"18629","PA","Mehoopany","Wyoming","42","131","41.55","-76.12","A","GD"
"18630","PA","Meshoppen","Susquehanna","42","115","41.65","-76.03","A","GD"
"18631","PA","Mifflinville","Columbia","42","37","41.03","-76.31","A","POB"
"18632","PA","Mildred","Sullivan","42","113","41.48","-76.38","A","GD"
"18634","PA","Nanticoke","Luzerne","42","79","41.2","-76","A","GD"
"18635","PA","Nescopeck","Luzerne","42","79","41.04","-76.21","A","GD"
"18636","PA","Noxen","Wyoming","42","131","41.4","-76.07","A","GD"
"18640","PA","Pittston","Luzerne","42","79","41.31","-75.78","A","GD"
"18641","PA","Pittston","Luzerne","42","79","41.33","-75.74","A","GD"
"18642","PA","Duryea","Luzerne","42","79","41.35","-75.77","A","GD"
"18643","PA","Pittston","Luzerne","42","79","41.34","-75.82","A","GD"
"18644","PA","Wyoming","Luzerne","42","79","41.32","-75.85","A","GD"
"18651","PA","Plymouth","Luzerne","42","79","41.24","-75.95","A","GD"
"18653","PA","Ransom","Lackawanna","42","69","41.4","-75.82","A","POB"
"18654","PA","Shawanese","Luzerne","42","79","41.35","-76.05","A","POB"
"18655","PA","Shickshinny","Luzerne","42","79","41.18","-76.19","A","GD"
"18656","PA","Sweet Valley","Luzerne","42","79","41.31","-76.19","A","GD"
"18657","PA","Tunkhannock","Wyoming","42","131","41.53","-75.95","A","GD"
"18660","PA","Wapwallopen","Luzerne","42","79","41.1","-76.06","A","GD"
"18661","PA","White Haven","Luzerne","42","79","41.08","-75.77","A","GD"
"18690","PA","Dallas","Luzerne","42","79","41.34","-75.97","A","PVT"
"18701","PA","Wilkes Barre","Luzerne","42","79","41.24","-75.88","A","GD"
"18702","PA","Wilkes Barre","Luzerne","42","79","41.24","-75.85","A","GD"
"18703","PA","Wilkes Barre","Luzerne","42","79","41.24","-75.89","A","POB"
"18704","PA","Kingston","Luzerne","42","79","41.28","-75.89","A","GD"
"18705","PA","Wilkes Barre","Luzerne","42","79","41.27","-75.85","A","GD"
"18706","PA","Wilkes Barre","Luzerne","42","79","41.21","-75.92","A","GD"
"18707","PA","Mountain Top","Luzerne","42","79","41.13","-75.92","A","GD"
"18708","PA","Shavertown","Luzerne","42","79","41.3","-75.95","A","GD"
"18709","PA","Luzerne","Luzerne","42","79","41.28","-75.89","A","GD"
"18710","PA","Wilkes Barre","Luzerne","42","79","41.25","-75.88","A","POB"
"18711","PA","Wilkes Barre","Luzerne","42","79","41.25","-75.88","A","GD"
"18762","PA","Wilkes Barre","Luzerne","42","79","41.24","-75.9","A","PVT"
"18764","PA","Wilkes Barre","Luzerne","42","79","41.22","-75.79","A","PVT"
"18765","PA","Wilkes Barre","Luzerne","42","79","41.22","-75.79","A","PVT"
"18766","PA","Wilkes Barre","Luzerne","42","79","41.24","-75.88","A","PVT"
"18767","PA","Wilkes Barre","Luzerne","42","79","41.25","-75.87","A","PVT"
"18769","PA","Wilkes Barre","Luzerne","42","79","41.25","-75.87","A","PVT"
"18773","PA","Wilkes Barre","Luzerne","42","79","41.25","-75.89","A","POB"
"18801","PA","Montrose","Susquehanna","42","115","41.83","-75.92","A","GD"
"18810","PA","Athens","Bradford","42","15","41.95","-76.52","A","GD"
"18812","PA","Brackney","Susquehanna","42","115","41.97","-75.94","A","GD"
"18813","PA","Brooklyn","Susquehanna","42","115","41.75","-75.81","A","POB"
"18814","PA","Burlington","Bradford","42","15","41.78","-76.6","A","POB"
"18815","PA","Camptown","Bradford","42","15","41.73","-76.23","A","POB"
"18816","PA","Dimock","Susquehanna","42","115","41.75","-75.91","A","POB"
"18817","PA","East Smithfield","Bradford","42","15","41.86","-76.63","A","GD"
"18818","PA","Friendsville","Susquehanna","42","115","41.92","-76.04","A","GD"
"18820","PA","Gibson","Susquehanna","42","115","41.8","-75.64","A","POB"
"18821","PA","Great Bend","Susquehanna","42","115","41.98","-75.74","A","GD"
"18822","PA","Hallstead","Susquehanna","42","115","41.95","-75.78","A","GD"
"18823","PA","Harford","Susquehanna","42","115","41.78","-75.69","A","GD"
"18824","PA","Hop Bottom","Susquehanna","42","115","41.71","-75.78","A","GD"
"18825","PA","Jackson","Susquehanna","42","115","41.81","-75.59","A","GD"
"18826","PA","Kingsley","Susquehanna","42","115","41.74","-75.73","A","GD"
"18827","PA","Lanesboro","Susquehanna","42","115","41.96","-75.59","A","POB"
"18828","PA","Lawton","Susquehanna","42","115","41.8","-76.11","A","GD"
"18829","PA","Le Raysville","Bradford","42","15","41.83","-76.17","A","GD"
"18830","PA","Little Meadows","Susquehanna","42","115","41.96","-76.11","A","GD"
"18831","PA","Milan","Bradford","42","15","41.9","-76.58","A","GD"
"18832","PA","Monroeton","Bradford","42","15","41.7","-76.55","A","GD"
"18833","PA","New Albany","Bradford","42","15","41.59","-76.45","A","GD"
"18834","PA","New Milford","Susquehanna","42","115","41.85","-75.72","A","GD"
"18837","PA","Rome","Bradford","42","15","41.92","-76.3","A","GD"
"18840","PA","Sayre","Bradford","42","15","41.98","-76.53","A","GD"
"18842","PA","South Gibson","Susquehanna","42","115","41.75","-75.62","A","GD"
"18843","PA","South Montrose","Susquehanna","42","115","41.8","-75.9","A","POB"
"18844","PA","Springville","Susquehanna","42","115","41.7","-75.92","A","GD"
"18845","PA","Stevensville","Bradford","42","15","41.79","-76.18","A","GD"
"18846","PA","Sugar Run","Bradford","42","15","41.62","-76.24","A","GD"
"18847","PA","Susquehanna","Susquehanna","42","115","41.93","-75.58","A","GD"
"18848","PA","Towanda","Bradford","42","15","41.76","-76.46","A","GD"
"18850","PA","Ulster","Bradford","42","15","41.85","-76.5","A","GD"
"18851","PA","Warren Center","Bradford","42","15","41.93","-76.17","A","GD"
"18853","PA","Wyalusing","Bradford","42","15","41.72","-76.27","A","GD"
"18854","PA","Wysox","Bradford","42","15","41.79","-76.36","A","GD"
"18901","PA","Doylestown","Bucks","42","17","40.31","-75.14","A","GD"
"18902","PA","Doylestown","Bucks","42","17","40.35","-75.09","A","GD"
"18910","PA","Bedminster","Bucks","42","17","40.43","-75.18","A","POB"
"18911","PA","Blooming Glen","Bucks","42","17","40.37","-75.25","A","POB"
"18912","PA","Buckingham","Bucks","42","17","40.33","-75.06","A","POB"
"18913","PA","Carversville","Bucks","42","17","40.39","-75.06","A","GD"
"18914","PA","Chalfont","Bucks","42","17","40.28","-75.21","A","GD"
"18915","PA","Colmar","Montgomery","42","91","40.27","-75.26","A","GD"
"18916","PA","Danboro","Bucks","42","17","40.36","-75.14","A","POB"
"18917","PA","Dublin","Bucks","42","17","40.37","-75.2","A","GD"
"18918","PA","Earlington","Montgomery","42","91","40.32","-75.38","A","POB"
"18920","PA","Erwinna","Bucks","42","17","40.5","-75.08","A","GD"
"18921","PA","Ferndale","Bucks","42","17","40.53","-75.18","A","POB"
"18922","PA","Forest Grove","Bucks","42","17","40.3","-75.06","A","POB"
"18923","PA","Fountainville","Bucks","42","17","40.36","-75.19","A","GD"
"18924","PA","Franconia","Montgomery","42","91","40.3","-75.33","A","POB"
"18925","PA","Furlong","Bucks","42","17","40.29","-75.06","A","GD"
"18927","PA","Hilltown","Bucks","42","17","40.32","-75.25","A","GD"
"18928","PA","Holicong","Bucks","42","17","40.34","-75.05","A","POB"
"18929","PA","Jamison","Bucks","42","17","40.26","-75.09","A","GD"
"18930","PA","Kintnersville","Bucks","42","17","40.53","-75.2","A","GD"
"18931","PA","Lahaska","Bucks","42","17","40.36","-75.04","A","POB"
"18932","PA","Line Lexington","Bucks","42","17","40.29","-75.26","A","GD"
"18933","PA","Lumberville","Bucks","42","17","40.38","-75.03","A","GD"
"18934","PA","Mechanicsville","Bucks","42","17","40.35","-75.07","A","GD"
"18935","PA","Milford Square","Bucks","42","17","40.44","-75.4","A","POB"
"18936","PA","Montgomeryville","Montgomery","42","91","40.23","-75.23","A","GD"
"18938","PA","New Hope","Bucks","42","17","40.35","-74.99","A","GD"
"18940","PA","Newtown","Bucks","42","17","40.24","-74.94","A","GD"
"18942","PA","Ottsville","Bucks","42","17","40.47","-75.17","A","GD"
"18943","PA","Penns Park","Bucks","42","17","40.26","-75","A","POB"
"18944","PA","Perkasie","Bucks","42","17","40.38","-75.25","A","GD"
"18946","PA","Pineville","Bucks","42","17","40.3","-75.01","A","POB"
"18947","PA","Pipersville","Bucks","42","17","40.42","-75.12","A","GD"
"18949","PA","Plumsteadville","Bucks","42","17","40.38","-75.14","A","POB"
"18950","PA","Point Pleasant","Bucks","42","17","40.44","-75.07","A","POB"
"18951","PA","Quakertown","Bucks","42","17","40.44","-75.35","A","GD"
"18953","PA","Revere","Bucks","42","17","40.52","-75.16","A","POB"
"18954","PA","Richboro","Bucks","42","17","40.22","-75","A","GD"
"18955","PA","Richlandtown","Bucks","42","17","40.48","-75.32","A","GD"
"18956","PA","Rushland","Bucks","42","17","40.26","-75.03","A","POB"
"18957","PA","Salford","Montgomery","42","91","40.3","-75.45","A","POB"
"18958","PA","Salfordville","Montgomery","42","91","40.29","-75.44","A","POB"
"18960","PA","Sellersville","Bucks","42","17","40.36","-75.31","A","GD"
"18962","PA","Silverdale","Bucks","42","17","40.35","-75.27","A","POB"
"18963","PA","Solebury","Bucks","42","17","40.38","-75.01","A","POB"
"18964","PA","Souderton","Montgomery","42","91","40.31","-75.32","A","GD"
"18966","PA","Southampton","Bucks","42","17","40.19","-75.01","A","GD"
"18968","PA","Spinnerstown","Bucks","42","17","40.44","-75.44","A","POB"
"18969","PA","Telford","Montgomery","42","91","40.33","-75.35","A","GD"
"18970","PA","Trumbauersville","Bucks","42","17","40.41","-75.38","A","POB"
"18971","PA","Tylersport","Montgomery","42","91","40.41","-75.4","A","POB"
"18972","PA","Upper Black Eddy","Bucks","42","17","40.53","-75.12","A","GD"
"18974","PA","Warminster","Bucks","42","17","40.21","-75.09","A","GD"
"18976","PA","Warrington","Bucks","42","17","40.24","-75.14","A","GD"
"18977","PA","Washington Crossing","Bucks","42","17","40.29","-74.88","A","GD"
"18979","PA","Woxall","Montgomery","42","91","40.31","-75.46","A","POB"
"18980","PA","Wycombe","Bucks","42","17","40.27","-75.02","A","POB"
"18981","PA","Zionhill","Bucks","42","17","40.48","-75.39","A","POB"
"18991","PA","Warminster","Bucks","42","17","40.22","-75.07","A","PVT"
"19001","PA","Abington","Montgomery","42","91","40.13","-75.13","A","GD"
"19002","PA","Ambler","Montgomery","42","91","40.17","-75.21","A","GD"
"19003","PA","Ardmore","Montgomery","42","91","40","-75.3","A","GD"
"19004","PA","Bala Cynwyd","Montgomery","42","91","40.01","-75.23","A","GD"
"19006","PA","Huntingdon Valley","Montgomery","42","91","40.13","-75.06","A","GD"
"19007","PA","Bristol","Bucks","42","17","40.11","-74.86","A","GD"
"19008","PA","Broomall","Delaware","42","45","39.98","-75.36","A","GD"
"19009","PA","Bryn Athyn","Montgomery","42","91","40.13","-75.06","A","POB"
"19010","PA","Bryn Mawr","Delaware","42","45","40.02","-75.33","A","GD"
"19012","PA","Cheltenham","Montgomery","42","91","40.06","-75.1","A","GD"
"19013","PA","Chester","Delaware","42","45","39.85","-75.38","A","GD"
"19014","PA","Aston","Delaware","42","45","39.86","-75.43","A","GD"
"19015","PA","Brookhaven","Delaware","42","45","39.87","-75.39","A","GD"
"19016","PA","Chester","Delaware","42","45","39.85","-75.37","A","POB"
"19017","PA","Chester Heights","Delaware","42","45","39.89","-75.47","A","POB"
"19018","PA","Clifton Heights","Delaware","42","45","39.92","-75.3","A","GD"
"19019","PA","Philadelphia","Philadelphia","42","101","40.12","-75.01","A","POB"
"19020","PA","Bensalem","Bucks","42","17","40.1","-74.94","A","GD"
"19021","PA","Croydon","Bucks","42","17","40.09","-74.9","A","GD"
"19022","PA","Crum Lynne","Delaware","42","45","39.86","-75.34","A","GD"
"19023","PA","Darby","Delaware","42","45","39.92","-75.27","A","GD"
"19025","PA","Dresher","Montgomery","42","91","40.14","-75.16","A","GD"
"19026","PA","Drexel Hill","Delaware","42","45","39.95","-75.3","A","GD"
"19027","PA","Elkins Park","Montgomery","42","91","40.07","-75.12","A","GD"
"19028","PA","Edgemont","Delaware","42","45","39.98","-75.45","A","POB"
"19029","PA","Essington","Delaware","42","45","39.87","-75.29","A","GD"
"19030","PA","Fairless Hills","Bucks","42","17","40.18","-74.85","A","GD"
"19031","PA","Flourtown","Montgomery","42","91","40.11","-75.21","A","GD"
"19032","PA","Folcroft","Delaware","42","45","39.89","-75.28","A","GD"
"19033","PA","Folsom","Delaware","42","45","39.89","-75.33","A","GD"
"19034","PA","Fort Washington","Montgomery","42","91","40.14","-75.2","A","GD"
"19035","PA","Gladwyne","Montgomery","42","91","40.04","-75.28","A","GD"
"19036","PA","Glenolden","Delaware","42","45","39.9","-75.29","A","GD"
"19037","PA","Glen Riddle Lima","Delaware","42","45","39.9","-75.44","A","POB"
"19038","PA","Glenside","Montgomery","42","91","40.1","-75.17","A","GD"
"19039","PA","Gradyville","Delaware","42","45","39.94","-75.46","A","POB"
"19040","PA","Hatboro","Montgomery","42","91","40.18","-75.11","A","GD"
"19041","PA","Haverford","Montgomery","42","91","40.01","-75.31","A","GD"
"19043","PA","Holmes","Delaware","42","45","39.9","-75.31","A","GD"
"19044","PA","Horsham","Montgomery","42","91","40.19","-75.14","A","GD"
"19046","PA","Jenkintown","Montgomery","42","91","40.1","-75.11","A","GD"
"19047","PA","Langhorne","Bucks","42","17","40.18","-74.91","A","GD"
"19048","PA","Fort Washington","Bucks","42","17","40.14","-74.99","A","PVT"
"19049","PA","Fort Washington","Bucks","42","17","40.18","-74.92","A","PVT"
"19050","PA","Lansdowne","Delaware","42","45","39.94","-75.26","A","GD"
"19052","PA","Lenni","Delaware","42","45","39.9","-75.45","A","POB"
"19053","PA","Feasterville Trevose","Bucks","42","17","40.15","-74.98","A","GD"
"19054","PA","Levittown","Bucks","42","17","40.17","-74.82","A","GD"
"19055","PA","Levittown","Bucks","42","17","40.15","-74.84","A","GD"
"19056","PA","Levittown","Bucks","42","17","40.15","-74.89","A","GD"
"19057","PA","Levittown","Bucks","42","17","40.14","-74.86","A","GD"
"19058","PA","Levittown","Bucks","42","17","40.15","-74.85","A","POB"
"19060","PA","Garnet Valley","Delaware","42","45","39.85","-75.5","A","GD"
"19061","PA","Marcus Hook","Delaware","42","45","39.83","-75.43","A","GD"
"19063","PA","Media","Delaware","42","45","39.92","-75.4","A","GD"
"19064","PA","Springfield","Delaware","42","45","39.93","-75.34","A","GD"
"19065","PA","Media","Delaware","42","45","39.92","-75.39","A","POB"
"19066","PA","Merion Station","Montgomery","42","91","40","-75.25","A","GD"
"19067","PA","Morrisville","Bucks","42","17","40.21","-74.82","A","GD"
"19070","PA","Morton","Delaware","42","45","39.91","-75.33","A","GD"
"19072","PA","Narberth","Montgomery","42","91","40.02","-75.26","A","GD"
"19073","PA","Newtown Square","Delaware","42","45","39.98","-75.42","A","GD"
"19074","PA","Norwood","Delaware","42","45","39.89","-75.3","A","GD"
"19075","PA","Oreland","Montgomery","42","91","40.11","-75.19","A","GD"
"19076","PA","Prospect Park","Delaware","42","45","39.88","-75.31","A","GD"
"19078","PA","Ridley Park","Delaware","42","45","39.88","-75.32","A","GD"
"19079","PA","Sharon Hill","Delaware","42","45","39.9","-75.27","A","GD"
"19080","PA","Wayne","Delaware","42","45","40.04","-75.39","A","PVT"
"19081","PA","Swarthmore","Delaware","42","45","39.9","-75.35","A","GD"
"19082","PA","Upper Darby","Delaware","42","45","39.96","-75.27","A","GD"
"19083","PA","Havertown","Delaware","42","45","39.98","-75.31","A","GD"
"19085","PA","Villanova","Delaware","42","45","40.04","-75.35","A","GD"
"19086","PA","Wallingford","Delaware","42","45","39.89","-75.37","A","GD"
"19087","PA","Wayne","Delaware","42","45","40.06","-75.4","A","GD"
"19088","PA","Wayne","Delaware","42","45","40.05","-75.36","A","PVT"
"19089","PA","Wayne","Delaware","42","45","40.04","-75.39","A","PVT"
"19090","PA","Willow Grove","Montgomery","42","91","40.15","-75.12","A","GD"
"19091","PA","Media","Delaware","42","45","39.92","-75.39","A","PVT"
"19092","PA","Philadelphia","Philadelphia","42","101","39.95","-75.18","A","PVT"
"19093","PA","Philadelphia","Philadelphia","42","101","39.95","-75.18","A","PVT"
"19094","PA","Woodlyn","Delaware","42","45","39.87","-75.35","A","GD"
"19095","PA","Wyncote","Montgomery","42","91","40.09","-75.15","A","GD"
"19096","PA","Wynnewood","Montgomery","42","91","39.99","-75.27","A","GD"
"19098","PA","Holmes","Delaware","42","45","39.9","-75.31","A","PVT"
"19099","PA","Philadelphia","Philadelphia","42","101","39.95","-75.16","A","PVT"
"19101","PA","Philadelphia","Philadelphia","42","101","40.01","-75.13","A","POB"
"19102","PA","Philadelphia","Philadelphia","42","101","39.95","-75.16","A","GD"
"19103","PA","Philadelphia","Philadelphia","42","101","39.95","-75.17","A","GD"
"19104","PA","Philadelphia","Philadelphia","42","101","39.96","-75.2","A","GD"
"19105","PA","Philadelphia","Philadelphia","42","101","39.95","-75.16","A","POB"
"19106","PA","Philadelphia","Philadelphia","42","101","39.95","-75.15","A","GD"
"19107","PA","Philadelphia","Philadelphia","42","101","39.95","-75.16","A","GD"
"19108","PA","Philadelphia","Philadelphia","42","101","40.06","-75.2","A","POB"
"19109","PA","Philadelphia","Philadelphia","42","101","39.95","-75.16","A","GD"
"19110","PA","Philadelphia","Philadelphia","42","101","39.95","-75.17","A","GD"
"19111","PA","Philadelphia","Philadelphia","42","101","40.06","-75.08","A","GD"
"19112","PA","Philadelphia","Philadelphia","42","101","39.89","-75.18","A","GD"
"19113","PA","Philadelphia","Delaware","42","45","39.87","-75.26","A","GD"
"19114","PA","Philadelphia","Philadelphia","42","101","40.06","-75","A","GD"
"19115","PA","Philadelphia","Philadelphia","42","101","40.09","-75.04","A","GD"
"19116","PA","Philadelphia","Philadelphia","42","101","40.12","-75.01","A","GD"
"19118","PA","Philadelphia","Philadelphia","42","101","40.07","-75.21","A","GD"
"19119","PA","Philadelphia","Philadelphia","42","101","40.06","-75.19","A","GD"
"19120","PA","Philadelphia","Philadelphia","42","101","40.03","-75.12","A","GD"
"19121","PA","Philadelphia","Philadelphia","42","101","39.98","-75.17","A","GD"
"19122","PA","Philadelphia","Philadelphia","42","101","39.98","-75.14","A","GD"
"19123","PA","Philadelphia","Philadelphia","42","101","39.96","-75.15","A","GD"
"19124","PA","Philadelphia","Philadelphia","42","101","40.02","-75.09","A","GD"
"19125","PA","Philadelphia","Philadelphia","42","101","39.98","-75.13","A","GD"
"19126","PA","Philadelphia","Philadelphia","42","101","40.06","-75.14","A","GD"
"19127","PA","Philadelphia","Philadelphia","42","101","40.03","-75.22","A","GD"
"19128","PA","Philadelphia","Philadelphia","42","101","40.04","-75.22","A","GD"
"19129","PA","Philadelphia","Philadelphia","42","101","40.01","-75.19","A","GD"
"19130","PA","Philadelphia","Philadelphia","42","101","39.97","-75.17","A","GD"
"19131","PA","Philadelphia","Philadelphia","42","101","39.98","-75.22","A","GD"
"19132","PA","Philadelphia","Philadelphia","42","101","40","-75.17","A","GD"
"19133","PA","Philadelphia","Philadelphia","42","101","39.99","-75.14","A","GD"
"19134","PA","Philadelphia","Philadelphia","42","101","39.99","-75.11","A","GD"
"19135","PA","Philadelphia","Philadelphia","42","101","40.02","-75.05","A","GD"
"19136","PA","Philadelphia","Philadelphia","42","101","40.04","-75.03","A","GD"
"19137","PA","Philadelphia","Philadelphia","42","101","40","-75.07","A","GD"
"19138","PA","Philadelphia","Philadelphia","42","101","40.06","-75.16","A","GD"
"19139","PA","Philadelphia","Philadelphia","42","101","39.96","-75.23","A","GD"
"19140","PA","Philadelphia","Philadelphia","42","101","40.01","-75.15","A","GD"
"19141","PA","Philadelphia","Philadelphia","42","101","40.04","-75.14","A","GD"
"19142","PA","Philadelphia","Philadelphia","42","101","39.92","-75.23","A","GD"
"19143","PA","Philadelphia","Philadelphia","42","101","39.94","-75.23","A","GD"
"19144","PA","Philadelphia","Philadelphia","42","101","40.03","-75.17","A","GD"
"19145","PA","Philadelphia","Philadelphia","42","101","39.92","-75.18","A","GD"
"19146","PA","Philadelphia","Philadelphia","42","101","39.94","-75.18","A","GD"
"19147","PA","Philadelphia","Philadelphia","42","101","39.94","-75.16","A","GD"
"19148","PA","Philadelphia","Philadelphia","42","101","39.92","-75.16","A","GD"
"19149","PA","Philadelphia","Philadelphia","42","101","40.04","-75.07","A","GD"
"19150","PA","Philadelphia","Philadelphia","42","101","40.07","-75.17","A","GD"
"19151","PA","Philadelphia","Philadelphia","42","101","39.98","-75.25","A","GD"
"19152","PA","Philadelphia","Philadelphia","42","101","40.06","-75.05","A","GD"
"19153","PA","Philadelphia","Philadelphia","42","101","39.9","-75.23","A","GD"
"19154","PA","Philadelphia","Philadelphia","42","101","40.09","-74.98","A","GD"
"19155","PA","Philadelphia","Philadelphia","42","101","40.1","-74.98","A","POB"
"19160","PA","Philadelphia","Philadelphia","42","101","40.01","-75.15","A","POB"
"19161","PA","Philadelphia","Philadelphia","42","101","40.06","-75.08","A","PVT"
"19162","PA","Philadelphia","Philadelphia","42","101","39.95","-75.18","A","PVT"
"19170","PA","Philadelphia","Philadelphia","42","101","39.95","-75.18","A","PVT"
"19171","PA","Philadelphia","Philadelphia","42","101","39.95","-75.16","A","PVT"
"19172","PA","Philadelphia","Philadelphia","42","101","39.95","-75.15","A","PVT"
"19173","PA","Philadelphia","Philadelphia","42","101","39.95","-75.17","A","PVT"
"19175","PA","Philadelphia","Philadelphia","42","101","39.95","-75.15","A","PVT"
"19176","PA","Philadelphia","Philadelphia","42","101","39.96","-75.18","A","POB"
"19177","PA","Philadelphia","Philadelphia","42","101","39.95","-75.15","A","PVT"
"19178","PA","Philadelphia","Philadelphia","42","101","39.95","-75.18","A","PVT"
"19179","PA","Philadelphia","Philadelphia","42","101","40.03","-75.18","A","PVT"
"19181","PA","Philadelphia","Philadelphia","42","101","39.95","-75.15","A","PVT"
"19182","PA","Philadelphia","Philadelphia","42","101","39.95","-75.15","A","PVT"
"19183","PA","Philadelphia","Philadelphia","42","101","39.95","-75.17","A","PVT"
"19184","PA","Philadelphia","Philadelphia","42","101","39.95","-75.18","A","PVT"
"19185","PA","Philadelphia","Philadelphia","42","101","39.89","-75.17","A","PVT"
"19187","PA","Philadelphia","Philadelphia","42","101","39.95","-75.17","A","PVT"
"19188","PA","Philadelphia","Philadelphia","42","101","39.96","-75.16","A","PVT"
"19190","PA","Philadelphia","Philadelphia","42","101","39.95","-75.16","A","GD"
"19191","PA","Philadelphia","Philadelphia","42","101","39.95","-75.17","A","PVT"
"19192","PA","Philadelphia","Philadelphia","42","101","39.95","-75.18","A","PVT"
"19193","PA","Philadelphia","Philadelphia","42","101","39.95","-75.18","A","PVT"
"19194","PA","Philadelphia","Philadelphia","42","101","39.95","-75.18","A","PVT"
"19195","PA","Philadelphia","Philadelphia","42","101","39.95","-75.18","A","PVT"
"19196","PA","Philadelphia","Philadelphia","42","101","39.95","-75.18","A","PVT"
"19197","PA","Philadelphia","Philadelphia","42","101","39.95","-75.18","A","PVT"
"19244","PA","Philadelphia","Philadelphia","42","101","40.1","-75","A","PVT"
"19255","PA","Philadelphia","Philadelphia","42","101","40.1","-75","A","PVT"
"19301","PA","Paoli","Chester","42","29","40.04","-75.48","A","GD"
"19310","PA","Atglen","Chester","42","29","39.94","-75.97","A","GD"
"19311","PA","Avondale","Chester","42","29","39.82","-75.77","A","GD"
"19312","PA","Berwyn","Chester","42","29","40.04","-75.45","A","GD"
"19316","PA","Brandamore","Chester","42","29","40.05","-75.83","A","POB"
"19317","PA","Chadds Ford","Delaware","42","45","39.86","-75.6","A","GD"
"19318","PA","Chatham","Chester","42","29","39.86","-75.82","A","POB"
"19319","PA","Cheyney","Delaware","42","45","39.93","-75.53","A","GD"
"19320","PA","Coatesville","Chester","42","29","39.98","-75.83","A","GD"
"19330","PA","Cochranville","Chester","42","29","39.87","-75.91","A","GD"
"19331","PA","Concordville","Delaware","42","45","39.88","-75.52","A","POB"
"19333","PA","Devon","Chester","42","29","40.05","-75.42","A","GD"
"19335","PA","Downingtown","Chester","42","29","40.02","-75.72","A","GD"
"19339","PA","Concordville","Delaware","42","45","39.9","-75.51","A","PVT"
"19340","PA","Concordville","Delaware","42","45","39.89","-75.52","A","PVT"
"19341","PA","Exton","Chester","42","29","40.04","-75.64","A","GD"
"19342","PA","Glen Mills","Delaware","42","45","39.9","-75.5","A","GD"
"19343","PA","Glenmoore","Chester","42","29","40.1","-75.75","A","GD"
"19344","PA","Honey Brook","Chester","42","29","40.08","-75.88","A","GD"
"19345","PA","Immaculata","Chester","42","29","40.03","-75.56","A","POB"
"19346","PA","Kelton","Chester","42","29","39.79","-75.89","A","POB"
"19347","PA","Kemblesville","Chester","42","29","39.75","-75.82","A","POB"
"19348","PA","Kennett Square","Chester","42","29","39.86","-75.71","A","GD"
"19350","PA","Landenberg","Chester","42","29","39.77","-75.78","A","GD"
"19351","PA","Lewisville","Chester","42","29","39.72","-75.87","A","POB"
"19352","PA","Lincoln University","Chester","42","29","39.79","-75.89","A","GD"
"19353","PA","Lionville","Chester","42","29","40.07","-75.67","A","POB"
"19354","PA","Lyndell","Chester","42","29","40.06","-75.75","A","POB"
"19355","PA","Malvern","Chester","42","29","40.04","-75.53","A","GD"
"19357","PA","Mendenhall","Chester","42","29","39.85","-75.64","A","POB"
"19358","PA","Modena","Chester","42","29","39.96","-75.8","A","POB"
"19360","PA","New London","Chester","42","29","39.77","-75.89","A","POB"
"19362","PA","Nottingham","Chester","42","29","39.75","-76.06","A","GD"
"19363","PA","Oxford","Chester","42","29","39.78","-75.97","A","GD"
"19365","PA","Parkesburg","Chester","42","29","39.96","-75.92","A","GD"
"19366","PA","Pocopson","Chester","42","29","39.9","-75.63","A","POB"
"19367","PA","Pomeroy","Chester","42","29","39.96","-75.88","A","POB"
"19369","PA","Sadsburyville","Chester","42","29","39.98","-75.89","A","POB"
"19371","PA","Suplee","Chester","42","29","40.1","-75.88","A","POB"
"19372","PA","Thorndale","Chester","42","29","40","-75.76","A","GD"
"19373","PA","Thornton","Delaware","42","45","39.9","-75.54","A","GD"
"19374","PA","Toughkenamon","Chester","42","29","39.83","-75.76","A","GD"
"19375","PA","Unionville","Chester","42","29","39.89","-75.74","A","POB"
"19376","PA","Wagontown","Chester","42","29","40.02","-75.82","A","POB"
"19380","PA","West Chester","Chester","42","29","39.98","-75.59","A","GD"
"19381","PA","West Chester","Chester","42","29","39.96","-75.6","A","POB"
"19382","PA","West Chester","Chester","42","29","39.94","-75.6","A","GD"
"19383","PA","West Chester","Chester","42","29","39.95","-75.6","A","PVT"
"19390","PA","West Grove","Chester","42","29","39.82","-75.84","A","GD"
"19395","PA","Westtown","Chester","42","29","39.94","-75.54","A","POB"
"19397","PA","Southeastern","Chester","42","29","39.99","-75.51","A","POB"
"19398","PA","Southeastern","Chester","42","29","40.07","-75.43","A","POB"
"19399","PA","Southeastern","Chester","42","29","39.99","-75.51","A","POB"
"19401","PA","Norristown","Montgomery","42","91","40.12","-75.34","A","GD"
"19403","PA","Norristown","Montgomery","42","91","40.14","-75.39","A","GD"
"19404","PA","Norristown","Montgomery","42","91","40.14","-75.37","A","POB"
"19405","PA","Bridgeport","Montgomery","42","91","40.1","-75.34","A","GD"
"19406","PA","King Of Prussia","Montgomery","42","91","40.09","-75.38","A","GD"
"19407","PA","Audubon","Montgomery","42","91","40.12","-75.45","A","POB"
"19408","PA","Eagleville","Montgomery","42","91","40.16","-75.41","A","POB"
"19409","PA","Fairview Village","Montgomery","42","91","40.16","-75.39","A","POB"
"19415","PA","Eagleville","Montgomery","42","91","40.16","-75.41","A","PVT"
"19421","PA","Birchrunville","Chester","42","29","40.11","-75.64","A","POB"
"19422","PA","Blue Bell","Montgomery","42","91","40.16","-75.28","A","GD"
"19423","PA","Cedars","Montgomery","42","91","40.21","-75.38","A","POB"
"19424","PA","Blue Bell","Montgomery","42","91","40.15","-75.27","A","PVT"
"19425","PA","Chester Springs","Chester","42","29","40.1","-75.65","A","GD"
"19426","PA","Collegeville","Montgomery","42","91","40.19","-75.45","A","GD"
"19428","PA","Conshohocken","Montgomery","42","91","40.08","-75.31","A","GD"
"19429","PA","Conshohocken","Montgomery","42","91","40.08","-75.3","A","PVT"
"19430","PA","Creamery","Montgomery","42","91","40.21","-75.42","A","POB"
"19432","PA","Devault","Chester","42","29","40.08","-75.53","A","POB"
"19435","PA","Frederick","Montgomery","42","91","40.33","-75.57","A","GD"
"19436","PA","Gwynedd","Montgomery","42","91","40.2","-75.25","A","GD"
"19437","PA","Gwynedd Valley","Montgomery","42","91","40.18","-75.26","A","POB"
"19438","PA","Harleysville","Montgomery","42","91","40.27","-75.39","A","GD"
"19440","PA","Hatfield","Montgomery","42","91","40.28","-75.29","A","GD"
"19441","PA","Harleysville","Montgomery","42","91","40.28","-75.38","A","PVT"
"19442","PA","Kimberton","Chester","42","29","40.13","-75.58","A","POB"
"19443","PA","Kulpsville","Montgomery","42","91","40.25","-75.34","A","POB"
"19444","PA","Lafayette Hill","Montgomery","42","91","40.09","-75.26","A","GD"
"19446","PA","Lansdale","Montgomery","42","91","40.24","-75.29","A","GD"
"19450","PA","Lederach","Montgomery","42","91","40.26","-75.42","A","POB"
"19451","PA","Mainland","Montgomery","42","91","40.27","-75.36","A","POB"
"19453","PA","Mont Clare","Montgomery","42","91","40.14","-75.5","A","GD"
"19454","PA","North Wales","Montgomery","42","91","40.22","-75.25","A","GD"
"19455","PA","North Wales","Montgomery","42","91","40.21","-75.28","A","PVT"
"19456","PA","Oaks","Montgomery","42","91","40.13","-75.46","A","POB"
"19457","PA","Parker Ford","Chester","42","29","40.2","-75.58","A","POB"
"19460","PA","Phoenixville","Chester","42","29","40.13","-75.52","A","GD"
"19462","PA","Plymouth Meeting","Montgomery","42","91","40.12","-75.29","A","GD"
"19464","PA","Pottstown","Montgomery","42","91","40.25","-75.63","A","GD"
"19465","PA","Pottstown","Chester","42","29","40.21","-75.66","A","GD"
"19468","PA","Royersford","Montgomery","42","91","40.2","-75.54","A","GD"
"19470","PA","Saint Peters","Chester","42","29","40.18","-75.73","A","POB"
"19472","PA","Sassamansville","Montgomery","42","91","40.34","-75.57","A","POB"
"19473","PA","Schwenksville","Montgomery","42","91","40.26","-75.47","A","GD"
"19474","PA","Skippack","Montgomery","42","91","40.22","-75.4","A","POB"
"19475","PA","Spring City","Chester","42","29","40.17","-75.58","A","GD"
"19477","PA","Spring House","Montgomery","42","91","40.18","-75.23","A","GD"
"19478","PA","Spring Mount","Montgomery","42","91","40.28","-75.46","A","POB"
"19480","PA","Uwchland","Chester","42","29","40.09","-75.69","A","POB"
"19481","PA","Valley Forge","Chester","42","29","40.09","-75.47","A","POB"
"19482","PA","Valley Forge","Chester","42","29","40.1","-75.47","A","POB"
"19484","PA","Valley Forge","Montgomery","42","91","40.11","-75.4","A","POB"
"19486","PA","West Point","Montgomery","42","91","40.21","-75.3","A","POB"
"19490","PA","Worcester","Montgomery","42","91","40.2","-75.35","A","POB"
"19492","PA","Zieglerville","Montgomery","42","91","40.28","-75.49","A","GD"
"19493","PA","Valley Forge","Chester","42","29","40.06","-75.56","A","PVT"
"19494","PA","Valley Forge","Chester","42","29","40.06","-75.56","A","PVT"
"19495","PA","Valley Forge","Chester","42","29","40.06","-75.56","A","PVT"
"19496","PA","Valley Forge","Chester","42","29","40.1","-75.47","A","PVT"
"19501","PA","Adamstown","Lancaster","42","71","40.24","-76.06","A","POB"
"19503","PA","Bally","Berks","42","11","40.4","-75.59","A","GD"
"19504","PA","Barto","Berks","42","11","40.41","-75.59","A","GD"
"19505","PA","Bechtelsville","Berks","42","11","40.37","-75.62","A","GD"
"19506","PA","Bernville","Berks","42","11","40.45","-76.12","A","GD"
"19507","PA","Bethel","Berks","42","11","40.49","-76.27","A","GD"
"19508","PA","Birdsboro","Berks","42","11","40.27","-75.83","A","GD"
"19510","PA","Blandon","Berks","42","11","40.45","-75.88","A","GD"
"19511","PA","Bowers","Berks","42","11","40.49","-75.74","A","POB"
"19512","PA","Boyertown","Berks","42","11","40.34","-75.67","A","GD"
"19516","PA","Centerport","Berks","42","11","40.49","-76.01","A","POB"
"19518","PA","Douglassville","Berks","42","11","40.27","-75.74","A","GD"
"19519","PA","Earlville","Berks","42","11","40.32","-75.73","A","POB"
"19520","PA","Elverson","Chester","42","29","40.16","-75.8","A","GD"
"19522","PA","Fleetwood","Berks","42","11","40.45","-75.82","A","GD"
"19523","PA","Geigertown","Berks","42","11","40.21","-75.84","A","POB"
"19525","PA","Gilbertsville","Montgomery","42","91","40.31","-75.59","A","GD"
"19526","PA","Hamburg","Berks","42","11","40.55","-75.99","A","GD"
"19529","PA","Kempton","Berks","42","11","40.63","-75.84","A","GD"
"19530","PA","Kutztown","Berks","42","11","40.53","-75.77","A","GD"
"19533","PA","Leesport","Berks","42","11","40.44","-75.99","A","GD"
"19534","PA","Lenhartsville","Berks","42","11","40.57","-75.87","A","GD"
"19535","PA","Limekiln","Berks","42","11","40.34","-75.81","A","POB"
"19536","PA","Lyon Station","Berks","42","11","40.48","-75.76","A","POB"
"19538","PA","Maxatawny","Berks","42","11","40.54","-75.7","A","POB"
"19539","PA","Mertztown","Berks","42","11","40.5","-75.68","A","GD"
"19540","PA","Mohnton","Berks","42","11","40.25","-75.97","A","GD"
"19541","PA","Mohrsville","Berks","42","11","40.48","-76.02","A","GD"
"19543","PA","Morgantown","Berks","42","11","40.17","-75.89","A","GD"
"19544","PA","Mount Aetna","Berks","42","11","40.42","-76.3","A","POB"
"19545","PA","New Berlinville","Berks","42","11","40.34","-75.63","A","POB"
"19547","PA","Oley","Berks","42","11","40.38","-75.76","A","GD"
"19548","PA","Pine Forge","Berks","42","11","40.28","-75.69","A","POB"
"19549","PA","Port Clinton","Schuylkill","42","107","40.58","-76.02","A","POB"
"19550","PA","Rehrersburg","Berks","42","11","40.46","-76.25","A","POB"
"19551","PA","Robesonia","Berks","42","11","40.36","-76.14","A","GD"
"19554","PA","Shartlesville","Berks","42","11","40.51","-76.11","A","POB"
"19555","PA","Shoemakersville","Berks","42","11","40.5","-75.96","A","GD"
"19559","PA","Strausstown","Berks","42","11","40.49","-76.18","A","POB"
"19560","PA","Temple","Berks","42","11","40.41","-75.91","A","GD"
"19562","PA","Topton","Berks","42","11","40.5","-75.7","A","GD"
"19564","PA","Virginville","Berks","42","11","40.52","-75.87","A","POB"
"19565","PA","Wernersville","Berks","42","11","40.33","-76.09","A","GD"
"19567","PA","Womelsdorf","Berks","42","11","40.37","-76.2","A","GD"
"19601","PA","Reading","Berks","42","11","40.35","-75.94","A","GD"
"19602","PA","Reading","Berks","42","11","40.33","-75.92","A","GD"
"19603","PA","Reading","Berks","42","11","40.38","-75.93","A","POB"
"19604","PA","Reading","Berks","42","11","40.35","-75.91","A","GD"
"19605","PA","Reading","Berks","42","11","40.39","-75.93","A","GD"
"19606","PA","Reading","Berks","42","11","40.33","-75.87","A","GD"
"19607","PA","Reading","Berks","42","11","40.3","-75.96","A","GD"
"19608","PA","Reading","Berks","42","11","40.32","-76.03","A","GD"
"19609","PA","Reading","Berks","42","11","40.33","-75.99","A","GD"
"19610","PA","Reading","Berks","42","11","40.34","-75.97","A","GD"
"19611","PA","Reading","Berks","42","11","40.32","-75.94","A","GD"
"19612","PA","Reading","Berks","42","11","40.37","-75.91","A","POB"
