"ZIPCode","State","City","County","StateFIPS","CountyFIPS","Latitude","Longitude","Preference","Type"
"80001","CO","Arvada","Jefferson","8","59","39.8","-105.09","A","POB"
"80002","CO","Arvada","Jefferson","8","59","39.8","-105.09","A","GD"
"80003","CO","Arvada","Jefferson","8","59","39.83","-105.06","A","GD"
"80004","CO","Arvada","Jefferson","8","59","39.81","-105.12","A","GD"
"80005","CO","Arvada","Jefferson","8","59","39.84","-105.12","A","GD"
"80006","CO","Arvada","Jefferson","8","59","39.85","-105.08","A","POB"
"80007","CO","Arvada","Jefferson","8","59","39.84","-105.19","A","GD"
"80010","CO","Aurora","Arapahoe","8","5","39.74","-104.86","A","GD"
"80011","CO","Aurora","Arapahoe","8","5","39.74","-104.81","A","GD"
"80012","CO","Aurora","Arapahoe","8","5","39.7","-104.84","A","GD"
"80013","CO","Aurora","Arapahoe","8","5","39.66","-104.78","A","GD"
"80014","CO","Aurora","Arapahoe","8","5","39.66","-104.84","A","GD"
"80015","CO","Aurora","Arapahoe","8","5","39.62","-104.77","A","GD"
"80016","CO","Aurora","Arapahoe","8","5","39.6","-104.73","A","GD"
"80017","CO","Aurora","Arapahoe","8","5","39.69","-104.79","A","GD"
"80018","CO","Aurora","Arapahoe","8","5","39.7","-104.71","A","GD"
"80019","CO","Aurora","Adams","8","1","39.78","-104.73","A","GD"
"80020","CO","Broomfield","Broomfield","8","14","39.92","-105.07","A","GD"
"80021","CO","Broomfield","Jefferson","8","59","39.89","-105.11","A","GD"
"80022","CO","Commerce City","Adams","8","1","39.86","-104.87","A","GD"
"80023","CO","Broomfield","Broomfield","8","14","39.97","-105.02","A","GD"
"80024","CO","Dupont","Adams","8","1","39.84","-104.92","A","POB"
"80025","CO","Eldorado Springs","Boulder","8","13","39.93","-105.29","A","POB"
"80026","CO","Lafayette","Boulder","8","13","40","-105.1","A","GD"
"80027","CO","Louisville","Boulder","8","13","39.96","-105.15","A","GD"
"80030","CO","Westminster","Adams","8","1","39.83","-105.04","A","GD"
"80031","CO","Westminster","Adams","8","1","39.87","-105.04","A","GD"
"80033","CO","Wheat Ridge","Jefferson","8","59","39.77","-105.1","A","GD"
"80034","CO","Wheat Ridge","Jefferson","8","59","39.77","-105.08","A","POB"
"80035","CO","Westminster","Adams","8","1","39.86","-105.04","A","POB"
"80036","CO","Westminster","Adams","8","1","39.86","-105.04","A","POB"
"80037","CO","Commerce City","Adams","8","1","39.82","-104.91","A","POB"
"80038","CO","Broomfield","Broomfield","8","14","39.92","-105.09","A","POB"
"80040","CO","Aurora","Adams","8","1","39.74","-104.88","A","POB"
"80041","CO","Aurora","Arapahoe","8","5","39.7","-104.84","A","POB"
"80042","CO","Aurora","Adams","8","1","39.74","-104.81","A","POB"
"80044","CO","Aurora","Arapahoe","8","5","39.75","-104.82","A","POB"
"80045","CO","Aurora","Adams","8","1","39.75","-104.84","A","GD"
"80046","CO","Aurora","Arapahoe","8","5","39.63","-104.8","A","POB"
"80047","CO","Aurora","Arapahoe","8","5","39.7","-104.77","A","GD"
"80101","CO","Agate","Elbert","8","39","39.4","-103.97","A","GD"
"80102","CO","Bennett","Adams","8","1","39.77","-104.43","A","GD"
"80103","CO","Byers","Arapahoe","8","5","39.72","-104.16","A","GD"
"80104","CO","Castle Rock","Douglas","8","35","39.36","-104.84","A","GD"
"80105","CO","Deer Trail","Arapahoe","8","5","39.65","-104.03","A","GD"
"80106","CO","Elbert","El Paso","8","41","39.13","-104.56","A","GD"
"80107","CO","Elizabeth","Elbert","8","39","39.4","-104.59","A","GD"
"80108","CO","Castle Rock","Douglas","8","35","39.45","-104.87","A","GD"
"80109","CO","Castle Rock","Douglas","8","35","39.39","-104.89","A","GD"
"80110","CO","Englewood","Arapahoe","8","5","39.64","-105.01","A","GD"
"80111","CO","Englewood","Arapahoe","8","5","39.61","-104.88","A","GD"
"80112","CO","Englewood","Arapahoe","8","5","39.58","-104.87","A","GD"
"80113","CO","Englewood","Arapahoe","8","5","39.65","-104.97","A","GD"
"80116","CO","Franktown","Douglas","8","35","39.31","-104.71","A","GD"
"80117","CO","Kiowa","Elbert","8","39","39.36","-104.41","A","GD"
"80118","CO","Larkspur","Douglas","8","35","39.21","-104.89","A","GD"
"80120","CO","Littleton","Arapahoe","8","5","39.6","-105.01","A","GD"
"80121","CO","Littleton","Arapahoe","8","5","39.61","-104.96","A","GD"
"80122","CO","Littleton","Arapahoe","8","5","39.58","-104.96","A","GD"
"80123","CO","Littleton","Jefferson","8","59","39.62","-105.07","A","GD"
"80124","CO","Lone Tree","Douglas","8","35","39.54","-104.89","A","GD"
"80125","CO","Littleton","Douglas","8","35","39.49","-105.05","A","GD"
"80126","CO","Littleton","Douglas","8","35","39.54","-104.96","A","GD"
"80127","CO","Littleton","Jefferson","8","59","39.59","-105.13","A","GD"
"80128","CO","Littleton","Jefferson","8","59","39.57","-105.08","A","GD"
"80129","CO","Littleton","Douglas","8","35","39.54","-105.01","A","GD"
"80130","CO","Littleton","Douglas","8","35","39.54","-104.92","A","GD"
"80131","CO","Louviers","Douglas","8","35","39.48","-105.01","A","POB"
"80132","CO","Monument","El Paso","8","41","39.09","-104.86","A","GD"
"80133","CO","Palmer Lake","El Paso","8","41","39.11","-104.92","A","GD"
"80134","CO","Parker","Douglas","8","35","39.51","-104.79","A","GD"
"80135","CO","Sedalia","Douglas","8","35","39.3","-105.08","A","GD"
"80136","CO","Strasburg","Adams","8","1","39.77","-104.32","A","GD"
"80137","CO","Watkins","Adams","8","1","39.77","-104.6","A","GD"
"80138","CO","Parker","Douglas","8","35","39.52","-104.71","A","GD"
"80150","CO","Englewood","Arapahoe","8","5","39.64","-104.98","A","POB"
"80151","CO","Englewood","Arapahoe","8","5","39.64","-104.98","A","POB"
"80155","CO","Englewood","Arapahoe","8","5","39.59","-104.88","A","POB"
"80160","CO","Littleton","Arapahoe","8","5","39.61","-105.02","A","POB"
"80161","CO","Littleton","Arapahoe","8","5","39.6","-104.96","A","POB"
"80162","CO","Littleton","Jefferson","8","59","39.6","-105.11","A","POB"
"80163","CO","Littleton","Douglas","8","35","39.55","-104.97","A","POB"
"80165","CO","Littleton","Arapahoe","8","5","39.59","-105.01","A","PVT"
"80166","CO","Littleton","Arapahoe","8","5","39.59","-105.01","A","PVT"
"80201","CO","Denver","Denver","8","31","39.75","-104.99","A","POB"
"80202","CO","Denver","Denver","8","31","39.75","-105","A","GD"
"80203","CO","Denver","Denver","8","31","39.73","-104.98","A","GD"
"80204","CO","Denver","Denver","8","31","39.73","-105.02","A","GD"
"80205","CO","Denver","Denver","8","31","39.76","-104.97","A","GD"
"80206","CO","Denver","Denver","8","31","39.73","-104.95","A","GD"
"80207","CO","Denver","Denver","8","31","39.76","-104.92","A","GD"
"80208","CO","Denver","Denver","8","31","39.68","-104.96","A","PVT"
"80209","CO","Denver","Denver","8","31","39.71","-104.97","A","GD"
"80210","CO","Denver","Denver","8","31","39.68","-104.96","A","GD"
"80211","CO","Denver","Denver","8","31","39.77","-105.02","A","GD"
"80212","CO","Denver","Denver","8","31","39.77","-105.05","A","GD"
"80214","CO","Denver","Jefferson","8","59","39.74","-105.07","A","GD"
"80215","CO","Denver","Jefferson","8","59","39.74","-105.11","A","GD"
"80216","CO","Denver","Denver","8","31","39.78","-104.96","A","GD"
"80217","CO","Denver","Denver","8","31","39.75","-105","A","POB"
"80218","CO","Denver","Denver","8","31","39.73","-104.97","A","GD"
"80219","CO","Denver","Denver","8","31","39.7","-105.03","A","GD"
"80220","CO","Denver","Denver","8","31","39.73","-104.92","A","GD"
"80221","CO","Denver","Adams","8","1","39.82","-105.01","A","GD"
"80222","CO","Denver","Denver","8","31","39.67","-104.93","A","GD"
"80223","CO","Denver","Denver","8","31","39.7","-105","A","GD"
"80224","CO","Denver","Denver","8","31","39.69","-104.91","A","GD"
"80225","CO","Denver","Jefferson","8","59","39.72","-105.11","A","GD"
"80226","CO","Denver","Jefferson","8","59","39.71","-105.09","A","GD"
"80227","CO","Denver","Jefferson","8","59","39.67","-105.09","A","GD"
"80228","CO","Denver","Jefferson","8","59","39.69","-105.15","A","GD"
"80229","CO","Denver","Adams","8","1","39.86","-104.96","A","GD"
"80230","CO","Denver","Denver","8","31","39.72","-104.9","A","GD"
"80231","CO","Denver","Denver","8","31","39.67","-104.89","A","GD"
"80232","CO","Denver","Jefferson","8","59","39.69","-105.09","A","GD"
"80233","CO","Denver","Adams","8","1","39.9","-104.95","A","GD"
"80234","CO","Denver","Adams","8","1","39.91","-105.01","A","GD"
"80235","CO","Denver","Jefferson","8","59","39.65","-105.09","A","GD"
"80236","CO","Denver","Denver","8","31","39.65","-105.04","A","GD"
"80237","CO","Denver","Denver","8","31","39.64","-104.9","A","GD"
"80238","CO","Denver","Denver","8","31","39.76","-104.88","A","GD"
"80239","CO","Denver","Denver","8","31","39.79","-104.83","A","GD"
"80241","CO","Thornton","Adams","8","1","39.93","-104.95","A","GD"
"80243","CO","Denver","Denver","8","31","39.76","-104.97","A","PVT"
"80244","CO","Denver","Denver","8","31","39.75","-104.99","A","PVT"
"80246","CO","Denver","Denver","8","31","39.71","-104.93","A","GD"
"80247","CO","Denver","Arapahoe","8","5","39.7","-104.89","A","GD"
"80248","CO","Denver","Denver","8","31","39.75","-105","A","POB"
"80249","CO","Denver","Denver","8","31","39.8","-104.74","A","GD"
"80250","CO","Denver","Denver","8","31","39.68","-104.94","A","POB"
"80251","CO","Denver","Denver","8","31","39.66","-104.85","A","PVT"
"80252","CO","Denver","Denver","8","31","39.79","-104.9","A","PVT"
"80256","CO","Denver","Denver","8","31","39.75","-104.99","A","PVT"
"80257","CO","Denver","Denver","8","31","39.75","-105","A","PVT"
"80259","CO","Denver","Denver","8","31","39.74","-104.99","A","PVT"
"80260","CO","Denver","Adams","8","1","39.87","-105.01","A","GD"
"80261","CO","Denver","Denver","8","31","39.69","-104.99","A","PVT"
"80262","CO","Denver","Denver","8","31","39.73","-104.94","A","PVT"
"80263","CO","Denver","Denver","8","31","39.65","-104.91","A","PVT"
"80264","CO","Denver","Denver","8","31","39.74","-104.99","A","GD"
"80265","CO","Denver","Denver","8","31","39.75","-104.99","A","GD"
"80266","CO","Denver","Denver","8","31","39.79","-104.9","A","GD"
"80271","CO","Denver","Denver","8","31","39.75","-104.99","A","PVT"
"80273","CO","Denver","Denver","8","31","39.73","-104.99","A","PVT"
"80274","CO","Denver","Denver","8","31","39.74","-104.99","A","PVT"
"80281","CO","Denver","Denver","8","31","39.74","-104.99","A","PVT"
"80290","CO","Denver","Denver","8","31","39.74","-104.99","A","GD"
"80291","CO","Denver","Denver","8","31","39.74","-104.99","A","PVT"
"80293","CO","Denver","Denver","8","31","39.75","-104.99","A","GD"
"80294","CO","Denver","Denver","8","31","39.75","-104.99","A","GD"
"80299","CO","Denver","Denver","8","31","39.75","-104.99","A","GD"
"80301","CO","Boulder","Boulder","8","13","40.04","-105.22","A","GD"
"80302","CO","Boulder","Boulder","8","13","40.02","-105.3","A","GD"
"80303","CO","Boulder","Boulder","8","13","40","-105.21","A","GD"
"80304","CO","Boulder","Boulder","8","13","40.04","-105.28","A","GD"
"80305","CO","Boulder","Boulder","8","13","39.98","-105.25","A","GD"
"80306","CO","Boulder","Boulder","8","13","40.04","-105.31","A","POB"
"80307","CO","Boulder","Boulder","8","13","39.99","-105.24","A","POB"
"80308","CO","Boulder","Boulder","8","13","40.02","-105.25","A","POB"
"80309","CO","Boulder","Boulder","8","13","40.01","-105.27","A","PVT"
"80310","CO","Boulder","Boulder","8","13","40","-105.26","A","PVT"
"80314","CO","Boulder","Boulder","8","13","40.09","-105.2","A","PVT"
"80401","CO","Golden","Jefferson","8","59","39.74","-105.2","A","GD"
"80402","CO","Golden","Jefferson","8","59","39.76","-105.22","A","POB"
"80403","CO","Golden","Jefferson","8","59","39.82","-105.26","A","GD"
"80419","CO","Golden","Jefferson","8","59","39.73","-105.2","A","PVT"
"80420","CO","Alma","Park","8","93","39.29","-106.08","A","POB"
"80421","CO","Bailey","Park","8","93","39.45","-105.48","A","GD"
"80422","CO","Black Hawk","Gilpin","8","47","39.87","-105.5","A","GD"
"80423","CO","Bond","Eagle","8","37","39.88","-106.63","A","GD"
"80424","CO","Breckenridge","Summit","8","117","39.48","-106.03","A","GD"
"80425","CO","Buffalo Creek","Jefferson","8","59","39.36","-105.24","A","POB"
"80426","CO","Burns","Eagle","8","37","39.89","-106.93","A","POB"
"80427","CO","Central City","Gilpin","8","47","39.79","-105.51","A","POB"
"80428","CO","Clark","Routt","8","107","40.84","-106.95","A","GD"
"80429","CO","Climax","Lake","8","65","39.32","-106.24","A","POB"
"80430","CO","Coalmont","Jackson","8","57","40.55","-106.56","A","GD"
"80432","CO","Como","Park","8","93","39.22","-105.8","A","POB"
"80433","CO","Conifer","Jefferson","8","59","39.51","-105.3","A","GD"
"80434","CO","Cowdrey","Jackson","8","57","40.85","-106.29","A","POB"
"80435","CO","Dillon","Summit","8","117","39.6","-105.97","A","GD"
"80436","CO","Dumont","Clear Creek","8","19","39.77","-105.63","A","POB"
"80437","CO","Evergreen","Jefferson","8","59","39.63","-105.34","A","POB"
"80438","CO","Empire","Clear Creek","8","19","39.76","-105.71","A","POB"
"80439","CO","Evergreen","Jefferson","8","59","39.65","-105.38","A","GD"
"80440","CO","Fairplay","Park","8","93","39.23","-105.99","A","GD"
"80442","CO","Fraser","Grand","8","49","39.94","-105.85","A","POB"
"80443","CO","Frisco","Summit","8","117","39.55","-106.1","A","POB"
"80444","CO","Georgetown","Clear Creek","8","19","39.69","-105.71","A","POB"
"80446","CO","Granby","Grand","8","49","40.14","-105.95","A","GD"
"80447","CO","Grand Lake","Grand","8","49","40.25","-105.84","A","GD"
"80448","CO","Grant","Park","8","93","39.46","-105.71","A","POB"
"80449","CO","Hartsel","Park","8","93","38.97","-105.82","A","GD"
"80451","CO","Hot Sulphur Springs","Grand","8","49","40.08","-106.09","A","POB"
"80452","CO","Idaho Springs","Clear Creek","8","19","39.74","-105.56","A","GD"
"80453","CO","Idledale","Jefferson","8","59","39.67","-105.24","A","POB"
"80454","CO","Indian Hills","Jefferson","8","59","39.63","-105.26","A","POB"
"80455","CO","Jamestown","Boulder","8","13","40.11","-105.39","A","GD"
"80456","CO","Jefferson","Park","8","93","39.3","-105.72","A","GD"
"80457","CO","Kittredge","Jefferson","8","59","39.65","-105.29","A","POB"
"80459","CO","Kremmling","Grand","8","49","40.15","-106.44","A","GD"
"80461","CO","Leadville","Lake","8","65","39.24","-106.31","A","GD"
"80463","CO","Mc Coy","Eagle","8","37","39.95","-106.74","A","GD"
"80465","CO","Morrison","Jefferson","8","59","39.63","-105.18","A","GD"
"80466","CO","Nederland","Boulder","8","13","39.96","-105.51","A","GD"
"80467","CO","Oak Creek","Routt","8","107","40.29","-106.93","A","GD"
"80468","CO","Parshall","Grand","8","49","39.98","-106.13","A","GD"
"80469","CO","Phippsburg","Routt","8","107","40.21","-106.95","A","POB"
"80470","CO","Pine","Jefferson","8","59","39.44","-105.36","A","GD"
"80471","CO","Pinecliffe","Boulder","8","13","39.93","-105.43","A","POB"
"80473","CO","Rand","Jackson","8","57","40.44","-106.16","A","POB"
"80474","CO","Rollinsville","Gilpin","8","47","39.92","-105.5","A","POB"
"80475","CO","Shawnee","Park","8","93","39.43","-105.57","A","POB"
"80476","CO","Silver Plume","Clear Creek","8","19","39.69","-105.8","A","POB"
"80477","CO","Steamboat Springs","Routt","8","107","40.49","-106.83","A","POB"
"80478","CO","Tabernash","Grand","8","49","40.01","-105.87","A","POB"
"80479","CO","Toponas","Routt","8","107","40.06","-106.8","A","POB"
"80480","CO","Walden","Jackson","8","57","40.69","-106.3","A","GD"
"80481","CO","Ward","Boulder","8","13","40.09","-105.49","A","GD"
"80482","CO","Winter Park","Grand","8","49","39.91","-105.78","A","POB"
"80483","CO","Yampa","Routt","8","107","40.14","-106.91","A","POB"
"80487","CO","Steamboat Springs","Routt","8","107","40.47","-106.88","A","GD"
"80488","CO","Steamboat Springs","Routt","8","107","40.45","-106.82","A","POB"
"80497","CO","Silverthorne","Summit","8","117","39.65","-106.01","A","POB"
"80498","CO","Silverthorne","Summit","8","117","39.72","-106.15","A","GD"
"80501","CO","Longmont","Boulder","8","13","40.17","-105.11","A","GD"
"80502","CO","Longmont","Boulder","8","13","40.16","-105.1","A","POB"
"80503","CO","Longmont","Boulder","8","13","40.16","-105.18","A","GD"
"80504","CO","Longmont","Weld","8","123","40.16","-105.02","A","GD"
"80510","CO","Allenspark","Boulder","8","13","40.22","-105.53","A","GD"
"80511","CO","Estes Park","Larimer","8","69","40.34","-105.57","A","POB"
"80512","CO","Bellvue","Larimer","8","69","40.64","-105.48","A","GD"
"80513","CO","Berthoud","Larimer","8","69","40.3","-105.09","A","GD"
"80514","CO","Dacono","Weld","8","123","40.08","-104.94","A","GD"
"80515","CO","Drake","Larimer","8","69","40.41","-105.4","A","GD"
"80516","CO","Erie","Boulder","8","13","40.05","-105.03","A","GD"
"80517","CO","Estes Park","Larimer","8","69","40.37","-105.54","A","GD"
"80520","CO","Firestone","Weld","8","123","40.11","-104.93","A","POB"
"80521","CO","Fort Collins","Larimer","8","69","40.59","-105.1","A","GD"
"80522","CO","Fort Collins","Larimer","8","69","40.6","-105.13","A","POB"
"80523","CO","Fort Collins","Larimer","8","69","40.57","-105.09","A","PVT"
"80524","CO","Fort Collins","Larimer","8","69","40.61","-105.04","A","GD"
"80525","CO","Fort Collins","Larimer","8","69","40.53","-105.05","A","GD"
"80526","CO","Fort Collins","Larimer","8","69","40.54","-105.11","A","GD"
"80527","CO","Fort Collins","Larimer","8","69","40.53","-105.07","A","POB"
"80528","CO","Fort Collins","Larimer","8","69","40.5","-105.01","A","GD"
"80530","CO","Frederick","Weld","8","123","40.1","-104.93","A","GD"
"80532","CO","Glen Haven","Larimer","8","69","40.48","-105.46","A","POB"
"80533","CO","Hygiene","Boulder","8","13","40.2","-105.18","A","POB"
"80534","CO","Johnstown","Weld","8","123","40.35","-104.94","A","GD"
"80535","CO","Laporte","Larimer","8","69","40.67","-105.17","A","GD"
"80536","CO","Livermore","Larimer","8","69","40.89","-105.37","A","GD"
"80537","CO","Loveland","Larimer","8","69","40.38","-105.11","A","GD"
"80538","CO","Loveland","Larimer","8","69","40.44","-105.1","A","GD"
"80539","CO","Loveland","Larimer","8","69","40.4","-105.07","A","POB"
"80540","CO","Lyons","Boulder","8","13","40.24","-105.33","A","GD"
"80541","CO","Masonville","Larimer","8","69","40.42","-105.07","A","POB"
"80542","CO","Mead","Weld","8","123","40.23","-105","A","GD"
"80543","CO","Milliken","Weld","8","123","40.33","-104.85","A","GD"
"80544","CO","Niwot","Boulder","8","13","40.1","-105.17","A","POB"
"80545","CO","Red Feather Lakes","Larimer","8","69","40.85","-105.66","A","GD"
"80546","CO","Severance","Weld","8","123","40.52","-104.85","A","POB"
"80547","CO","Timnath","Larimer","8","69","40.53","-104.97","A","POB"
"80549","CO","Wellington","Larimer","8","69","40.77","-105.01","A","GD"
"80550","CO","Windsor","Weld","8","123","40.48","-104.9","A","GD"
"80551","CO","Windsor","Weld","8","123","40.49","-104.91","A","PVT"
"80553","CO","Fort Collins","Larimer","8","69","40.57","-105.04","A","PVT"
"80601","CO","Brighton","Adams","8","1","39.97","-104.8","A","GD"
"80602","CO","Brighton","Adams","8","1","39.95","-104.92","A","GD"
"80603","CO","Brighton","Weld","8","123","39.96","-104.77","A","GD"
"80610","CO","Ault","Weld","8","123","40.62","-104.69","A","GD"
"80611","CO","Briggsdale","Weld","8","123","40.62","-104.29","A","GD"
"80612","CO","Carr","Weld","8","123","40.88","-104.9","A","GD"
"80614","CO","Eastlake","Adams","8","1","39.93","-104.96","A","POB"
"80615","CO","Eaton","Weld","8","123","40.53","-104.72","A","GD"
"80620","CO","Evans","Weld","8","123","40.38","-104.71","A","GD"
"80621","CO","Fort Lupton","Weld","8","123","40.09","-104.8","A","GD"
"80622","CO","Galeton","Weld","8","123","40.54","-104.48","A","GD"
"80623","CO","Gilcrest","Weld","8","123","40.29","-104.78","A","POB"
"80624","CO","Gill","Weld","8","123","40.48","-104.52","A","GD"
"80631","CO","Greeley","Weld","8","123","40.42","-104.69","A","GD"
"80632","CO","Greeley","Weld","8","123","40.42","-104.7","A","POB"
"80633","CO","Greeley","Weld","8","123","40.42","-104.7","A","POB"
"80634","CO","Greeley","Weld","8","123","40.41","-104.76","A","GD"
"80638","CO","Greeley","Weld","8","123","40.39","-104.69","A","PVT"
"80639","CO","Greeley","Weld","8","123","40.4","-104.7","A","PVT"
"80640","CO","Henderson","Adams","8","1","39.89","-104.88","A","GD"
"80642","CO","Hudson","Weld","8","123","40.05","-104.64","A","GD"
"80643","CO","Keenesburg","Weld","8","123","40.08","-104.5","A","GD"
"80644","CO","Kersey","Weld","8","123","40.37","-104.54","A","GD"
"80645","CO","La Salle","Weld","8","123","40.33","-104.71","A","GD"
"80646","CO","Lucerne","Weld","8","123","40.48","-104.7","A","POB"
"80648","CO","Nunn","Weld","8","123","40.73","-104.76","A","GD"
"80649","CO","Orchard","Morgan","8","87","40.34","-104.17","A","GD"
"80650","CO","Pierce","Weld","8","123","40.64","-104.76","A","GD"
"80651","CO","Platteville","Weld","8","123","40.24","-104.84","A","GD"
"80652","CO","Roggen","Weld","8","123","40.11","-104.31","A","GD"
"80653","CO","Weldona","Morgan","8","87","40.36","-104.02","A","GD"
"80654","CO","Wiggins","Morgan","8","87","40.19","-104.07","A","GD"
"80701","CO","Fort Morgan","Morgan","8","87","40.24","-103.81","A","GD"
"80705","CO","Log Lane Village","Morgan","8","87","40.27","-103.83","A","GD"
"80720","CO","Akron","Washington","8","121","40.11","-103.2","A","GD"
"80721","CO","Amherst","Phillips","8","95","40.68","-102.16","A","GD"
"80722","CO","Atwood","Logan","8","75","40.53","-103.27","A","GD"
"80723","CO","Brush","Morgan","8","87","40.22","-103.61","A","GD"
"80726","CO","Crook","Logan","8","75","40.88","-102.79","A","GD"
"80727","CO","Eckley","Yuma","8","125","40.1","-102.49","A","GD"
"80728","CO","Fleming","Logan","8","75","40.62","-102.85","A","GD"
"80729","CO","Grover","Weld","8","123","40.88","-104.23","A","GD"
"80731","CO","Haxtun","Phillips","8","95","40.61","-102.6","A","GD"
"80732","CO","Hereford","Weld","8","123","40.98","-104.3","A","POB"
"80733","CO","Hillrose","Morgan","8","87","40.36","-103.47","A","GD"
"80734","CO","Holyoke","Phillips","8","95","40.57","-102.3","A","GD"
"80735","CO","Idalia","Yuma","8","125","39.71","-102.27","A","GD"
"80736","CO","Iliff","Logan","8","75","40.79","-103.05","A","GD"
"80737","CO","Julesburg","Sedgwick","8","115","40.94","-102.22","A","GD"
"80740","CO","Lindon","Washington","8","121","39.68","-103.38","A","GD"
"80741","CO","Merino","Logan","8","75","40.51","-103.42","A","GD"
"80742","CO","New Raymer","Weld","8","123","40.69","-103.84","A","GD"
"80743","CO","Otis","Washington","8","121","40.2","-102.96","A","GD"
"80744","CO","Ovid","Sedgwick","8","115","40.93","-102.39","A","GD"
"80745","CO","Padroni","Logan","8","75","40.83","-103.28","A","GD"
"80746","CO","Paoli","Phillips","8","95","40.61","-102.47","A","POB"
"80747","CO","Peetz","Logan","8","75","40.96","-103.09","A","GD"
"80749","CO","Sedgwick","Sedgwick","8","115","40.89","-102.55","A","GD"
"80750","CO","Snyder","Morgan","8","87","40.37","-103.58","A","GD"
"80751","CO","Sterling","Logan","8","75","40.63","-103.21","A","GD"
"80754","CO","Stoneham","Weld","8","123","40.68","-103.63","A","GD"
"80755","CO","Vernon","Yuma","8","125","39.92","-102.35","A","GD"
"80757","CO","Woodrow","Washington","8","121","39.84","-103.59","A","GD"
"80758","CO","Wray","Yuma","8","125","40.17","-102.05","A","GD"
"80759","CO","Yuma","Yuma","8","125","40.18","-102.69","A","GD"
"80801","CO","Anton","Washington","8","121","39.73","-103.1","A","GD"
"80802","CO","Arapahoe","Cheyenne","8","17","38.85","-102.16","A","GD"
"80804","CO","Arriba","Lincoln","8","73","39.39","-103.29","A","GD"
"80805","CO","Bethune","Kit Carson","8","63","39.31","-102.44","A","GD"
"80807","CO","Burlington","Kit Carson","8","63","39.32","-102.25","A","GD"
"80808","CO","Calhan","El Paso","8","41","38.97","-104.32","A","GD"
"80809","CO","Cascade","El Paso","8","41","38.88","-104.99","A","GD"
"80810","CO","Cheyenne Wells","Cheyenne","8","17","38.82","-102.38","A","GD"
"80812","CO","Cope","Washington","8","121","39.65","-102.88","A","GD"
"80813","CO","Cripple Creek","Teller","8","119","38.76","-105.15","A","GD"
"80814","CO","Divide","Teller","8","119","38.94","-105.19","A","GD"
"80815","CO","Flagler","Kit Carson","8","63","39.39","-103.06","A","GD"
"80816","CO","Florissant","Teller","8","119","38.89","-105.31","A","GD"
"80817","CO","Fountain","El Paso","8","41","38.67","-104.7","A","GD"
"80818","CO","Genoa","Lincoln","8","73","39.39","-103.48","A","GD"
"80819","CO","Green Mountain Falls","El Paso","8","41","38.95","-105.02","A","POB"
"80820","CO","Guffey","Park","8","93","38.79","-105.59","A","GD"
"80821","CO","Hugo","Lincoln","8","73","39","-103.45","A","GD"
"80822","CO","Joes","Yuma","8","125","39.66","-102.69","A","GD"
"80823","CO","Karval","Lincoln","8","73","38.72","-103.46","A","GD"
"80824","CO","Kirk","Yuma","8","125","39.63","-102.54","A","GD"
"80825","CO","Kit Carson","Cheyenne","8","17","38.76","-102.83","A","GD"
"80826","CO","Limon","Lincoln","8","73","39.21","-103.7","A","PVT"
"80827","CO","Lake George","Park","8","93","39.04","-105.44","A","GD"
"80828","CO","Limon","Lincoln","8","73","39.28","-103.69","A","GD"
"80829","CO","Manitou Springs","El Paso","8","41","38.85","-104.92","A","GD"
"80830","CO","Matheson","Elbert","8","39","39.13","-103.88","A","GD"
"80831","CO","Peyton","El Paso","8","41","38.97","-104.55","A","GD"
"80832","CO","Ramah","El Paso","8","41","39.03","-104.04","A","GD"
"80833","CO","Rush","El Paso","8","41","38.76","-103.97","A","GD"
"80834","CO","Seibert","Kit Carson","8","63","39.32","-102.89","A","GD"
"80835","CO","Simla","Elbert","8","39","39.17","-104.09","A","GD"
"80836","CO","Stratton","Kit Carson","8","63","39.3","-102.59","A","GD"
"80840","CO","Usaf Academy","El Paso","8","41","38.99","-104.85","A","GD"
"80841","CO","Usaf Academy","El Paso","8","41","39.01","-104.87","A","POB"
"80860","CO","Victor","Teller","8","119","38.72","-105.13","A","POB"
"80861","CO","Vona","Kit Carson","8","63","39.37","-102.75","A","GD"
"80862","CO","Wild Horse","Cheyenne","8","17","38.84","-103.08","A","POB"
"80863","CO","Woodland Park","Teller","8","119","39","-105.07","A","GD"
"80864","CO","Yoder","El Paso","8","41","38.72","-104.17","A","GD"
"80866","CO","Woodland Park","Teller","8","119","38.99","-105.06","A","POB"
"80901","CO","Colorado Springs","El Paso","8","41","38.83","-104.82","A","POB"
"80902","CO","Colorado Springs","El Paso","8","41","38.74","-104.8","A","GD"
"80903","CO","Colorado Springs","El Paso","8","41","38.83","-104.82","A","GD"
"80904","CO","Colorado Springs","El Paso","8","41","38.85","-104.86","A","GD"
"80905","CO","Colorado Springs","El Paso","8","41","38.82","-104.83","A","GD"
"80906","CO","Colorado Springs","El Paso","8","41","38.79","-104.82","A","GD"
"80907","CO","Colorado Springs","El Paso","8","41","38.88","-104.82","A","GD"
"80908","CO","Colorado Springs","El Paso","8","41","39.02","-104.7","A","GD"
"80909","CO","Colorado Springs","El Paso","8","41","38.85","-104.78","A","GD"
"80910","CO","Colorado Springs","El Paso","8","41","38.81","-104.77","A","GD"
"80911","CO","Colorado Springs","El Paso","8","41","38.75","-104.73","A","GD"
"80912","CO","Colorado Springs","El Paso","8","41","38.8","-104.53","A","GD"
"80913","CO","Colorado Springs","El Paso","8","41","38.74","-104.78","A","GD"
"80914","CO","Colorado Springs","El Paso","8","41","38.83","-104.7","A","POB"
"80915","CO","Colorado Springs","El Paso","8","41","38.85","-104.72","A","GD"
"80916","CO","Colorado Springs","El Paso","8","41","38.81","-104.74","A","GD"
"80917","CO","Colorado Springs","El Paso","8","41","38.89","-104.74","A","GD"
"80918","CO","Colorado Springs","El Paso","8","41","38.91","-104.78","A","GD"
"80919","CO","Colorado Springs","El Paso","8","41","38.92","-104.85","A","GD"
"80920","CO","Colorado Springs","El Paso","8","41","38.96","-104.77","A","GD"
"80921","CO","Colorado Springs","El Paso","8","41","39.03","-104.83","A","GD"
"80922","CO","Colorado Springs","El Paso","8","41","38.89","-104.7","A","GD"
"80923","CO","Colorado Springs","El Paso","8","41","38.92","-104.72","A","GD"
"80924","CO","Colorado Springs","El Paso","8","41","38.96","-104.72","A","GD"
"80925","CO","Colorado Springs","El Paso","8","41","38.74","-104.65","A","GD"
"80926","CO","Colorado Springs","El Paso","8","41","38.67","-104.86","A","GD"
"80927","CO","Colorado Springs","El Paso","8","41","38.93","-104.67","A","GD"
"80928","CO","Colorado Springs","El Paso","8","41","38.67","-104.47","A","GD"
"80929","CO","Colorado Springs","El Paso","8","41","38.83","-104.65","A","GD"
"80930","CO","Colorado Springs","El Paso","8","41","38.82","-104.51","A","GD"
"80931","CO","Colorado Springs","El Paso","8","41","38.75","-104.73","A","POB"
"80932","CO","Colorado Springs","El Paso","8","41","38.85","-104.78","A","POB"
"80933","CO","Colorado Springs","El Paso","8","41","38.87","-104.81","A","POB"
"80934","CO","Colorado Springs","El Paso","8","41","38.85","-104.86","A","POB"
"80935","CO","Colorado Springs","El Paso","8","41","38.81","-104.76","A","POB"
"80936","CO","Colorado Springs","El Paso","8","41","38.9","-104.75","A","POB"
"80937","CO","Colorado Springs","El Paso","8","41","38.81","-104.82","A","POB"
"80938","CO","Colorado Springs","El Paso","8","41","38.91","-104.68","A","GD"
"80939","CO","Colorado Springs","El Paso","8","41","38.88","-104.68","A","GD"
"80941","CO","Colorado Springs","El Paso","8","41","38.93","-104.8","A","PVT"
"80942","CO","Colorado Springs","El Paso","8","41","38.83","-104.82","A","PVT"
"80944","CO","Colorado Springs","El Paso","8","41","38.83","-104.82","A","PVT"
"80946","CO","Colorado Springs","El Paso","8","41","38.85","-104.82","A","PVT"
"80947","CO","Colorado Springs","El Paso","8","41","38.83","-104.82","A","PVT"
"80949","CO","Colorado Springs","El Paso","8","41","38.93","-104.86","A","POB"
"80950","CO","Colorado Springs","El Paso","8","41","38.84","-104.79","A","PVT"
"80951","CO","Colorado Springs","El Paso","8","41","38.87","-104.67","A","GD"
"80960","CO","Colorado Springs","El Paso","8","41","38.81","-104.82","A","POB"
"80962","CO","Colorado Springs","El Paso","8","41","38.95","-104.8","A","POB"
"80970","CO","Colorado Springs","El Paso","8","41","38.85","-104.72","A","POB"
"80977","CO","Colorado Springs","El Paso","8","41","38.78","-104.66","A","PVT"
"80995","CO","Colorado Springs","El Paso","8","41","38.96","-104.79","A","PVT"
"80997","CO","Colorado Springs","El Paso","8","41","38.88","-104.82","A","PVT"
"81001","CO","Pueblo","Pueblo","8","101","38.28","-104.58","A","GD"
"81002","CO","Pueblo","Pueblo","8","101","38.25","-104.61","A","POB"
"81003","CO","Pueblo","Pueblo","8","101","38.28","-104.62","A","GD"
"81004","CO","Pueblo","Pueblo","8","101","38.22","-104.64","A","GD"
"81005","CO","Pueblo","Pueblo","8","101","38.23","-104.69","A","GD"
"81006","CO","Pueblo","Pueblo","8","101","38.24","-104.54","A","GD"
"81007","CO","Pueblo","Pueblo","8","101","38.33","-104.75","A","GD"
"81008","CO","Pueblo","Pueblo","8","101","38.38","-104.62","A","GD"
"81009","CO","Pueblo","Pueblo","8","101","38.28","-104.49","A","PVT"
"81010","CO","Pueblo","Pueblo","8","101","38.27","-104.61","A","PVT"
"81011","CO","Pueblo","Pueblo","8","101","38.27","-104.61","A","PVT"
"81012","CO","Pueblo","Pueblo","8","101","38.27","-104.61","A","PVT"
"81019","CO","Colorado City","Pueblo","8","101","37.94","-104.84","A","POB"
"81020","CO","Aguilar","Las Animas","8","71","37.41","-104.65","A","GD"
"81021","CO","Arlington","Kiowa","8","61","38.42","-103.38","A","GD"
"81022","CO","Avondale","Pueblo","8","101","38.11","-104.43","A","GD"
"81023","CO","Beulah","Pueblo","8","101","38.07","-104.96","A","GD"
"81024","CO","Boncarbo","Las Animas","8","71","37.24","-104.74","A","GD"
"81025","CO","Boone","Pueblo","8","101","38.29","-104.29","A","GD"
"81027","CO","Branson","Las Animas","8","71","37.14","-103.87","A","GD"
"81029","CO","Campo","Baca","8","9","37.11","-102.53","A","GD"
"81030","CO","Cheraw","Otero","8","89","38.11","-103.51","A","POB"
"81033","CO","Crowley","Crowley","8","25","38.19","-103.86","A","POB"
"81034","CO","Ordway","Crowley","8","25","38.19","-103.86","A","PVT"
"81036","CO","Eads","Kiowa","8","61","38.45","-102.72","A","GD"
"81038","CO","Fort Lyon","Bent","8","11","38.08","-103.14","A","POB"
"81039","CO","Fowler","Otero","8","89","38.03","-104.03","A","GD"
"81040","CO","Gardner","Huerfano","8","55","37.78","-105.23","A","GD"
"81041","CO","Granada","Prowers","8","99","37.97","-102.33","A","GD"
"81043","CO","Hartman","Prowers","8","99","38.12","-102.22","A","POB"
"81044","CO","Hasty","Bent","8","11","38.06","-102.93","A","GD"
"81045","CO","Haswell","Kiowa","8","61","38.45","-103.18","A","GD"
"81046","CO","Hoehne","Las Animas","8","71","37.17","-104.5","A","POB"
"81047","CO","Holly","Prowers","8","99","38.07","-102.2","A","GD"
"81049","CO","Kim","Las Animas","8","71","37.28","-103.35","A","GD"
"81050","CO","La Junta","Otero","8","89","38","-103.53","A","GD"
"81052","CO","Lamar","Prowers","8","99","38.07","-102.62","A","GD"
"81054","CO","Las Animas","Bent","8","11","38.05","-103.21","A","GD"
"81055","CO","La Veta","Huerfano","8","55","37.48","-105.06","A","GD"
"81057","CO","Mc Clave","Bent","8","11","38.12","-102.88","A","GD"
"81058","CO","Manzanola","Otero","8","89","38.11","-103.88","A","GD"
"81059","CO","Model","Las Animas","8","71","37.45","-104.07","A","GD"
"81062","CO","Olney Springs","Crowley","8","25","38.19","-103.92","A","GD"
"81063","CO","Ordway","Crowley","8","25","38.3","-103.77","A","GD"
"81064","CO","Pritchett","Baca","8","9","37.26","-102.92","A","GD"
"81067","CO","Rocky Ford","Otero","8","89","38.04","-103.72","A","GD"
"81069","CO","Rye","Pueblo","8","101","37.91","-104.91","A","GD"
"81071","CO","Sheridan Lake","Kiowa","8","61","38.46","-102.3","A","GD"
"81073","CO","Springfield","Baca","8","9","37.41","-102.64","A","GD"
"81076","CO","Sugar City","Crowley","8","25","38.25","-103.65","A","GD"
"81077","CO","Swink","Otero","8","89","38.02","-103.63","A","POB"
"81081","CO","Trinchera","Las Animas","8","71","37.06","-104.15","A","GD"
"81082","CO","Trinidad","Las Animas","8","71","37.18","-104.52","A","GD"
"81084","CO","Two Buttes","Baca","8","9","37.59","-102.43","A","GD"
"81087","CO","Vilas","Baca","8","9","37.37","-102.42","A","POB"
"81089","CO","Walsenburg","Huerfano","8","55","37.62","-104.8","A","GD"
"81090","CO","Walsh","Baca","8","9","37.35","-102.27","A","GD"
"81091","CO","Weston","Las Animas","8","71","37.17","-104.93","A","GD"
"81092","CO","Wiley","Prowers","8","99","38.18","-102.74","A","GD"
"81101","CO","Alamosa","Alamosa","8","3","37.48","-105.82","A","GD"
"81102","CO","Alamosa","Alamosa","8","3","37.47","-105.86","A","PVT"
"81120","CO","Antonito","Conejos","8","21","37.13","-106.2","A","GD"
"81121","CO","Arboles","Archuleta","8","7","37.04","-107.42","A","POB"
"81122","CO","Bayfield","La Plata","8","67","37.27","-107.56","A","GD"
"81123","CO","Blanca","Costilla","8","23","37.4","-105.57","A","GD"
"81124","CO","Capulin","Conejos","8","21","37.3","-106.13","A","POB"
"81125","CO","Center","Rio Grande","8","105","37.77","-106.09","A","GD"
"81126","CO","Chama","Costilla","8","23","37.17","-105.35","A","POB"
"81128","CO","Chromo","Archuleta","8","7","37.06","-106.69","A","POB"
"81129","CO","Conejos","Conejos","8","21","37.1","-106.01","A","POB"
"81130","CO","Creede","Mineral","8","79","37.75","-107.02","A","GD"
"81131","CO","Crestone","Saguache","8","109","37.94","-105.67","A","POB"
"81132","CO","Del Norte","Rio Grande","8","105","37.71","-106.38","A","GD"
"81133","CO","Fort Garland","Costilla","8","23","37.39","-105.35","A","GD"
"81135","CO","Homelake","Rio Grande","8","105","37.58","-106.15","A","POB"
"81136","CO","Hooper","Alamosa","8","3","37.74","-105.88","A","GD"
"81137","CO","Ignacio","La Plata","8","67","36.97","-107.5","A","GD"
"81138","CO","Jaroso","Costilla","8","23","37.04","-105.63","A","POB"
"81140","CO","La Jara","Conejos","8","21","37.29","-106.03","A","GD"
"81141","CO","Manassa","Conejos","8","21","37.16","-105.92","A","POB"
"81143","CO","Moffat","Saguache","8","109","38.09","-105.9","A","GD"
"81144","CO","Monte Vista","Rio Grande","8","105","37.57","-106.15","A","GD"
"81146","CO","Mosca","Alamosa","8","3","37.65","-105.75","A","GD"
"81147","CO","Pagosa Springs","Archuleta","8","7","37.25","-107.09","A","GD"
"81148","CO","Romeo","Conejos","8","21","37.17","-105.98","A","POB"
"81149","CO","Saguache","Saguache","8","109","38.09","-106.31","A","GD"
"81151","CO","Sanford","Conejos","8","21","37.2","-105.68","A","GD"
"81152","CO","San Luis","Costilla","8","23","37.11","-105.54","A","GD"
"81154","CO","South Fork","Rio Grande","8","105","37.67","-106.63","A","GD"
"81155","CO","Villa Grove","Saguache","8","109","38.29","-106.06","A","GD"
"81157","CO","Pagosa Springs","Archuleta","8","7","37.26","-107.01","A","POB"
"81201","CO","Salida","Chaffee","8","15","38.54","-106.04","A","GD"
"81210","CO","Almont","Gunnison","8","51","38.79","-106.63","A","GD"
"81211","CO","Buena Vista","Chaffee","8","15","38.87","-106.16","A","GD"
"81212","CO","Canon City","Fremont","8","43","38.47","-105.26","A","GD"
"81215","CO","Canon City","Fremont","8","43","38.45","-105.23","A","POB"
"81220","CO","Cimarron","Montrose","8","85","38.36","-107.5","A","GD"
"81221","CO","Coal Creek","Fremont","8","43","38.36","-105.15","A","POB"
"81222","CO","Coaldale","Fremont","8","43","38.36","-105.76","A","POB"
"81223","CO","Cotopaxi","Fremont","8","43","38.38","-105.56","A","GD"
"81224","CO","Crested Butte","Gunnison","8","51","38.86","-106.96","A","GD"
"81225","CO","Crested Butte","Gunnison","8","51","38.92","-106.97","A","POB"
"81226","CO","Florence","Fremont","8","43","38.38","-105.12","A","GD"
"81227","CO","Monarch","Chaffee","8","15","38.55","-106.29","A","POB"
"81228","CO","Granite","Chaffee","8","15","39.12","-106.26","A","GD"
"81230","CO","Gunnison","Gunnison","8","51","38.48","-106.97","A","GD"
"81231","CO","Gunnison","Gunnison","8","51","38.55","-106.92","A","PVT"
"81232","CO","Hillside","Fremont","8","43","38.28","-105.61","A","POB"
"81233","CO","Howard","Fremont","8","43","38.43","-105.83","A","GD"
"81235","CO","Lake City","Hinsdale","8","53","38.01","-107.28","A","GD"
"81236","CO","Nathrop","Chaffee","8","15","38.72","-106.18","A","GD"
"81237","CO","Ohio City","Gunnison","8","51","38.6","-106.6","A","GD"
"81239","CO","Parlin","Gunnison","8","51","38.51","-106.68","A","GD"
"81240","CO","Penrose","Fremont","8","43","38.45","-105.02","A","GD"
"81241","CO","Pitkin","Gunnison","8","51","38.61","-106.51","A","POB"
"81242","CO","Poncha Springs","Chaffee","8","15","38.51","-106.08","A","POB"
"81243","CO","Powderhorn","Gunnison","8","51","38.3","-107.22","A","GD"
"81244","CO","Rockvale","Fremont","8","43","38.37","-105.17","A","POB"
"81248","CO","Sargents","Saguache","8","109","38.47","-106.41","A","POB"
"81251","CO","Twin Lakes","Lake","8","65","39.09","-106.35","A","GD"
"81252","CO","Westcliffe","Custer","8","27","38.13","-105.44","A","GD"
"81253","CO","Wetmore","Custer","8","27","38.19","-105.1","A","GD"
"81290","CO","Florence","Fremont","8","43","38.39","-105.12","A","PVT"
"81301","CO","Durango","La Plata","8","67","37.34","-107.85","A","GD"
"81302","CO","Durango","La Plata","8","67","37.27","-107.88","A","POB"
"81303","CO","Durango","La Plata","8","67","37.16","-107.86","A","GD"
"81320","CO","Cahone","Dolores","8","33","37.74","-108.76","A","GD"
"81321","CO","Cortez","Montezuma","8","83","37.35","-108.62","A","GD"
"81323","CO","Dolores","Montezuma","8","83","37.57","-108.41","A","GD"
"81324","CO","Dove Creek","Dolores","8","33","37.56","-109.14","A","GD"
"81325","CO","Egnar","San Miguel","8","113","37.95","-108.79","A","GD"
"81326","CO","Hesperus","La Plata","8","67","37.17","-108.13","A","GD"
"81327","CO","Lewis","Montezuma","8","83","37.52","-108.66","A","GD"
"81328","CO","Mancos","Montezuma","8","83","37.37","-108.33","A","GD"
"81329","CO","Marvel","La Plata","8","67","37.11","-108.13","A","POB"
"81330","CO","Mesa Verde National Park","Montezuma","8","83","37.22","-108.47","A","POB"
"81331","CO","Pleasant View","Montezuma","8","83","37.58","-108.78","A","GD"
"81332","CO","Rico","Dolores","8","33","37.7","-108.02","A","POB"
"81334","CO","Towaoc","Montezuma","8","83","37.19","-108.69","A","POB"
"81335","CO","Yellow Jacket","Montezuma","8","83","37.54","-108.73","A","GD"
"81401","CO","Montrose","Montrose","8","85","38.48","-107.84","A","GD"
"81402","CO","Montrose","Montrose","8","85","38.49","-107.84","A","POB"
"81403","CO","Montrose","Montrose","8","85","38.38","-107.9","A","GD"
"81410","CO","Austin","Delta","8","29","38.79","-107.97","A","GD"
"81411","CO","Bedrock","Montrose","8","85","38.32","-108.96","A","GD"
"81413","CO","Cedaredge","Delta","8","29","38.93","-107.93","A","GD"
"81414","CO","Cory","Delta","8","29","38.79","-107.99","A","POB"
"81415","CO","Crawford","Delta","8","29","38.63","-107.59","A","GD"
"81416","CO","Delta","Delta","8","29","38.73","-108.07","A","GD"
"81418","CO","Eckert","Delta","8","29","38.85","-107.96","A","GD"
"81419","CO","Hotchkiss","Delta","8","29","38.82","-107.74","A","GD"
"81420","CO","Lazear","Delta","8","29","38.78","-107.78","A","POB"
"81422","CO","Naturita","Montrose","8","85","38.29","-108.66","A","GD"
"81423","CO","Norwood","San Miguel","8","113","38.06","-108.34","A","POB"
"81424","CO","Nucla","Montrose","8","85","38.26","-108.5","A","GD"
"81425","CO","Olathe","Montrose","8","85","38.6","-108.05","A","GD"
"81426","CO","Ophir","San Miguel","8","113","37.86","-107.83","A","POB"
"81427","CO","Ouray","Ouray","8","91","38","-107.66","A","POB"
"81428","CO","Paonia","Delta","8","29","38.88","-107.59","A","GD"
"81429","CO","Paradox","Montrose","8","85","38.34","-108.91","A","POB"
"81430","CO","Placerville","San Miguel","8","113","38.02","-108.05","A","POB"
"81431","CO","Redvale","Montrose","8","85","38.11","-108.54","A","GD"
"81432","CO","Ridgway","Ouray","8","91","38.15","-107.76","A","GD"
"81433","CO","Silverton","San Juan","8","111","37.82","-107.64","A","POB"
"81434","CO","Somerset","Gunnison","8","51","38.94","-107.37","A","GD"
"81435","CO","Telluride","San Miguel","8","113","37.93","-107.85","A","GD"
"81501","CO","Grand Junction","Mesa","8","77","39.07","-108.55","A","GD"
"81502","CO","Grand Junction","Mesa","8","77","39.07","-108.57","A","POB"
"81503","CO","Grand Junction","Mesa","8","77","39.04","-108.52","A","GD"
"81504","CO","Grand Junction","Mesa","8","77","39.08","-108.49","A","GD"
"81505","CO","Grand Junction","Mesa","8","77","39.11","-108.61","A","GD"
"81506","CO","Grand Junction","Mesa","8","77","39.11","-108.54","A","GD"
"81507","CO","Grand Junction","Mesa","8","77","39.08","-108.64","A","GD"
"81520","CO","Clifton","Mesa","8","77","39.09","-108.44","A","GD"
"81521","CO","Fruita","Mesa","8","77","39.16","-108.73","A","GD"
"81522","CO","Gateway","Mesa","8","77","38.63","-108.9","A","GD"
"81523","CO","Glade Park","Mesa","8","77","38.96","-108.85","A","GD"
"81524","CO","Loma","Mesa","8","77","39.23","-108.81","A","GD"
"81525","CO","Mack","Mesa","8","77","39.27","-108.92","A","GD"
"81526","CO","Palisade","Mesa","8","77","39.11","-108.36","A","GD"
"81527","CO","Whitewater","Mesa","8","77","38.81","-108.51","A","GD"
"81601","CO","Glenwood Springs","Garfield","8","45","39.54","-107.32","A","GD"
"81602","CO","Glenwood Springs","Garfield","8","45","39.55","-107.33","A","POB"
"81610","CO","Dinosaur","Moffat","8","81","40.28","-108.87","A","GD"
"81611","CO","Aspen","Pitkin","8","97","39.19","-106.83","A","GD"
"81612","CO","Aspen","Pitkin","8","97","39.14","-106.84","A","POB"
"81615","CO","Snowmass Village","Pitkin","8","97","39.22","-106.94","A","POB"
"81620","CO","Avon","Eagle","8","37","39.63","-106.51","A","POB"
"81621","CO","Basalt","Eagle","8","37","39.38","-106.92","A","GD"
"81623","CO","Carbondale","Garfield","8","45","39.36","-107.18","A","GD"
"81624","CO","Collbran","Mesa","8","77","39.24","-107.87","A","GD"
"81625","CO","Craig","Moffat","8","81","40.58","-107.6","A","GD"
"81626","CO","Craig","Moffat","8","81","40.52","-107.55","A","POB"
"81630","CO","De Beque","Mesa","8","77","39.45","-108.4","A","GD"
"81631","CO","Eagle","Eagle","8","37","39.62","-106.78","A","POB"
"81632","CO","Edwards","Eagle","8","37","39.64","-106.61","A","GD"
"81633","CO","Dinosaur","Moffat","8","81","40.35","-108.47","A","GD"
"81635","CO","Parachute","Garfield","8","45","39.46","-108.05","A","GD"
"81636","CO","Battlement Mesa","Garfield","8","45","39.44","-108.02","A","POB"
"81637","CO","Gypsum","Eagle","8","37","39.66","-107","A","GD"
"81638","CO","Hamilton","Moffat","8","81","40.32","-107.57","A","GD"
"81639","CO","Hayden","Routt","8","107","40.48","-107.25","A","GD"
"81640","CO","Maybell","Moffat","8","81","40.7","-108.44","A","GD"
"81641","CO","Meeker","Rio Blanco","8","103","40.06","-107.84","A","GD"
"81642","CO","Meredith","Pitkin","8","97","39.33","-106.66","A","GD"
"81643","CO","Mesa","Mesa","8","77","39.11","-108.15","A","POB"
"81645","CO","Minturn","Eagle","8","37","39.46","-106.38","A","POB"
"81646","CO","Molina","Mesa","8","77","39.1","-108","A","POB"
"81647","CO","New Castle","Garfield","8","45","39.57","-107.54","A","GD"
"81648","CO","Rangely","Rio Blanco","8","103","40.06","-108.77","A","GD"
"81649","CO","Red Cliff","Eagle","8","37","39.5","-106.34","A","POB"
"81650","CO","Rifle","Garfield","8","45","39.61","-107.9","A","GD"
"81652","CO","Silt","Garfield","8","45","39.52","-107.66","A","GD"
"81653","CO","Slater","Moffat","8","81","40.97","-107.3","A","GD"
"81654","CO","Snowmass","Pitkin","8","97","39.27","-106.97","A","GD"
"81655","CO","Wolcott","Eagle","8","37","39.72","-106.55","A","POB"
"81656","CO","Woody Creek","Pitkin","8","97","39.28","-106.89","A","POB"
"81657","CO","Vail","Eagle","8","37","39.64","-106.36","A","GD"
"81658","CO","Vail","Eagle","8","37","39.64","-106.41","A","POB"
