"ZIPCode","State","City","County","StateFIPS","CountyFIPS","Latitude","Longitude","Preference","Type"
"63005","MO","Chesterfield","Saint Louis","29","189","38.64","-90.63","A","GD"
"63006","MO","Chesterfield","Saint Louis","29","189","38.66","-90.58","A","POB"
"63010","MO","Arnold","Jefferson","29","99","38.43","-90.38","A","GD"
"63011","MO","Ballwin","Saint Louis","29","189","38.6","-90.55","A","GD"
"63012","MO","Barnhart","Jefferson","29","99","38.33","-90.43","A","GD"
"63013","MO","Beaufort","Franklin","29","71","38.42","-91.15","A","GD"
"63014","MO","Berger","Franklin","29","71","38.66","-91.34","A","GD"
"63015","MO","Catawissa","Franklin","29","71","38.4","-90.75","A","GD"
"63016","MO","Cedar Hill","Jefferson","29","99","38.35","-90.64","A","GD"
"63017","MO","Chesterfield","Saint Louis","29","189","38.65","-90.54","A","GD"
"63019","MO","Crystal City","Jefferson","29","99","38.23","-90.38","A","GD"
"63020","MO","De Soto","Jefferson","29","99","38.12","-90.55","A","GD"
"63021","MO","Ballwin","Saint Louis","29","189","38.58","-90.53","A","GD"
"63022","MO","Ballwin","Saint Louis","29","189","38.6","-90.55","A","POB"
"63023","MO","Dittmer","Jefferson","29","99","38.27","-90.71","A","GD"
"63024","MO","Ballwin","Saint Louis","29","189","38.6","-90.54","A","POB"
"63025","MO","Eureka","Saint Louis","29","189","38.5","-90.62","A","GD"
"63026","MO","Fenton","Saint Louis","29","189","38.51","-90.46","A","GD"
"63028","MO","Festus","Jefferson","29","99","38.19","-90.41","A","GD"
"63030","MO","Fletcher","Jefferson","29","99","38.13","-90.74","A","GD"
"63031","MO","Florissant","Saint Louis","29","189","38.8","-90.34","A","GD"
"63032","MO","Florissant","Saint Louis","29","189","38.8","-90.31","A","POB"
"63033","MO","Florissant","Saint Louis","29","189","38.79","-90.28","A","GD"
"63034","MO","Florissant","Saint Louis","29","189","38.83","-90.29","A","GD"
"63036","MO","French Village","Saint Francois","29","187","37.98","-90.35","A","GD"
"63037","MO","Gerald","Franklin","29","71","38.41","-91.32","A","GD"
"63038","MO","Glencoe","Saint Louis","29","189","38.58","-90.66","A","GD"
"63039","MO","Gray Summit","Franklin","29","71","38.5","-90.83","A","GD"
"63040","MO","Grover","Saint Louis","29","189","38.58","-90.62","A","GD"
"63041","MO","Grubville","Franklin","29","71","38.24","-90.78","A","GD"
"63042","MO","Hazelwood","Saint Louis","29","189","38.78","-90.37","A","GD"
"63043","MO","Maryland Heights","Saint Louis","29","189","38.73","-90.45","A","GD"
"63044","MO","Bridgeton","Saint Louis","29","189","38.76","-90.42","A","GD"
"63045","MO","Earth City","Saint Louis","29","189","38.77","-90.46","A","GD"
"63047","MO","Hematite","Jefferson","29","99","38.2","-90.49","A","POB"
"63048","MO","Herculaneum","Jefferson","29","99","38.26","-90.39","A","GD"
"63049","MO","High Ridge","Jefferson","29","99","38.48","-90.53","A","GD"
"63050","MO","Hillsboro","Jefferson","29","99","38.26","-90.56","A","GD"
"63051","MO","House Springs","Jefferson","29","99","38.41","-90.57","A","GD"
"63052","MO","Imperial","Jefferson","29","99","38.38","-90.41","A","GD"
"63053","MO","Kimmswick","Jefferson","29","99","38.37","-90.36","A","POB"
"63055","MO","Labadie","Franklin","29","71","38.53","-90.84","A","GD"
"63056","MO","Leslie","Franklin","29","71","38.4","-91.23","A","GD"
"63057","MO","Liguori","Jefferson","29","99","38.34","-90.41","A","POB"
"63060","MO","Lonedell","Franklin","29","71","38.26","-90.86","A","GD"
"63061","MO","Luebbering","Franklin","29","71","38.27","-90.81","A","GD"
"63065","MO","Mapaville","Jefferson","29","99","38.25","-90.48","A","POB"
"63066","MO","Morse Mill","Jefferson","29","99","38.28","-90.65","A","POB"
"63068","MO","New Haven","Franklin","29","71","38.56","-91.23","A","GD"
"63069","MO","Pacific","Franklin","29","71","38.48","-90.74","A","GD"
"63070","MO","Pevely","Jefferson","29","99","38.28","-90.41","A","GD"
"63071","MO","Richwoods","Washington","29","221","38.15","-90.82","A","GD"
"63072","MO","Robertsville","Franklin","29","71","38.37","-90.81","A","GD"
"63073","MO","Saint Albans","Franklin","29","71","38.58","-90.77","A","POB"
"63074","MO","Saint Ann","Saint Louis","29","189","38.73","-90.39","A","GD"
"63077","MO","Saint Clair","Franklin","29","71","38.34","-90.99","A","GD"
"63079","MO","Stanton","Franklin","29","71","38.26","-91.1","A","POB"
"63080","MO","Sullivan","Franklin","29","71","38.2","-91.12","A","GD"
"63084","MO","Union","Franklin","29","71","38.44","-91","A","GD"
"63087","MO","Valles Mines","Saint Francois","29","187","38.02","-90.46","A","GD"
"63088","MO","Valley Park","Saint Louis","29","189","38.55","-90.5","A","GD"
"63089","MO","Villa Ridge","Franklin","29","71","38.46","-90.88","A","GD"
"63090","MO","Washington","Franklin","29","71","38.54","-91.02","A","GD"
"63091","MO","Rosebud","Gasconade","29","73","38.38","-91.39","A","GD"
"63099","MO","Fenton","Saint Louis","29","189","38.54","-90.45","A","PVT"
"63101","MO","Saint Louis","Saint Louis City","29","510","38.63","-90.19","A","GD"
"63102","MO","Saint Louis","Saint Louis City","29","510","38.63","-90.19","A","GD"
"63103","MO","Saint Louis","Saint Louis City","29","510","38.63","-90.21","A","GD"
"63104","MO","Saint Louis","Saint Louis City","29","510","38.61","-90.21","A","GD"
"63105","MO","Saint Louis","Saint Louis","29","189","38.64","-90.33","A","GD"
"63106","MO","Saint Louis","Saint Louis City","29","510","38.64","-90.21","A","GD"
"63107","MO","Saint Louis","Saint Louis City","29","510","38.66","-90.21","A","GD"
"63108","MO","Saint Louis","Saint Louis City","29","510","38.64","-90.25","A","GD"
"63109","MO","Saint Louis","Saint Louis City","29","510","38.59","-90.29","A","GD"
"63110","MO","Saint Louis","Saint Louis City","29","510","38.62","-90.26","A","GD"
"63111","MO","Saint Louis","Saint Louis City","29","510","38.56","-90.25","A","GD"
"63112","MO","Saint Louis","Saint Louis City","29","510","38.66","-90.28","A","GD"
"63113","MO","Saint Louis","Saint Louis City","29","510","38.66","-90.25","A","GD"
"63114","MO","Saint Louis","Saint Louis","29","189","38.7","-90.36","A","GD"
"63115","MO","Saint Louis","Saint Louis City","29","510","38.68","-90.24","A","GD"
"63116","MO","Saint Louis","Saint Louis City","29","510","38.58","-90.26","A","GD"
"63117","MO","Saint Louis","Saint Louis","29","189","38.63","-90.33","A","GD"
"63118","MO","Saint Louis","Saint Louis City","29","510","38.59","-90.23","A","GD"
"63119","MO","Saint Louis","Saint Louis","29","189","38.59","-90.35","A","GD"
"63120","MO","Saint Louis","Saint Louis City","29","510","38.69","-90.26","A","GD"
"63121","MO","Saint Louis","Saint Louis","29","189","38.71","-90.3","A","GD"
"63122","MO","Saint Louis","Saint Louis","29","189","38.58","-90.41","A","GD"
"63123","MO","Saint Louis","Saint Louis","29","189","38.55","-90.32","A","GD"
"63124","MO","Saint Louis","Saint Louis","29","189","38.64","-90.37","A","GD"
"63125","MO","Saint Louis","Saint Louis","29","189","38.52","-90.29","A","GD"
"63126","MO","Saint Louis","Saint Louis","29","189","38.55","-90.38","A","GD"
"63127","MO","Saint Louis","Saint Louis","29","189","38.54","-90.41","A","GD"
"63128","MO","Saint Louis","Saint Louis","29","189","38.5","-90.37","A","GD"
"63129","MO","Saint Louis","Saint Louis","29","189","38.47","-90.32","A","GD"
"63130","MO","Saint Louis","Saint Louis","29","189","38.67","-90.32","A","GD"
"63131","MO","Saint Louis","Saint Louis","29","189","38.62","-90.44","A","GD"
"63132","MO","Saint Louis","Saint Louis","29","189","38.68","-90.37","A","GD"
"63133","MO","Saint Louis","Saint Louis","29","189","38.68","-90.31","A","GD"
"63134","MO","Saint Louis","Saint Louis","29","189","38.74","-90.34","A","GD"
"63135","MO","Saint Louis","Saint Louis","29","189","38.75","-90.3","A","GD"
"63136","MO","Saint Louis","Saint Louis","29","189","38.74","-90.26","A","GD"
"63137","MO","Saint Louis","Saint Louis","29","189","38.75","-90.22","A","GD"
"63138","MO","Saint Louis","Saint Louis","29","189","38.79","-90.21","A","GD"
"63139","MO","Saint Louis","Saint Louis City","29","510","38.61","-90.29","A","GD"
"63140","MO","Saint Louis","Saint Louis","29","189","38.74","-90.32","A","GD"
"63141","MO","Saint Louis","Saint Louis","29","189","38.66","-90.46","A","GD"
"63143","MO","Saint Louis","Saint Louis","29","189","38.61","-90.32","A","GD"
"63144","MO","Saint Louis","Saint Louis","29","189","38.62","-90.35","A","GD"
"63145","MO","Saint Louis","Saint Louis","29","189","38.75","-90.36","A","POB"
"63146","MO","Saint Louis","Saint Louis","29","189","38.69","-90.45","A","GD"
"63147","MO","Saint Louis","Saint Louis City","29","510","38.7","-90.22","A","GD"
"63150","MO","Saint Louis","Saint Louis City","29","510","38.63","-90.19","A","PVT"
"63151","MO","Saint Louis","Saint Louis","29","189","38.47","-90.3","A","POB"
"63155","MO","Saint Louis","Saint Louis City","29","510","38.63","-90.21","A","GD"
"63156","MO","Saint Louis","Saint Louis City","29","510","38.64","-90.24","A","POB"
"63157","MO","Saint Louis","Saint Louis City","29","510","38.61","-90.22","A","POB"
"63158","MO","Saint Louis","Saint Louis City","29","510","38.6","-90.22","A","POB"
"63160","MO","Saint Louis","Saint Louis City","29","510","38.64","-90.19","A","PVT"
"63163","MO","Saint Louis","Saint Louis City","29","510","38.6","-90.24","A","POB"
"63164","MO","Saint Louis","Saint Louis City","29","510","38.64","-90.19","A","PVT"
"63166","MO","Saint Louis","Saint Louis City","29","510","38.63","-90.22","A","POB"
"63167","MO","Saint Louis","Saint Louis","29","189","38.66","-90.46","A","PVT"
"63169","MO","Saint Louis","Saint Louis City","29","510","38.63","-90.19","A","POB"
"63171","MO","Saint Louis","Saint Louis City","29","510","38.6","-90.33","A","PVT"
"63177","MO","Saint Louis","Saint Louis City","29","510","38.63","-90.22","A","POB"
"63178","MO","Saint Louis","Saint Louis City","29","510","38.63","-90.22","A","POB"
"63179","MO","Saint Louis","Saint Louis City","29","510","38.63","-90.22","A","POB"
"63180","MO","Saint Louis","Saint Louis City","29","510","38.63","-90.2","A","GD"
"63182","MO","Saint Louis","Saint Louis City","29","510","38.63","-90.2","A","GD"
"63188","MO","Saint Louis","Saint Louis City","29","510","38.63","-90.2","A","POB"
"63195","MO","Saint Louis","Saint Louis City","29","510","38.65","-90.34","A","PVT"
"63197","MO","Saint Louis","Saint Louis City","29","510","38.63","-90.2","A","PVT"
"63199","MO","Saint Louis","Saint Louis City","29","510","38.64","-90.33","A","PVT"
"63301","MO","Saint Charles","Saint Charles","29","183","38.81","-90.5","A","GD"
"63302","MO","Saint Charles","Saint Charles","29","183","38.78","-90.49","A","POB"
"63303","MO","Saint Charles","Saint Charles","29","183","38.76","-90.54","A","GD"
"63304","MO","Saint Charles","Saint Charles","29","183","38.73","-90.65","A","GD"
"63330","MO","Annada","Pike","29","163","39.26","-90.81","A","GD"
"63332","MO","Augusta","Saint Charles","29","183","38.6","-90.89","A","GD"
"63333","MO","Bellflower","Montgomery","29","139","39.03","-91.32","A","GD"
"63334","MO","Bowling Green","Pike","29","163","39.32","-91.18","A","GD"
"63336","MO","Clarksville","Pike","29","163","39.36","-90.94","A","GD"
"63338","MO","Cottleville","Saint Charles","29","183","38.75","-90.65","A","POB"
"63339","MO","Curryville","Pike","29","163","39.34","-91.38","A","GD"
"63341","MO","Defiance","Saint Charles","29","183","38.68","-90.8","A","GD"
"63342","MO","Dutzow","Warren","29","219","38.6","-91","A","POB"
"63343","MO","Elsberry","Lincoln","29","113","39.15","-90.81","A","GD"
"63344","MO","Eolia","Pike","29","163","39.23","-91.02","A","GD"
"63345","MO","Farber","Audrain","29","7","39.27","-91.57","A","GD"
"63346","MO","Flinthill","Saint Charles","29","183","38.85","-90.87","A","POB"
"63347","MO","Foley","Lincoln","29","113","39.06","-90.77","A","GD"
"63348","MO","Foristell","Saint Charles","29","183","38.82","-90.95","A","GD"
"63349","MO","Hawk Point","Lincoln","29","113","38.98","-91.15","A","GD"
"63350","MO","High Hill","Montgomery","29","139","38.89","-91.37","A","GD"
"63351","MO","Jonesburg","Montgomery","29","139","38.86","-91.31","A","GD"
"63352","MO","Laddonia","Audrain","29","7","39.24","-91.65","A","GD"
"63353","MO","Louisiana","Pike","29","163","39.44","-91.09","A","GD"
"63357","MO","Marthasville","Warren","29","219","38.65","-91.1","A","GD"
"63359","MO","Middletown","Montgomery","29","139","39.16","-91.34","A","GD"
"63361","MO","Montgomery City","Montgomery","29","139","38.96","-91.54","A","GD"
"63362","MO","Moscow Mills","Lincoln","29","113","38.94","-90.9","A","GD"
"63363","MO","New Florence","Montgomery","29","139","38.88","-91.45","A","GD"
"63365","MO","New Melle","Saint Charles","29","183","38.71","-90.88","A","POB"
"63366","MO","O Fallon","Saint Charles","29","183","38.82","-90.72","A","GD"
"63367","MO","Lake Saint Louis","Saint Charles","29","183","38.78","-90.79","A","GD"
"63368","MO","O Fallon","Saint Charles","29","183","38.75","-90.73","A","GD"
"63369","MO","Old Monroe","Lincoln","29","113","38.93","-90.77","A","GD"
"63370","MO","Olney","Lincoln","29","113","39.09","-91.24","A","POB"
"63373","MO","Portage Des Sioux","Saint Charles","29","183","38.93","-90.37","A","GD"
"63376","MO","Saint Peters","Saint Charles","29","183","38.78","-90.62","A","GD"
"63377","MO","Silex","Lincoln","29","113","39.11","-91.09","A","GD"
"63378","MO","Treloar","Warren","29","219","38.64","-91.19","A","POB"
"63379","MO","Troy","Lincoln","29","113","38.99","-90.98","A","GD"
"63380","MO","Truesdale","Warren","29","219","38.81","-91.16","A","GD"
"63381","MO","Truxton","Warren","29","219","38.99","-91.25","A","GD"
"63382","MO","Vandalia","Audrain","29","7","39.3","-91.49","A","GD"
"63383","MO","Warrenton","Warren","29","219","38.81","-91.17","A","GD"
"63384","MO","Wellsville","Montgomery","29","139","39.09","-91.55","A","GD"
"63385","MO","Wentzville","Saint Charles","29","183","38.81","-90.86","A","GD"
"63386","MO","West Alton","Saint Charles","29","183","38.87","-90.23","A","GD"
"63387","MO","Whiteside","Lincoln","29","113","39.18","-91.02","A","POB"
"63388","MO","Williamsburg","Callaway","29","27","38.88","-91.76","A","GD"
"63389","MO","Winfield","Lincoln","29","113","39","-90.77","A","GD"
"63390","MO","Wright City","Warren","29","219","38.8","-91.05","A","GD"
"63401","MO","Hannibal","Marion","29","127","39.7","-91.41","A","GD"
"63430","MO","Alexandria","Clark","29","45","40.39","-91.51","A","GD"
"63431","MO","Anabel","Macon","29","121","39.75","-92.33","A","GD"
"63432","MO","Arbela","Scotland","29","199","40.5","-91.99","A","GD"
"63433","MO","Ashburn","Pike","29","163","39.54","-91.14","A","GD"
"63434","MO","Bethel","Shelby","29","205","39.91","-91.97","A","GD"
"63435","MO","Canton","Lewis","29","111","40.17","-91.56","A","GD"
"63436","MO","Center","Ralls","29","173","39.5","-91.54","A","GD"
"63437","MO","Clarence","Shelby","29","205","39.74","-92.25","A","GD"
"63438","MO","Durham","Lewis","29","111","39.95","-91.69","A","GD"
"63439","MO","Emden","Shelby","29","205","39.8","-91.85","A","GD"
"63440","MO","Ewing","Lewis","29","111","39.99","-91.73","A","GD"
"63441","MO","Frankford","Pike","29","163","39.49","-91.31","A","GD"
"63442","MO","Granger","Scotland","29","199","40.5","-92","A","GD"
"63443","MO","Hunnewell","Shelby","29","205","39.66","-91.87","A","GD"
"63445","MO","Kahoka","Clark","29","45","40.42","-91.72","A","GD"
"63446","MO","Knox City","Knox","29","103","40.14","-92","A","GD"
"63447","MO","La Belle","Lewis","29","111","40.11","-91.91","A","GD"
"63448","MO","La Grange","Lewis","29","111","40.04","-91.53","A","GD"
"63450","MO","Lentner","Shelby","29","205","39.67","-92.15","A","GD"
"63451","MO","Leonard","Shelby","29","205","39.9","-92.19","A","GD"
"63452","MO","Lewistown","Lewis","29","111","40.09","-91.79","A","GD"
"63453","MO","Luray","Clark","29","45","40.49","-91.86","A","GD"
"63454","MO","Maywood","Marion","29","127","39.94","-91.63","A","GD"
"63456","MO","Monroe City","Monroe","29","137","39.63","-91.73","A","GD"
"63457","MO","Monticello","Lewis","29","111","40.14","-91.71","A","GD"
"63458","MO","Newark","Knox","29","103","39.99","-92","A","GD"
"63459","MO","New London","Ralls","29","173","39.58","-91.39","A","GD"
"63460","MO","Novelty","Knox","29","103","40","-92.21","A","GD"
"63461","MO","Palmyra","Marion","29","127","39.79","-91.55","A","GD"
"63462","MO","Perry","Ralls","29","173","39.44","-91.69","A","GD"
"63463","MO","Philadelphia","Marion","29","127","39.84","-91.75","A","GD"
"63464","MO","Plevna","Knox","29","103","39.97","-92.09","A","GD"
"63465","MO","Revere","Clark","29","45","40.51","-91.68","A","GD"
"63466","MO","Saint Patrick","Clark","29","45","40.32","-91.66","A","POB"
"63467","MO","Saverton","Ralls","29","173","39.65","-91.27","A","POB"
"63468","MO","Shelbina","Shelby","29","205","39.69","-92.02","A","GD"
"63469","MO","Shelbyville","Shelby","29","205","39.83","-92.04","A","GD"
"63471","MO","Taylor","Marion","29","127","39.92","-91.52","A","GD"
"63472","MO","Wayland","Clark","29","45","40.4","-91.58","A","GD"
"63473","MO","Williamstown","Lewis","29","111","40.25","-91.79","A","GD"
"63474","MO","Wyaconda","Clark","29","45","40.38","-91.91","A","GD"
"63501","MO","Kirksville","Adair","29","1","40.18","-92.58","A","GD"
"63530","MO","Atlanta","Macon","29","121","39.91","-92.46","A","GD"
"63531","MO","Baring","Knox","29","103","40.28","-92.23","A","GD"
"63532","MO","Bevier","Macon","29","121","39.75","-92.57","A","GD"
"63533","MO","Brashear","Adair","29","1","40.17","-92.39","A","GD"
"63534","MO","Callao","Macon","29","121","39.74","-92.65","A","GD"
"63535","MO","Coatsville","Schuyler","29","197","40.57","-92.64","A","GD"
"63536","MO","Downing","Schuyler","29","197","40.49","-92.36","A","GD"
"63537","MO","Edina","Knox","29","103","40.16","-92.17","A","GD"
"63538","MO","Elmer","Macon","29","121","39.95","-92.67","A","GD"
"63539","MO","Ethel","Macon","29","121","39.9","-92.75","A","GD"
"63540","MO","Gibbs","Adair","29","1","40.1","-92.41","A","GD"
"63541","MO","Glenwood","Schuyler","29","197","40.51","-92.6","A","GD"
"63543","MO","Gorin","Scotland","29","199","40.36","-92.02","A","GD"
"63544","MO","Green Castle","Sullivan","29","211","40.24","-92.85","A","GD"
"63545","MO","Green City","Sullivan","29","211","40.26","-92.97","A","GD"
"63546","MO","Greentop","Adair","29","1","40.33","-92.55","A","GD"
"63547","MO","Hurdland","Knox","29","103","40.15","-92.3","A","GD"
"63548","MO","Lancaster","Schuyler","29","197","40.52","-92.51","A","GD"
"63549","MO","La Plata","Macon","29","121","40.02","-92.5","A","GD"
"63551","MO","Livonia","Putnam","29","171","40.5","-92.72","A","GD"
"63552","MO","Macon","Macon","29","121","39.75","-92.47","A","GD"
"63555","MO","Memphis","Scotland","29","199","40.47","-92.18","A","GD"
"63556","MO","Milan","Sullivan","29","211","40.19","-93.12","A","GD"
"63557","MO","New Boston","Linn","29","115","39.97","-92.89","A","GD"
"63558","MO","New Cambria","Macon","29","121","39.74","-92.74","A","GD"
"63559","MO","Novinger","Adair","29","1","40.23","-92.73","A","GD"
"63560","MO","Pollock","Sullivan","29","211","40.37","-93.11","A","GD"
"63561","MO","Queen City","Schuyler","29","197","40.4","-92.55","A","GD"
"63563","MO","Rutledge","Scotland","29","199","40.3","-92.07","A","GD"
"63565","MO","Unionville","Putnam","29","171","40.47","-92.98","A","GD"
"63566","MO","Winigan","Sullivan","29","211","40.04","-92.93","A","GD"
"63567","MO","Worthington","Putnam","29","171","40.41","-92.69","A","GD"
"63601","MO","Park Hills","Saint Francois","29","187","37.85","-90.53","A","GD"
"63620","MO","Annapolis","Iron","29","93","37.39","-90.67","A","GD"
"63621","MO","Arcadia","Iron","29","93","37.51","-90.61","A","GD"
"63622","MO","Belgrade","Washington","29","221","37.8","-90.89","A","GD"
"63623","MO","Belleview","Iron","29","93","37.68","-90.84","A","GD"
"63624","MO","Bismarck","Saint Francois","29","187","37.74","-90.64","A","GD"
"63625","MO","Black","Reynolds","29","179","37.55","-90.97","A","GD"
"63626","MO","Blackwell","Saint Francois","29","187","38.07","-90.7","A","GD"
"63627","MO","Bloomsdale","Sainte Genevieve","29","186","38.05","-90.25","A","GD"
"63628","MO","Bonne Terre","Saint Francois","29","187","37.93","-90.56","A","GD"
"63629","MO","Bunker","Reynolds","29","179","37.42","-91.21","A","GD"
"63630","MO","Cadet","Washington","29","221","38","-90.72","A","GD"
"63631","MO","Caledonia","Washington","29","221","37.75","-90.79","A","GD"
"63632","MO","Cascade","Wayne","29","223","37.3","-90.27","A","POB"
"63633","MO","Centerville","Reynolds","29","179","37.44","-91.02","A","GD"
"63636","MO","Des Arc","Iron","29","93","37.29","-90.61","A","GD"
"63637","MO","Doe Run","Saint Francois","29","187","37.74","-90.5","A","GD"
"63638","MO","Ellington","Reynolds","29","179","37.24","-90.99","A","GD"
"63640","MO","Farmington","Saint Francois","29","187","37.78","-90.41","A","GD"
"63645","MO","Fredericktown","Madison","29","123","37.55","-90.31","A","GD"
"63648","MO","Irondale","Washington","29","221","37.83","-90.68","A","GD"
"63650","MO","Ironton","Iron","29","93","37.61","-90.64","A","GD"
"63651","MO","Knob Lick","Saint Francois","29","187","37.68","-90.37","A","POB"
"63653","MO","Leadwood","Saint Francois","29","187","37.86","-90.59","A","GD"
"63654","MO","Lesterville","Reynolds","29","179","37.46","-90.86","A","GD"
"63655","MO","Marquand","Madison","29","123","37.42","-90.18","A","GD"
"63656","MO","Middle Brook","Iron","29","93","37.6","-90.78","A","GD"
"63660","MO","Mineral Point","Washington","29","221","37.91","-90.71","A","GD"
"63662","MO","Patton","Bollinger","29","17","37.51","-90.02","A","GD"
"63663","MO","Pilot Knob","Iron","29","93","37.62","-90.64","A","POB"
"63664","MO","Potosi","Washington","29","221","37.92","-90.86","A","GD"
"63665","MO","Redford","Reynolds","29","179","37.29","-90.84","A","GD"
"63666","MO","Reynolds","Reynolds","29","179","37.4","-91.06","A","POB"
"63670","MO","Sainte Genevieve","Sainte Genevieve","29","186","37.91","-90.16","A","GD"
"63673","MO","Saint Mary","Sainte Genevieve","29","186","37.84","-89.99","A","GD"
"63674","MO","Tiff","Washington","29","221","38.02","-90.66","A","POB"
"63675","MO","Vulcan","Iron","29","93","37.32","-90.67","A","GD"
"63701","MO","Cape Girardeau","Cape Girardeau","29","31","37.33","-89.57","A","GD"
"63702","MO","Cape Girardeau","Cape Girardeau","29","31","37.31","-89.63","A","POB"
"63703","MO","Cape Girardeau","Cape Girardeau","29","31","37.29","-89.55","A","GD"
"63730","MO","Advance","Stoddard","29","207","37.1","-89.92","A","GD"
"63732","MO","Altenburg","Cape Girardeau","29","31","37.59","-89.58","A","GD"
"63735","MO","Bell City","Stoddard","29","207","37","-89.78","A","GD"
"63736","MO","Benton","Scott","29","201","37.08","-89.53","A","GD"
"63737","MO","Brazeau","Perry","29","157","37.66","-89.65","A","GD"
"63738","MO","Brownwood","Stoddard","29","207","37.08","-89.96","A","POB"
"63739","MO","Burfordville","Cape Girardeau","29","31","37.36","-89.8","A","GD"
"63740","MO","Chaffee","Scott","29","201","37.19","-89.67","A","GD"
"63742","MO","Commerce","Scott","29","201","37.16","-89.45","A","POB"
"63743","MO","Daisy","Cape Girardeau","29","31","37.51","-89.84","A","GD"
"63744","MO","Delta","Cape Girardeau","29","31","37.2","-89.74","A","POB"
"63745","MO","Dutchtown","Cape Girardeau","29","31","37.25","-89.68","A","POB"
"63746","MO","Farrar","Perry","29","157","37.7","-89.69","A","POB"
"63747","MO","Friedheim","Cape Girardeau","29","31","37.56","-89.8","A","GD"
"63748","MO","Frohna","Perry","29","157","37.67","-89.62","A","GD"
"63750","MO","Gipsy","Bollinger","29","17","37.16","-90.19","A","GD"
"63751","MO","Glenallen","Bollinger","29","17","37.29","-90.11","A","GD"
"63752","MO","Gordonville","Cape Girardeau","29","31","37.31","-89.68","A","POB"
"63755","MO","Jackson","Cape Girardeau","29","31","37.41","-89.65","A","GD"
"63758","MO","Kelso","Scott","29","201","37.19","-89.55","A","POB"
"63760","MO","Leopold","Bollinger","29","17","37.25","-89.89","A","GD"
"63763","MO","Mc Gee","Wayne","29","223","37.07","-90.15","A","GD"
"63764","MO","Marble Hill","Bollinger","29","17","37.31","-89.99","A","GD"
"63766","MO","Millersville","Cape Girardeau","29","31","37.44","-89.85","A","GD"
"63767","MO","Morley","Scott","29","201","37.04","-89.61","A","POB"
"63769","MO","Oak Ridge","Cape Girardeau","29","31","37.52","-89.74","A","GD"
"63770","MO","Old Appleton","Cape Girardeau","29","31","37.6","-89.71","A","GD"
"63771","MO","Oran","Scott","29","201","37.07","-89.68","A","GD"
"63774","MO","Perkins","Scott","29","201","37.1","-89.77","A","POB"
"63775","MO","Perryville","Perry","29","157","37.72","-89.88","A","GD"
"63776","MO","Mc Bride","Perry","29","157","37.71","-89.89","A","POB"
"63779","MO","Pocahontas","Cape Girardeau","29","31","37.5","-89.64","A","POB"
"63780","MO","Scott City","Scott","29","201","37.21","-89.53","A","GD"
"63781","MO","Sedgewickville","Bollinger","29","17","37.53","-89.93","A","GD"
"63782","MO","Sturdivant","Bollinger","29","17","37.07","-90.01","A","GD"
"63783","MO","Uniontown","Perry","29","157","37.61","-89.68","A","GD"
"63784","MO","Vanduser","Scott","29","201","36.99","-89.69","A","POB"
"63785","MO","Whitewater","Cape Girardeau","29","31","37.27","-89.82","A","GD"
"63787","MO","Zalma","Bollinger","29","17","37.13","-90.09","A","GD"
"63801","MO","Sikeston","Scott","29","201","36.89","-89.58","A","GD"
"63820","MO","Anniston","Mississippi","29","133","36.83","-89.33","A","POB"
"63821","MO","Arbyrd","Dunklin","29","69","36.05","-90.24","A","GD"
"63822","MO","Bernie","Stoddard","29","207","36.66","-90.01","A","GD"
"63823","MO","Bertrand","Mississippi","29","133","36.9","-89.45","A","GD"
"63824","MO","Blodgett","Scott","29","201","37.01","-89.53","A","POB"
"63825","MO","Bloomfield","Stoddard","29","207","36.92","-89.94","A","GD"
"63826","MO","Braggadocio","Pemiscot","29","155","36.18","-89.83","A","POB"
"63827","MO","Bragg City","Pemiscot","29","155","36.26","-89.88","A","GD"
"63828","MO","Canalou","New Madrid","29","143","36.75","-89.69","A","POB"
"63829","MO","Cardwell","Dunklin","29","69","36.04","-90.31","A","GD"
"63830","MO","Caruthersville","Pemiscot","29","155","36.17","-89.67","A","GD"
"63833","MO","Catron","New Madrid","29","143","36.63","-89.73","A","GD"
"63834","MO","Charleston","Mississippi","29","133","36.92","-89.3","A","GD"
"63837","MO","Clarkton","Dunklin","29","69","36.46","-89.98","A","GD"
"63839","MO","Cooter","Pemiscot","29","155","36.05","-89.81","A","POB"
"63840","MO","Deering","Pemiscot","29","155","36.19","-89.88","A","POB"
"63841","MO","Dexter","Stoddard","29","207","36.79","-89.97","A","GD"
"63845","MO","East Prairie","Mississippi","29","133","36.75","-89.36","A","GD"
"63846","MO","Essex","Stoddard","29","207","36.83","-89.82","A","GD"
"63847","MO","Gibson","Dunklin","29","69","36.44","-90.04","A","POB"
"63848","MO","Gideon","New Madrid","29","143","36.44","-89.91","A","GD"
"63849","MO","Gobler","Pemiscot","29","155","36.13","-89.98","A","GD"
"63850","MO","Grayridge","Stoddard","29","207","36.82","-89.78","A","POB"
"63851","MO","Hayti","Pemiscot","29","155","36.24","-89.75","A","GD"
"63852","MO","Holcomb","Dunklin","29","69","36.39","-90.02","A","GD"
"63853","MO","Holland","Pemiscot","29","155","36.06","-89.87","A","POB"
"63855","MO","Hornersville","Dunklin","29","69","36.05","-90.08","A","GD"
"63857","MO","Kennett","Dunklin","29","69","36.24","-90.05","A","GD"
"63860","MO","Kewanee","New Madrid","29","143","36.66","-89.58","A","POB"
"63862","MO","Lilbourn","New Madrid","29","143","36.58","-89.64","A","GD"
"63863","MO","Malden","Dunklin","29","69","36.57","-89.98","A","GD"
"63866","MO","Marston","New Madrid","29","143","36.52","-89.6","A","POB"
"63867","MO","Matthews","New Madrid","29","143","36.75","-89.55","A","GD"
"63868","MO","Morehouse","New Madrid","29","143","36.85","-89.69","A","POB"
"63869","MO","New Madrid","New Madrid","29","143","36.6","-89.53","A","GD"
"63870","MO","Parma","New Madrid","29","143","36.61","-89.84","A","GD"
"63873","MO","Portageville","New Madrid","29","143","36.44","-89.68","A","GD"
"63874","MO","Risco","New Madrid","29","143","36.55","-89.82","A","POB"
"63875","MO","Rives","Dunklin","29","69","36.1","-90.01","A","POB"
"63876","MO","Senath","Dunklin","29","69","36.13","-90.17","A","GD"
"63877","MO","Steele","Pemiscot","29","155","36.08","-89.85","A","GD"
"63878","MO","Tallapoosa","New Madrid","29","143","36.51","-89.82","A","POB"
"63879","MO","Wardell","Pemiscot","29","155","36.35","-89.81","A","GD"
"63880","MO","Whiteoak","Dunklin","29","69","36.33","-90.03","A","POB"
"63881","MO","Wolf Island","Mississippi","29","133","36.74","-89.21","A","POB"
"63882","MO","Wyatt","Mississippi","29","133","36.91","-89.22","A","POB"
"63901","MO","Poplar Bluff","Butler","29","23","36.76","-90.43","A","GD"
"63902","MO","Poplar Bluff","Butler","29","23","36.77","-90.43","A","POB"
"63931","MO","Briar","Ripley","29","181","36.64","-90.96","A","GD"
"63932","MO","Broseley","Butler","29","23","36.69","-90.25","A","GD"
"63933","MO","Campbell","Dunklin","29","69","36.52","-90.1","A","GD"
"63934","MO","Clubb","Wayne","29","223","37.2","-90.37","A","GD"
"63935","MO","Doniphan","Ripley","29","181","36.63","-90.87","A","GD"
"63936","MO","Dudley","Stoddard","29","207","36.8","-90.13","A","GD"
"63937","MO","Ellsinore","Carter","29","35","36.94","-90.76","A","GD"
"63938","MO","Fagus","Butler","29","23","36.5","-90.27","A","POB"
"63939","MO","Fairdealing","Ripley","29","181","36.67","-90.68","A","GD"
"63940","MO","Fisk","Butler","29","23","36.78","-90.22","A","GD"
"63941","MO","Fremont","Carter","29","35","36.93","-91.17","A","GD"
"63942","MO","Gatewood","Ripley","29","181","36.56","-91.06","A","GD"
"63943","MO","Grandin","Carter","29","35","36.84","-90.82","A","GD"
"63944","MO","Greenville","Wayne","29","223","37.09","-90.38","A","GD"
"63945","MO","Harviell","Butler","29","23","36.64","-90.54","A","GD"
"63950","MO","Lodi","Wayne","29","223","37.25","-90.47","A","GD"
"63951","MO","Lowndes","Wayne","29","223","37.15","-90.26","A","GD"
"63952","MO","Mill Spring","Wayne","29","223","37.01","-90.65","A","GD"
"63953","MO","Naylor","Ripley","29","181","36.58","-90.62","A","GD"
"63954","MO","Neelyville","Butler","29","23","36.57","-90.47","A","GD"
"63955","MO","Oxly","Ripley","29","181","36.61","-90.68","A","GD"
"63956","MO","Patterson","Wayne","29","223","37.2","-90.52","A","GD"
"63957","MO","Piedmont","Wayne","29","223","37.14","-90.7","A","GD"
"63960","MO","Puxico","Stoddard","29","207","36.96","-90.13","A","GD"
"63961","MO","Qulin","Butler","29","23","36.58","-90.26","A","GD"
"63962","MO","Rombauer","Butler","29","23","36.84","-90.28","A","POB"
"63964","MO","Silva","Wayne","29","223","37.26","-90.43","A","GD"
"63965","MO","Van Buren","Carter","29","35","37","-90.99","A","GD"
"63966","MO","Wappapello","Wayne","29","223","36.94","-90.28","A","GD"
"63967","MO","Williamsville","Wayne","29","223","36.93","-90.46","A","GD"
"64001","MO","Alma","Lafayette","29","107","39.1","-93.54","A","GD"
"64002","MO","Lees Summit","Jackson","29","95","38.91","-94.38","A","PVT"
"64011","MO","Bates City","Lafayette","29","107","38.97","-94.07","A","GD"
"64012","MO","Belton","Cass","29","37","38.81","-94.53","A","GD"
"64013","MO","Blue Springs","Jackson","29","95","39.02","-94.28","A","POB"
"64014","MO","Blue Springs","Jackson","29","95","39.02","-94.26","A","GD"
"64015","MO","Blue Springs","Jackson","29","95","39.02","-94.3","A","GD"
"64016","MO","Buckner","Jackson","29","95","39.13","-94.21","A","GD"
"64017","MO","Camden","Ray","29","177","39.2","-94.02","A","GD"
"64018","MO","Camden Point","Platte","29","165","39.45","-94.74","A","GD"
"64019","MO","Centerview","Johnson","29","101","38.76","-93.87","A","GD"
"64020","MO","Concordia","Lafayette","29","107","38.98","-93.58","A","GD"
"64021","MO","Corder","Lafayette","29","107","39.1","-93.63","A","GD"
"64022","MO","Dover","Lafayette","29","107","39.2","-93.69","A","GD"
"64024","MO","Excelsior Springs","Clay","29","47","39.34","-94.23","A","GD"
"64028","MO","Farley","Platte","29","165","39.28","-94.83","A","POB"
"64029","MO","Grain Valley","Jackson","29","95","39.01","-94.22","A","GD"
"64030","MO","Grandview","Jackson","29","95","38.88","-94.52","A","GD"
"64034","MO","Greenwood","Jackson","29","95","38.85","-94.32","A","GD"
"64035","MO","Hardin","Ray","29","177","39.29","-93.82","A","GD"
"64036","MO","Henrietta","Ray","29","177","39.21","-93.93","A","GD"
"64037","MO","Higginsville","Lafayette","29","107","39.05","-93.72","A","GD"
"64040","MO","Holden","Johnson","29","101","38.72","-93.99","A","GD"
"64048","MO","Holt","Clay","29","47","39.44","-94.35","A","GD"
"64050","MO","Independence","Jackson","29","95","39.1","-94.41","A","GD"
"64051","MO","Independence","Jackson","29","95","39.09","-94.42","A","POB"
"64052","MO","Independence","Jackson","29","95","39.07","-94.45","A","GD"
"64053","MO","Independence","Jackson","29","95","39.11","-94.46","A","GD"
"64054","MO","Independence","Jackson","29","95","39.11","-94.44","A","GD"
"64055","MO","Independence","Jackson","29","95","39.05","-94.4","A","GD"
"64056","MO","Independence","Jackson","29","95","39.11","-94.34","A","GD"
"64057","MO","Independence","Jackson","29","95","39.06","-94.35","A","GD"
"64058","MO","Independence","Jackson","29","95","39.16","-94.35","A","GD"
"64060","MO","Kearney","Clay","29","47","39.36","-94.36","A","GD"
"64061","MO","Kingsville","Johnson","29","101","38.79","-94.08","A","GD"
"64062","MO","Lawson","Ray","29","177","39.45","-94.19","A","GD"
"64063","MO","Lees Summit","Jackson","29","95","38.91","-94.36","A","GD"
"64064","MO","Lees Summit","Jackson","29","95","38.98","-94.36","A","GD"
"64065","MO","Lees Summit","Jackson","29","95","38.95","-94.41","A","PVT"
"64066","MO","Levasy","Jackson","29","95","39.14","-94.13","A","POB"
"64067","MO","Lexington","Lafayette","29","107","39.17","-93.87","A","GD"
"64068","MO","Liberty","Clay","29","47","39.24","-94.42","A","GD"
"64069","MO","Liberty","Clay","29","47","39.24","-94.42","A","POB"
"64070","MO","Lone Jack","Jackson","29","95","38.89","-94.15","A","GD"
"64071","MO","Mayview","Lafayette","29","107","39.04","-93.84","A","GD"
"64072","MO","Missouri City","Clay","29","47","39.24","-94.3","A","POB"
"64073","MO","Mosby","Clay","29","47","39.31","-94.29","A","POB"
"64074","MO","Napoleon","Lafayette","29","107","39.09","-94.09","A","GD"
"64075","MO","Oak Grove","Jackson","29","95","39","-94.14","A","GD"
"64076","MO","Odessa","Lafayette","29","107","38.99","-93.96","A","GD"
"64077","MO","Orrick","Ray","29","177","39.22","-94.12","A","GD"
"64078","MO","Peculiar","Cass","29","37","38.71","-94.46","A","GD"
"64079","MO","Platte City","Platte","29","165","39.36","-94.79","A","GD"
"64080","MO","Pleasant Hill","Cass","29","37","38.78","-94.26","A","GD"
"64081","MO","Lees Summit","Jackson","29","95","38.91","-94.41","A","GD"
"64082","MO","Lees Summit","Jackson","29","95","38.86","-94.4","A","GD"
"64083","MO","Raymore","Cass","29","37","38.8","-94.45","A","GD"
"64084","MO","Rayville","Ray","29","177","39.37","-94.07","A","GD"
"64085","MO","Richmond","Ray","29","177","39.3","-93.96","A","GD"
"64086","MO","Lees Summit","Jackson","29","95","38.92","-94.31","A","GD"
"64088","MO","Sibley","Jackson","29","95","39.15","-94.18","A","GD"
"64089","MO","Smithville","Clay","29","47","39.39","-94.57","A","GD"
"64090","MO","Strasburg","Cass","29","37","38.76","-94.16","A","POB"
"64092","MO","Waldron","Platte","29","165","39.21","-94.78","A","POB"
"64093","MO","Warrensburg","Johnson","29","101","38.77","-93.73","A","GD"
"64096","MO","Waverly","Lafayette","29","107","39.21","-93.55","A","GD"
"64097","MO","Wellington","Lafayette","29","107","39.12","-93.99","A","GD"
"64098","MO","Weston","Platte","29","165","39.44","-94.91","A","GD"
"64101","MO","Kansas City","Jackson","29","95","39.1","-94.6","A","GD"
"64102","MO","Kansas City","Jackson","29","95","39.09","-94.6","A","GD"
"64105","MO","Kansas City","Jackson","29","95","39.1","-94.59","A","GD"
"64106","MO","Kansas City","Jackson","29","95","39.1","-94.57","A","GD"
"64108","MO","Kansas City","Jackson","29","95","39.09","-94.58","A","GD"
"64109","MO","Kansas City","Jackson","29","95","39.07","-94.57","A","GD"
"64110","MO","Kansas City","Jackson","29","95","39.03","-94.57","A","GD"
"64111","MO","Kansas City","Jackson","29","95","39.06","-94.59","A","GD"
"64112","MO","Kansas City","Jackson","29","95","39.04","-94.6","A","GD"
"64113","MO","Kansas City","Jackson","29","95","39.01","-94.59","A","GD"
"64114","MO","Kansas City","Jackson","29","95","38.96","-94.6","A","GD"
"64116","MO","Kansas City","Clay","29","47","39.15","-94.57","A","GD"
"64117","MO","Kansas City","Clay","29","47","39.17","-94.53","A","GD"
"64118","MO","Kansas City","Clay","29","47","39.21","-94.57","A","GD"
"64119","MO","Kansas City","Clay","29","47","39.2","-94.52","A","GD"
"64120","MO","Kansas City","Jackson","29","95","39.13","-94.53","A","GD"
"64121","MO","Kansas City","Jackson","29","95","39.09","-94.54","A","POB"
"64123","MO","Kansas City","Jackson","29","95","39.11","-94.52","A","GD"
"64124","MO","Kansas City","Jackson","29","95","39.11","-94.54","A","GD"
"64125","MO","Kansas City","Jackson","29","95","39.11","-94.5","A","GD"
"64126","MO","Kansas City","Jackson","29","95","39.09","-94.5","A","GD"
"64127","MO","Kansas City","Jackson","29","95","39.09","-94.54","A","GD"
"64128","MO","Kansas City","Jackson","29","95","39.07","-94.54","A","GD"
"64129","MO","Kansas City","Jackson","29","95","39.05","-94.5","A","GD"
"64130","MO","Kansas City","Jackson","29","95","39.04","-94.55","A","GD"
"64131","MO","Kansas City","Jackson","29","95","38.97","-94.58","A","GD"
"64132","MO","Kansas City","Jackson","29","95","38.99","-94.55","A","GD"
"64133","MO","Kansas City","Jackson","29","95","39.02","-94.46","A","GD"
"64134","MO","Kansas City","Jackson","29","95","38.93","-94.5","A","GD"
"64136","MO","Kansas City","Jackson","29","95","39.02","-94.4","A","GD"
"64137","MO","Kansas City","Jackson","29","95","38.93","-94.54","A","GD"
"64138","MO","Kansas City","Jackson","29","95","38.97","-94.47","A","GD"
"64139","MO","Kansas City","Jackson","29","95","38.96","-94.42","A","GD"
"64141","MO","Kansas City","Jackson","29","95","39.08","-94.59","A","POB"
"64144","MO","Kansas City","Clay","29","47","39.14","-94.57","A","PVT"
"64145","MO","Kansas City","Jackson","29","95","38.89","-94.59","A","GD"
"64146","MO","Kansas City","Jackson","29","95","38.9","-94.57","A","GD"
"64147","MO","Kansas City","Jackson","29","95","38.85","-94.55","A","GD"
"64148","MO","Kansas City","Jackson","29","95","39.09","-94.58","A","POB"
"64149","MO","Kansas City","Jackson","29","95","38.88","-94.47","A","GD"
"64150","MO","Riverside","Platte","29","165","39.18","-94.62","A","GD"
"64151","MO","Kansas City","Platte","29","165","39.21","-94.63","A","GD"
"64152","MO","Kansas City","Platte","29","165","39.22","-94.7","A","GD"
"64153","MO","Kansas City","Platte","29","165","39.28","-94.71","A","GD"
"64154","MO","Kansas City","Platte","29","165","39.27","-94.64","A","GD"
"64155","MO","Kansas City","Clay","29","47","39.28","-94.58","A","GD"
"64156","MO","Kansas City","Clay","29","47","39.27","-94.52","A","GD"
"64157","MO","Kansas City","Clay","29","47","39.27","-94.48","A","GD"
"64158","MO","Kansas City","Clay","29","47","39.23","-94.49","A","GD"
"64161","MO","Kansas City","Clay","29","47","39.16","-94.46","A","GD"
"64162","MO","Kansas City","Clay","29","47","39.3","-94.44","A","PVT"
"64163","MO","Kansas City","Platte","29","165","39.32","-94.68","A","GD"
"64164","MO","Kansas City","Platte","29","165","39.33","-94.63","A","GD"
"64165","MO","Kansas City","Clay","29","47","39.32","-94.58","A","GD"
"64166","MO","Kansas City","Clay","29","47","39.33","-94.51","A","GD"
"64167","MO","Kansas City","Clay","29","47","39.32","-94.48","A","GD"
"64168","MO","Kansas City","Platte","29","165","39.17","-94.63","A","POB"
"64170","MO","Kansas City","Jackson","29","95","38.95","-94.55","A","PVT"
"64171","MO","Kansas City","Jackson","29","95","39.05","-94.59","A","POB"
"64179","MO","Kansas City","Jackson","29","95","39.12","-94.55","A","PVT"
"64180","MO","Kansas City","Jackson","29","95","39.1","-94.58","A","PVT"
"64184","MO","Kansas City","Jackson","29","95","39.11","-94.59","A","PVT"
"64187","MO","Kansas City","Jackson","29","95","39.1","-94.58","A","PVT"
"64188","MO","Kansas City","Clay","29","47","39.22","-94.59","A","POB"
"64190","MO","Kansas City","Platte","29","165","39.19","-94.68","A","POB"
"64191","MO","Kansas City","Jackson","29","95","39.08","-94.59","A","POB"
"64195","MO","Kansas City","Platte","29","165","39.3","-94.72","A","POB"
"64196","MO","Kansas City","Jackson","29","95","39.1","-94.58","A","POB"
"64197","MO","Kansas City","Jackson","29","95","38.96","-94.57","A","PVT"
"64198","MO","Kansas City","Jackson","29","95","39.1","-94.58","A","PVT"
"64199","MO","Kansas City","Jackson","29","95","39.1","-94.58","A","POB"
"64401","MO","Agency","Buchanan","29","21","39.63","-94.73","A","GD"
"64402","MO","Albany","Gentry","29","75","40.25","-94.33","A","GD"
"64420","MO","Allendale","Worth","29","227","40.48","-94.29","A","POB"
"64421","MO","Amazonia","Andrew","29","3","39.91","-94.92","A","GD"
"64422","MO","Amity","Dekalb","29","63","39.89","-94.49","A","GD"
"64423","MO","Barnard","Nodaway","29","147","40.19","-94.85","A","GD"
"64424","MO","Bethany","Harrison","29","81","40.26","-94.03","A","GD"
"64426","MO","Blythedale","Harrison","29","81","40.51","-93.88","A","GD"
"64427","MO","Bolckow","Andrew","29","3","40.11","-94.85","A","GD"
"64428","MO","Burlington Junction","Nodaway","29","147","40.45","-95.07","A","GD"
"64429","MO","Cameron","Clinton","29","49","39.74","-94.23","A","GD"
"64430","MO","Clarksdale","Dekalb","29","63","39.83","-94.57","A","GD"
"64431","MO","Clearmont","Nodaway","29","147","40.53","-95","A","GD"
"64432","MO","Clyde","Nodaway","29","147","40.27","-94.67","A","GD"
"64433","MO","Conception","Nodaway","29","147","40.24","-94.68","A","GD"
"64434","MO","Conception Junction","Nodaway","29","147","40.26","-94.72","A","GD"
"64436","MO","Cosby","Andrew","29","3","39.86","-94.7","A","GD"
"64437","MO","Craig","Holt","29","87","40.14","-95.36","A","GD"
"64438","MO","Darlington","Gentry","29","75","40.17","-94.41","A","GD"
"64439","MO","Dearborn","Platte","29","165","39.53","-94.76","A","GD"
"64440","MO","De Kalb","Buchanan","29","21","39.58","-94.91","A","GD"
"64441","MO","Denver","Worth","29","227","40.39","-94.27","A","GD"
"64442","MO","Eagleville","Harrison","29","81","40.49","-93.99","A","GD"
"64443","MO","Easton","Buchanan","29","21","39.74","-94.65","A","GD"
"64444","MO","Edgerton","Platte","29","165","39.5","-94.63","A","GD"
"64445","MO","Elmo","Nodaway","29","147","40.54","-95.13","A","GD"
"64446","MO","Fairfax","Atchison","29","5","40.32","-95.44","A","GD"
"64448","MO","Faucett","Buchanan","29","21","39.6","-94.81","A","GD"
"64449","MO","Fillmore","Andrew","29","3","40.04","-94.98","A","GD"
"64451","MO","Forest City","Holt","29","87","40","-95.19","A","GD"
"64453","MO","Gentry","Gentry","29","75","40.34","-94.45","A","GD"
"64454","MO","Gower","Clinton","29","49","39.61","-94.59","A","GD"
"64455","MO","Graham","Nodaway","29","147","40.19","-95.02","A","GD"
"64456","MO","Grant City","Worth","29","227","40.48","-94.4","A","GD"
"64457","MO","Guilford","Nodaway","29","147","40.16","-94.68","A","GD"
"64458","MO","Hatfield","Harrison","29","81","40.51","-94.15","A","GD"
"64459","MO","Helena","Andrew","29","3","39.93","-94.65","A","GD"
"64461","MO","Hopkins","Nodaway","29","147","40.54","-94.81","A","GD"
"64463","MO","King City","Gentry","29","75","40.06","-94.5","A","GD"
"64465","MO","Lathrop","Clinton","29","49","39.54","-94.31","A","GD"
"64466","MO","Maitland","Holt","29","87","40.16","-95.1","A","GD"
"64467","MO","Martinsville","Harrison","29","81","40.39","-94.16","A","GD"
"64468","MO","Maryville","Nodaway","29","147","40.34","-94.87","A","GD"
"64469","MO","Maysville","Dekalb","29","63","39.92","-94.37","A","GD"
"64470","MO","Mound City","Holt","29","87","40.15","-95.23","A","GD"
"64471","MO","New Hampton","Harrison","29","81","40.26","-94.19","A","GD"
"64473","MO","Oregon","Holt","29","87","39.98","-95.1","A","GD"
"64474","MO","Osborn","Dekalb","29","63","39.76","-94.37","A","GD"
"64475","MO","Parnell","Nodaway","29","147","40.44","-94.63","A","GD"
"64476","MO","Pickering","Nodaway","29","147","40.45","-94.84","A","GD"
"64477","MO","Plattsburg","Clinton","29","49","39.57","-94.46","A","GD"
"64479","MO","Ravenwood","Nodaway","29","147","40.35","-94.67","A","GD"
"64480","MO","Rea","Andrew","29","3","40.06","-94.72","A","GD"
"64481","MO","Ridgeway","Harrison","29","81","40.37","-93.9","A","GD"
"64482","MO","Rock Port","Atchison","29","5","40.43","-95.54","A","GD"
"64483","MO","Rosendale","Andrew","29","3","40.04","-94.83","A","GD"
"64484","MO","Rushville","Buchanan","29","21","39.57","-95.03","A","GD"
"64485","MO","Savannah","Andrew","29","3","39.95","-94.83","A","GD"
"64486","MO","Sheridan","Worth","29","227","40.52","-94.64","A","GD"
"64487","MO","Skidmore","Nodaway","29","147","40.3","-95.08","A","GD"
"64489","MO","Stanberry","Gentry","29","75","40.22","-94.55","A","GD"
"64490","MO","Stewartsville","Dekalb","29","63","39.75","-94.51","A","GD"
"64491","MO","Tarkio","Atchison","29","5","40.45","-95.38","A","GD"
"64492","MO","Trimble","Clinton","29","49","39.48","-94.54","A","GD"
"64493","MO","Turney","Clinton","29","49","39.64","-94.32","A","GD"
"64494","MO","Union Star","Dekalb","29","63","39.99","-94.61","A","GD"
"64496","MO","Watson","Atchison","29","5","40.5","-95.63","A","GD"
"64497","MO","Weatherby","Dekalb","29","63","39.92","-94.22","A","GD"
"64498","MO","Westboro","Atchison","29","5","40.54","-95.32","A","GD"
"64499","MO","Worth","Worth","29","227","40.4","-94.44","A","GD"
"64501","MO","Saint Joseph","Buchanan","29","21","39.77","-94.84","A","GD"
"64502","MO","Saint Joseph","Buchanan","29","21","39.77","-94.85","A","POB"
"64503","MO","Saint Joseph","Buchanan","29","21","39.74","-94.83","A","GD"
"64504","MO","Saint Joseph","Buchanan","29","21","39.71","-94.88","A","GD"
"64505","MO","Saint Joseph","Buchanan","29","21","39.81","-94.84","A","GD"
"64506","MO","Saint Joseph","Buchanan","29","21","39.79","-94.81","A","GD"
"64507","MO","Saint Joseph","Buchanan","29","21","39.75","-94.79","A","GD"
"64508","MO","Saint Joseph","Buchanan","29","21","39.78","-94.8","A","POB"
"64601","MO","Chillicothe","Livingston","29","117","39.79","-93.55","A","GD"
"64620","MO","Altamont","Daviess","29","61","39.89","-94.09","A","GD"
"64622","MO","Bogard","Carroll","29","33","39.49","-93.54","A","GD"
"64623","MO","Bosworth","Carroll","29","33","39.47","-93.33","A","GD"
"64624","MO","Braymer","Caldwell","29","25","39.58","-93.79","A","GD"
"64625","MO","Breckenridge","Caldwell","29","25","39.75","-93.8","A","GD"
"64628","MO","Brookfield","Linn","29","115","39.79","-93.06","A","GD"
"64630","MO","Browning","Linn","29","115","40.03","-93.16","A","GD"
"64631","MO","Bucklin","Linn","29","115","39.8","-92.89","A","GD"
"64632","MO","Cainsville","Harrison","29","81","40.45","-93.77","A","GD"
"64633","MO","Carrollton","Carroll","29","33","39.36","-93.49","A","GD"
"64635","MO","Chula","Livingston","29","117","39.94","-93.46","A","GD"
"64636","MO","Coffey","Daviess","29","61","40.11","-94","A","GD"
"64637","MO","Cowgill","Caldwell","29","25","39.58","-93.92","A","GD"
"64638","MO","Dawn","Livingston","29","117","39.62","-93.62","A","GD"
"64639","MO","De Witt","Carroll","29","33","39.39","-93.22","A","GD"
"64640","MO","Gallatin","Daviess","29","61","39.91","-93.96","A","GD"
"64641","MO","Galt","Grundy","29","79","40.17","-93.39","A","GD"
"64642","MO","Gilman City","Harrison","29","81","40.15","-93.83","A","GD"
"64643","MO","Hale","Carroll","29","33","39.61","-93.35","A","GD"
"64644","MO","Hamilton","Caldwell","29","25","39.74","-93.99","A","GD"
"64645","MO","Harris","Sullivan","29","211","40.3","-93.32","A","GD"
"64646","MO","Humphreys","Sullivan","29","211","40.11","-93.32","A","GD"
"64647","MO","Jameson","Daviess","29","61","40.03","-93.98","A","GD"
"64648","MO","Jamesport","Daviess","29","61","39.98","-93.8","A","GD"
"64649","MO","Kidder","Caldwell","29","25","39.77","-94.1","A","GD"
"64650","MO","Kingston","Caldwell","29","25","39.64","-94.05","A","GD"
"64651","MO","Laclede","Linn","29","115","39.77","-93.18","A","GD"
"64652","MO","Laredo","Grundy","29","79","40.02","-93.44","A","GD"
"64653","MO","Linneus","Linn","29","115","39.89","-93.21","A","GD"
"64654","MO","Lock Springs","Daviess","29","61","39.85","-93.77","A","POB"
"64655","MO","Lucerne","Putnam","29","171","40.46","-93.24","A","GD"
"64656","MO","Ludlow","Livingston","29","117","39.66","-93.7","A","GD"
"64657","MO","Mc Fall","Gentry","29","75","40.13","-94.22","A","GD"
"64658","MO","Marceline","Linn","29","115","39.68","-92.93","A","GD"
"64659","MO","Meadville","Linn","29","115","39.79","-93.3","A","GD"
"64660","MO","Mendon","Chariton","29","41","39.57","-93.1","A","GD"
"64661","MO","Mercer","Mercer","29","129","40.52","-93.53","A","GD"
"64664","MO","Mooresville","Livingston","29","117","39.75","-93.67","A","GD"
"64667","MO","Newtown","Sullivan","29","211","40.38","-93.33","A","GD"
"64668","MO","Norborne","Carroll","29","33","39.35","-93.69","A","GD"
"64670","MO","Pattonsburg","Daviess","29","61","40.05","-94.13","A","GD"
"64671","MO","Polo","Caldwell","29","25","39.54","-94.05","A","GD"
"64672","MO","Powersville","Putnam","29","171","40.54","-93.26","A","GD"
"64673","MO","Princeton","Mercer","29","129","40.39","-93.58","A","GD"
"64674","MO","Purdin","Linn","29","115","39.97","-93.15","A","GD"
"64676","MO","Rothville","Chariton","29","41","39.65","-93.06","A","GD"
"64679","MO","Spickard","Grundy","29","79","40.24","-93.6","A","GD"
"64680","MO","Stet","Carroll","29","33","39.42","-93.76","A","POB"
"64681","MO","Sumner","Chariton","29","41","39.65","-93.23","A","GD"
"64682","MO","Tina","Carroll","29","33","39.53","-93.47","A","GD"
"64683","MO","Trenton","Grundy","29","79","40.08","-93.61","A","GD"
"64686","MO","Utica","Livingston","29","117","39.74","-93.63","A","POB"
"64688","MO","Wheeling","Livingston","29","117","39.78","-93.37","A","GD"
"64689","MO","Winston","Daviess","29","61","39.87","-94.14","A","GD"
"64701","MO","Harrisonville","Cass","29","37","38.64","-94.34","A","GD"
"64720","MO","Adrian","Bates","29","13","38.4","-94.34","A","GD"
"64722","MO","Amoret","Bates","29","13","38.27","-94.57","A","GD"
"64723","MO","Amsterdam","Bates","29","13","38.36","-94.57","A","GD"
"64724","MO","Appleton City","Saint Clair","29","185","38.16","-94.01","A","GD"
"64725","MO","Archie","Cass","29","37","38.49","-94.35","A","GD"
"64726","MO","Blairstown","Henry","29","83","38.54","-93.93","A","GD"
"64728","MO","Bronaugh","Vernon","29","217","37.7","-94.5","A","GD"
"64730","MO","Butler","Bates","29","13","38.25","-94.33","A","GD"
"64733","MO","Chilhowee","Johnson","29","101","38.58","-93.83","A","GD"
"64734","MO","Cleveland","Cass","29","37","38.66","-94.59","A","GD"
"64735","MO","Clinton","Henry","29","83","38.36","-93.75","A","GD"
"64738","MO","Collins","Saint Clair","29","185","37.9","-93.65","A","GD"
"64739","MO","Creighton","Henry","29","83","38.51","-94.09","A","GD"
"64740","MO","Deepwater","Henry","29","83","38.23","-93.72","A","GD"
"64741","MO","Deerfield","Vernon","29","217","37.83","-94.54","A","GD"
"64742","MO","Drexel","Bates","29","13","38.48","-94.57","A","GD"
"64743","MO","East Lynne","Cass","29","37","38.67","-94.23","A","POB"
"64744","MO","El Dorado Springs","Cedar","29","39","37.86","-93.98","A","GD"
"64745","MO","Foster","Bates","29","13","38.17","-94.5","A","GD"
"64746","MO","Freeman","Cass","29","37","38.62","-94.49","A","GD"
"64747","MO","Garden City","Cass","29","37","38.57","-94.17","A","GD"
"64748","MO","Golden City","Barton","29","11","37.37","-94.1","A","GD"
"64750","MO","Harwood","Vernon","29","217","37.94","-94.13","A","GD"
"64752","MO","Hume","Bates","29","13","38.07","-94.56","A","GD"
"64755","MO","Jasper","Jasper","29","97","37.34","-94.31","A","GD"
"64756","MO","Jerico Springs","Cedar","29","39","37.62","-94.02","A","GD"
"64759","MO","Lamar","Barton","29","11","37.51","-94.27","A","GD"
"64761","MO","Leeton","Johnson","29","101","38.59","-93.69","A","GD"
"64762","MO","Liberal","Barton","29","11","37.55","-94.51","A","GD"
"64763","MO","Lowry City","Saint Clair","29","185","38.14","-93.68","A","GD"
"64765","MO","Metz","Vernon","29","217","38","-94.44","A","POB"
"64766","MO","Milford","Barton","29","11","37.59","-94.16","A","POB"
"64767","MO","Milo","Vernon","29","217","37.76","-94.19","A","GD"
"64769","MO","Mindenmines","Barton","29","11","37.48","-94.59","A","GD"
"64770","MO","Montrose","Henry","29","83","38.28","-93.99","A","GD"
"64771","MO","Moundville","Vernon","29","217","37.76","-94.45","A","GD"
"64772","MO","Nevada","Vernon","29","217","37.84","-94.35","A","GD"
"64776","MO","Osceola","Saint Clair","29","185","38.04","-93.68","A","GD"
"64778","MO","Richards","Vernon","29","217","37.92","-94.48","A","GD"
"64779","MO","Rich Hill","Bates","29","13","38.09","-94.37","A","GD"
"64780","MO","Rockville","Bates","29","13","38.06","-94.06","A","GD"
"64781","MO","Roscoe","Saint Clair","29","185","37.98","-93.81","A","POB"
"64783","MO","Schell City","Vernon","29","217","38.01","-94.1","A","GD"
"64784","MO","Sheldon","Vernon","29","217","37.66","-94.25","A","GD"
"64788","MO","Urich","Henry","29","83","38.44","-94.01","A","GD"
"64790","MO","Walker","Vernon","29","217","37.93","-94.23","A","GD"
"64801","MO","Joplin","Jasper","29","97","37.09","-94.5","A","GD"
"64802","MO","Joplin","Jasper","29","97","37.06","-94.55","A","POB"
"64803","MO","Joplin","Jasper","29","97","37.03","-94.51","A","POB"
"64804","MO","Joplin","Jasper","29","97","37.04","-94.51","A","GD"
"64830","MO","Alba","Jasper","29","97","37.24","-94.42","A","POB"
"64831","MO","Anderson","Mcdonald","29","119","36.65","-94.44","A","GD"
"64832","MO","Asbury","Barton","29","11","37.31","-94.58","A","GD"
"64833","MO","Avilla","Jasper","29","97","37.19","-94.13","A","POB"
"64834","MO","Carl Junction","Jasper","29","97","37.17","-94.56","A","GD"
"64835","MO","Carterville","Jasper","29","97","37.15","-94.44","A","GD"
"64836","MO","Carthage","Jasper","29","97","37.17","-94.31","A","GD"
"64840","MO","Diamond","Newton","29","145","37","-94.33","A","GD"
"64841","MO","Duenweg","Jasper","29","97","37.08","-94.41","A","POB"
"64842","MO","Fairview","Newton","29","145","36.8","-94.1","A","GD"
"64843","MO","Goodman","Mcdonald","29","119","36.73","-94.43","A","GD"
"64844","MO","Granby","Newton","29","145","36.92","-94.25","A","GD"
"64847","MO","Lanagan","Mcdonald","29","119","36.6","-94.45","A","GD"
"64848","MO","La Russell","Lawrence","29","109","37.16","-94.01","A","GD"
"64849","MO","Neck City","Jasper","29","97","37.26","-94.44","A","POB"
"64850","MO","Neosho","Newton","29","145","36.86","-94.39","A","GD"
"64853","MO","Newtonia","Newton","29","145","36.88","-94.19","A","POB"
"64854","MO","Noel","Mcdonald","29","119","36.55","-94.47","A","GD"
"64855","MO","Oronogo","Jasper","29","97","37.27","-94.48","A","GD"
"64856","MO","Pineville","Mcdonald","29","119","36.56","-94.3","A","GD"
"64857","MO","Purcell","Jasper","29","97","37.24","-94.44","A","POB"
"64858","MO","Racine","Newton","29","145","36.9","-94.53","A","POB"
"64859","MO","Reeds","Jasper","29","97","37.15","-94.16","A","GD"
"64861","MO","Rocky Comfort","Mcdonald","29","119","36.71","-94.15","A","GD"
"64862","MO","Sarcoxie","Jasper","29","97","37.08","-94.12","A","GD"
"64863","MO","South West City","Mcdonald","29","119","36.53","-94.6","A","GD"
"64864","MO","Saginaw","Newton","29","145","37.02","-94.47","A","POB"
"64865","MO","Seneca","Newton","29","145","36.85","-94.58","A","GD"
"64866","MO","Stark City","Newton","29","145","36.88","-94.15","A","GD"
"64867","MO","Stella","Newton","29","145","36.74","-94.23","A","GD"
"64868","MO","Tiff City","Mcdonald","29","119","36.66","-94.6","A","POB"
"64870","MO","Webb City","Jasper","29","97","37.15","-94.47","A","GD"
"64873","MO","Wentworth","Lawrence","29","109","37.02","-94.06","A","GD"
"64874","MO","Wheaton","Barry","29","9","36.76","-94.06","A","POB"
"64999","MO","Kansas City","Jackson","29","95","38.95","-94.55","A","PVT"
"65001","MO","Argyle","Osage","29","151","38.29","-92.02","A","GD"
"65010","MO","Ashland","Boone","29","19","38.79","-92.25","A","GD"
"65011","MO","Barnett","Morgan","29","141","38.37","-92.73","A","GD"
"65013","MO","Belle","Maries","29","125","38.28","-91.74","A","GD"
"65014","MO","Bland","Gasconade","29","73","38.3","-91.63","A","GD"
"65016","MO","Bonnots Mill","Osage","29","151","38.56","-91.92","A","GD"
"65017","MO","Brumley","Miller","29","131","38.08","-92.5","A","GD"
"65018","MO","California","Moniteau","29","135","38.63","-92.56","A","GD"
"65020","MO","Camdenton","Camden","29","29","38.03","-92.78","A","GD"
"65023","MO","Centertown","Cole","29","51","38.64","-92.42","A","GD"
"65024","MO","Chamois","Osage","29","151","38.63","-91.77","A","GD"
"65025","MO","Clarksburg","Moniteau","29","135","38.65","-92.69","A","GD"
"65026","MO","Eldon","Miller","29","131","38.32","-92.58","A","GD"
"65032","MO","Eugene","Cole","29","51","38.34","-92.39","A","GD"
"65034","MO","Fortuna","Morgan","29","141","38.56","-92.8","A","GD"
"65035","MO","Freeburg","Osage","29","151","38.35","-91.93","A","GD"
"65036","MO","Gasconade","Gasconade","29","73","38.6","-91.5","A","POB"
"65037","MO","Gravois Mills","Morgan","29","141","38.24","-92.82","A","GD"
"65038","MO","Laurie","Morgan","29","141","38.2","-92.83","A","POB"
"65039","MO","Hartsburg","Boone","29","19","38.69","-92.28","A","GD"
"65040","MO","Henley","Cole","29","51","38.35","-92.32","A","GD"
"65041","MO","Hermann","Gasconade","29","73","38.67","-91.48","A","GD"
"65042","MO","High Point","Moniteau","29","135","38.48","-92.6","A","POB"
"65043","MO","Holts Summit","Callaway","29","27","38.64","-92.11","A","GD"
"65046","MO","Jamestown","Moniteau","29","135","38.77","-92.48","A","GD"
"65047","MO","Kaiser","Miller","29","131","38.15","-92.57","A","GD"
"65048","MO","Koeltztown","Osage","29","151","38.34","-92.05","A","GD"
"65049","MO","Lake Ozark","Camden","29","29","38.2","-92.66","A","GD"
"65050","MO","Latham","Moniteau","29","135","38.55","-92.69","A","GD"
"65051","MO","Linn","Osage","29","151","38.47","-91.81","A","GD"
"65052","MO","Linn Creek","Camden","29","29","38.06","-92.69","A","GD"
"65053","MO","Lohman","Cole","29","51","38.54","-92.36","A","GD"
"65054","MO","Loose Creek","Osage","29","151","38.49","-91.93","A","GD"
"65055","MO","Mc Girk","Moniteau","29","135","38.63","-92.57","A","POB"
"65058","MO","Meta","Osage","29","151","38.28","-92.15","A","GD"
"65059","MO","Mokane","Callaway","29","27","38.68","-91.86","A","GD"
"65061","MO","Morrison","Gasconade","29","73","38.6","-91.63","A","GD"
"65062","MO","Mount Sterling","Gasconade","29","73","38.49","-91.64","A","GD"
"65063","MO","New Bloomfield","Callaway","29","27","38.72","-92.08","A","GD"
"65064","MO","Olean","Miller","29","131","38.41","-92.49","A","GD"
"65065","MO","Osage Beach","Camden","29","29","38.14","-92.66","A","GD"
"65066","MO","Owensville","Gasconade","29","73","38.35","-91.49","A","GD"
"65067","MO","Portland","Callaway","29","27","38.74","-91.73","A","GD"
"65068","MO","Prairie Home","Cooper","29","53","38.82","-92.61","A","GD"
"65069","MO","Rhineland","Montgomery","29","139","38.75","-91.56","A","GD"
"65072","MO","Rocky Mount","Morgan","29","141","38.26","-92.72","A","GD"
"65074","MO","Russellville","Cole","29","51","38.49","-92.47","A","GD"
"65075","MO","Saint Elizabeth","Miller","29","131","38.24","-92.27","A","GD"
"65076","MO","Saint Thomas","Cole","29","51","38.37","-92.19","A","GD"
"65077","MO","Steedman","Callaway","29","27","38.78","-91.8","A","GD"
"65078","MO","Stover","Morgan","29","141","38.36","-93","A","GD"
"65079","MO","Sunrise Beach","Camden","29","29","38.16","-92.76","A","GD"
"65080","MO","Tebbetts","Callaway","29","27","38.64","-91.98","A","GD"
"65081","MO","Tipton","Moniteau","29","135","38.65","-92.78","A","GD"
"65082","MO","Tuscumbia","Miller","29","131","38.23","-92.43","A","GD"
"65083","MO","Ulman","Miller","29","131","38.14","-92.43","A","GD"
"65084","MO","Versailles","Morgan","29","141","38.43","-92.84","A","GD"
"65085","MO","Westphalia","Osage","29","151","38.41","-92.05","A","GD"
"65101","MO","Jefferson City","Cole","29","51","38.54","-92.15","A","GD"
"65102","MO","Jefferson City","Cole","29","51","38.58","-92.17","A","POB"
"65103","MO","Jefferson City","Cole","29","51","38.58","-92.17","A","PVT"
"65104","MO","Jefferson City","Cole","29","51","38.58","-92.17","A","PVT"
"65105","MO","Jefferson City","Cole","29","51","38.58","-92.17","A","PVT"
"65106","MO","Jefferson City","Cole","29","51","38.58","-92.17","A","PVT"
"65107","MO","Jefferson City","Cole","29","51","38.58","-92.17","A","PVT"
"65108","MO","Jefferson City","Cole","29","51","38.58","-92.17","A","PVT"
"65109","MO","Jefferson City","Cole","29","51","38.58","-92.25","A","GD"
"65110","MO","Jefferson City","Cole","29","51","38.58","-92.17","A","POB"
"65111","MO","Jefferson City","Cole","29","51","38.55","-92.12","A","PVT"
"65201","MO","Columbia","Boone","29","19","38.93","-92.29","A","GD"
"65202","MO","Columbia","Boone","29","19","39","-92.3","A","GD"
"65203","MO","Columbia","Boone","29","19","38.92","-92.37","A","GD"
"65205","MO","Columbia","Boone","29","19","39.05","-92.24","A","POB"
"65211","MO","Columbia","Boone","29","19","38.95","-92.32","A","PVT"
"65212","MO","Columbia","Boone","29","19","38.91","-92.25","A","PVT"
"65215","MO","Columbia","Boone","29","19","38.95","-92.32","A","PVT"
"65216","MO","Columbia","Boone","29","19","38.96","-92.33","A","PVT"
"65217","MO","Columbia","Boone","29","19","38.9","-92.33","A","PVT"
"65218","MO","Columbia","Boone","29","19","38.95","-92.37","A","PVT"
"65230","MO","Armstrong","Howard","29","89","39.29","-92.69","A","GD"
"65231","MO","Auxvasse","Callaway","29","27","39.01","-91.89","A","GD"
"65232","MO","Benton City","Audrain","29","7","39.15","-91.76","A","GD"
"65233","MO","Boonville","Cooper","29","53","38.94","-92.74","A","GD"
"65236","MO","Brunswick","Chariton","29","41","39.43","-93.1","A","GD"
"65237","MO","Bunceton","Cooper","29","53","38.79","-92.8","A","GD"
"65239","MO","Cairo","Randolph","29","175","39.53","-92.44","A","GD"
"65240","MO","Centralia","Boone","29","19","39.21","-92.13","A","GD"
"65243","MO","Clark","Randolph","29","175","39.28","-92.35","A","GD"
"65244","MO","Clifton Hill","Randolph","29","175","39.5","-92.65","A","GD"
"65246","MO","Dalton","Chariton","29","41","39.37","-92.99","A","GD"
"65247","MO","Excello","Macon","29","121","39.64","-92.5","A","GD"
"65248","MO","Fayette","Howard","29","89","39.15","-92.66","A","GD"
"65250","MO","Franklin","Howard","29","89","39.04","-92.83","A","GD"
"65251","MO","Fulton","Callaway","29","27","38.85","-91.96","A","GD"
"65254","MO","Glasgow","Howard","29","89","39.22","-92.85","A","GD"
"65255","MO","Hallsville","Boone","29","19","39.1","-92.24","A","GD"
"65256","MO","Harrisburg","Boone","29","19","39.14","-92.46","A","GD"
"65257","MO","Higbee","Randolph","29","175","39.28","-92.53","A","GD"
"65258","MO","Holliday","Monroe","29","137","39.52","-92.13","A","GD"
"65259","MO","Huntsville","Randolph","29","175","39.46","-92.55","A","GD"
"65260","MO","Jacksonville","Randolph","29","175","39.58","-92.42","A","GD"
"65261","MO","Keytesville","Chariton","29","41","39.49","-92.92","A","GD"
"65262","MO","Kingdom City","Callaway","29","27","38.95","-91.94","A","GD"
"65263","MO","Madison","Monroe","29","137","39.46","-92.22","A","GD"
"65264","MO","Martinsburg","Audrain","29","7","39.09","-91.68","A","GD"
"65265","MO","Mexico","Audrain","29","7","39.18","-91.88","A","GD"
"65270","MO","Moberly","Randolph","29","175","39.42","-92.43","A","GD"
"65274","MO","New Franklin","Howard","29","89","39.01","-92.7","A","GD"
"65275","MO","Paris","Monroe","29","137","39.48","-91.99","A","GD"
"65276","MO","Pilot Grove","Cooper","29","53","38.85","-92.94","A","GD"
"65278","MO","Renick","Randolph","29","175","39.34","-92.41","A","POB"
"65279","MO","Rocheport","Boone","29","19","39","-92.53","A","GD"
"65280","MO","Rush Hill","Audrain","29","7","39.22","-91.74","A","GD"
"65281","MO","Salisbury","Chariton","29","41","39.46","-92.8","A","GD"
"65282","MO","Santa Fe","Monroe","29","137","39.39","-91.82","A","GD"
"65283","MO","Stoutsville","Monroe","29","137","39.51","-91.83","A","GD"
"65284","MO","Sturgeon","Boone","29","19","39.21","-92.29","A","GD"
"65285","MO","Thompson","Audrain","29","7","39.2","-92","A","GD"
"65286","MO","Triplett","Chariton","29","41","39.51","-93.22","A","GD"
"65287","MO","Wooldridge","Cooper","29","53","38.89","-92.52","A","GD"
"65299","MO","Columbia","Boone","29","19","38.81","-92.22","A","GD"
"65301","MO","Sedalia","Pettis","29","159","38.7","-93.23","A","GD"
"65302","MO","Sedalia","Pettis","29","159","38.71","-93.22","A","POB"
"65305","MO","Whiteman Air Force Base","Johnson","29","101","38.73","-93.56","A","GD"
"65320","MO","Arrow Rock","Saline","29","195","39.07","-92.95","A","POB"
"65321","MO","Blackburn","Saline","29","195","39.09","-93.48","A","GD"
"65322","MO","Blackwater","Cooper","29","53","38.96","-92.96","A","GD"
"65323","MO","Calhoun","Henry","29","83","38.45","-93.62","A","GD"
"65324","MO","Climax Springs","Camden","29","29","38.14","-92.97","A","GD"
"65325","MO","Cole Camp","Benton","29","15","38.44","-93.2","A","GD"
"65326","MO","Edwards","Benton","29","15","38.21","-93.15","A","GD"
"65327","MO","Emma","Lafayette","29","107","38.97","-93.49","A","POB"
"65329","MO","Florence","Morgan","29","141","38.61","-92.96","A","GD"
"65330","MO","Gilliam","Saline","29","195","39.22","-92.95","A","GD"
"65332","MO","Green Ridge","Pettis","29","159","38.62","-93.41","A","GD"
"65333","MO","Houstonia","Pettis","29","159","38.9","-93.3","A","GD"
"65334","MO","Hughesville","Pettis","29","159","38.84","-93.24","A","GD"
"65335","MO","Ionia","Benton","29","15","38.5","-93.33","A","GD"
"65336","MO","Knob Noster","Johnson","29","101","38.77","-93.57","A","GD"
"65337","MO","La Monte","Pettis","29","159","38.77","-93.43","A","GD"
"65338","MO","Lincoln","Benton","29","15","38.34","-93.26","A","GD"
"65339","MO","Malta Bend","Saline","29","195","39.2","-93.38","A","GD"
"65340","MO","Marshall","Saline","29","195","39.1","-93.19","A","GD"
"65344","MO","Miami","Saline","29","195","39.31","-93.23","A","GD"
"65345","MO","Mora","Pettis","29","159","38.55","-93.11","A","GD"
"65347","MO","Nelson","Saline","29","195","38.99","-93.04","A","GD"
"65348","MO","Otterville","Cooper","29","53","38.71","-92.99","A","GD"
"65349","MO","Slater","Saline","29","195","39.23","-93.05","A","GD"
"65350","MO","Smithton","Pettis","29","159","38.65","-93.09","A","GD"
"65351","MO","Sweet Springs","Saline","29","195","38.98","-93.39","A","GD"
"65354","MO","Syracuse","Morgan","29","141","38.66","-92.89","A","GD"
"65355","MO","Warsaw","Benton","29","15","38.24","-93.37","A","GD"
"65360","MO","Windsor","Henry","29","83","38.53","-93.51","A","GD"
"65401","MO","Rolla","Phelps","29","161","37.94","-91.77","A","GD"
"65402","MO","Rolla","Phelps","29","161","37.94","-91.77","A","POB"
"65409","MO","Rolla","Phelps","29","161","37.96","-91.77","A","PVT"
"65436","MO","Beulah","Phelps","29","161","37.61","-91.97","A","GD"
"65438","MO","Birch Tree","Shannon","29","203","36.95","-91.5","A","GD"
"65439","MO","Bixby","Iron","29","93","37.65","-91.12","A","GD"
"65440","MO","Boss","Dent","29","65","37.61","-91.17","A","GD"
"65441","MO","Bourbon","Crawford","29","55","38.12","-91.2","A","GD"
"65443","MO","Brinktown","Maries","29","125","38.15","-92.09","A","GD"
"65444","MO","Bucyrus","Texas","29","215","37.39","-92.07","A","GD"
"65446","MO","Cherryville","Crawford","29","55","37.77","-91.27","A","GD"
"65449","MO","Cook Sta","Crawford","29","55","37.85","-91.49","A","GD"
"65452","MO","Crocker","Pulaski","29","169","37.95","-92.26","A","GD"
"65453","MO","Cuba","Crawford","29","55","38.08","-91.42","A","GD"
"65456","MO","Davisville","Crawford","29","55","37.78","-91.19","A","GD"
"65457","MO","Devils Elbow","Pulaski","29","169","37.83","-92.06","A","GD"
"65459","MO","Dixon","Pulaski","29","169","38","-92.09","A","GD"
"65461","MO","Duke","Phelps","29","161","37.68","-92.04","A","GD"
"65462","MO","Edgar Springs","Phelps","29","161","37.69","-91.86","A","GD"
"65463","MO","Eldridge","Laclede","29","105","37.85","-92.79","A","GD"
"65464","MO","Elk Creek","Texas","29","215","37.18","-91.91","A","GD"
"65466","MO","Eminence","Shannon","29","203","37.17","-91.36","A","GD"
"65468","MO","Eunice","Texas","29","215","37.25","-91.79","A","GD"
"65470","MO","Falcon","Laclede","29","105","37.54","-92.4","A","GD"
"65473","MO","Fort Leonard Wood","Pulaski","29","169","37.73","-92.13","A","GD"
"65479","MO","Hartshorn","Texas","29","215","37.35","-91.63","A","GD"
"65483","MO","Houston","Texas","29","215","37.31","-91.96","A","GD"
"65484","MO","Huggins","Texas","29","215","37.37","-92.22","A","GD"
"65486","MO","Iberia","Miller","29","131","38.1","-92.31","A","GD"
"65501","MO","Jadwin","Dent","29","65","37.44","-91.58","A","GD"
"65529","MO","Jerome","Phelps","29","161","37.92","-91.98","A","GD"
"65532","MO","Lake Spring","Dent","29","65","37.78","-91.68","A","POB"
"65534","MO","Laquey","Pulaski","29","169","37.71","-92.28","A","GD"
"65535","MO","Leasburg","Crawford","29","55","38.09","-91.3","A","GD"
"65536","MO","Lebanon","Laclede","29","105","37.67","-92.65","A","GD"
"65541","MO","Lenox","Dent","29","65","37.65","-91.76","A","GD"
"65542","MO","Licking","Texas","29","215","37.5","-91.88","A","GD"
"65543","MO","Lynchburg","Laclede","29","105","37.48","-92.31","A","GD"
"65546","MO","Montier","Shannon","29","203","36.99","-91.58","A","POB"
"65548","MO","Mountain View","Howell","29","91","37","-91.72","A","GD"
"65550","MO","Newburg","Phelps","29","161","37.87","-91.94","A","GD"
"65552","MO","Plato","Texas","29","215","37.53","-92.18","A","GD"
"65555","MO","Raymondville","Texas","29","215","37.35","-91.78","A","GD"
"65556","MO","Richland","Pulaski","29","169","37.81","-92.4","A","GD"
"65557","MO","Roby","Texas","29","215","37.51","-92.12","A","GD"
"65559","MO","Saint James","Phelps","29","161","38.01","-91.61","A","GD"
"65560","MO","Salem","Dent","29","65","37.64","-91.52","A","GD"
"65564","MO","Solo","Texas","29","215","37.23","-91.97","A","GD"
"65565","MO","Steelville","Crawford","29","55","37.92","-91.27","A","GD"
"65566","MO","Viburnum","Iron","29","93","37.72","-91.13","A","GD"
"65567","MO","Stoutland","Laclede","29","105","37.85","-92.54","A","GD"
"65570","MO","Success","Texas","29","215","37.45","-92.09","A","GD"
"65571","MO","Summersville","Texas","29","215","37.17","-91.65","A","GD"
"65580","MO","Vichy","Maries","29","125","38.11","-91.8","A","GD"
"65582","MO","Vienna","Maries","29","125","38.19","-91.94","A","GD"
"65583","MO","Waynesville","Pulaski","29","169","37.82","-92.24","A","GD"
"65584","MO","Saint Robert","Pulaski","29","169","37.82","-92.14","A","GD"
"65586","MO","Wesco","Crawford","29","55","37.85","-91.43","A","POB"
"65588","MO","Winona","Shannon","29","203","37","-91.3","A","GD"
"65589","MO","Yukon","Texas","29","215","37.24","-91.84","A","GD"
"65590","MO","Long Lane","Dallas","29","59","37.61","-92.96","A","GD"
"65591","MO","Montreal","Camden","29","29","37.98","-92.59","A","GD"
"65601","MO","Aldrich","Polk","29","167","37.54","-93.59","A","GD"
"65603","MO","Arcola","Dade","29","57","37.55","-93.85","A","GD"
"65604","MO","Ash Grove","Greene","29","77","37.28","-93.61","A","GD"
"65605","MO","Aurora","Lawrence","29","109","36.92","-93.71","A","GD"
"65606","MO","Alton","Oregon","29","149","36.69","-91.36","A","GD"
"65607","MO","Caplinger Mills","Cedar","29","39","37.79","-93.8","A","POB"
"65608","MO","Ava","Douglas","29","67","36.92","-92.66","A","GD"
"65609","MO","Bakersfield","Ozark","29","153","36.52","-92.14","A","GD"
"65610","MO","Billings","Christian","29","43","37.04","-93.52","A","GD"
"65611","MO","Blue Eye","Stone","29","209","36.55","-93.36","A","GD"
"65612","MO","Bois D Arc","Greene","29","77","37.22","-93.55","A","GD"
"65613","MO","Bolivar","Polk","29","167","37.62","-93.4","A","GD"
"65614","MO","Bradleyville","Taney","29","213","36.75","-92.91","A","GD"
"65615","MO","Branson","Taney","29","213","36.64","-93.22","A","POB"
"65616","MO","Branson","Taney","29","213","36.65","-93.27","A","GD"
"65617","MO","Brighton","Polk","29","167","37.44","-93.35","A","GD"
"65618","MO","Brixey","Ozark","29","153","36.76","-92.37","A","GD"
"65619","MO","Brookline","Greene","29","77","37.13","-93.39","A","GD"
"65620","MO","Bruner","Christian","29","43","37.02","-92.95","A","GD"
"65622","MO","Buffalo","Dallas","29","59","37.62","-93.1","A","GD"
"65623","MO","Butterfield","Barry","29","9","36.75","-93.91","A","POB"
"65624","MO","Cape Fair","Stone","29","209","36.74","-93.53","A","GD"
"65625","MO","Cassville","Barry","29","9","36.68","-93.85","A","GD"
"65626","MO","Caulfield","Howell","29","91","36.61","-92.14","A","GD"
"65627","MO","Cedarcreek","Taney","29","213","36.55","-93.02","A","GD"
"65629","MO","Chadwick","Christian","29","43","36.9","-93.01","A","GD"
"65630","MO","Chestnutridge","Christian","29","43","36.83","-93.21","A","GD"
"65631","MO","Clever","Christian","29","43","37.02","-93.43","A","GD"
"65632","MO","Conway","Laclede","29","105","37.49","-92.84","A","GD"
"65633","MO","Crane","Stone","29","209","36.9","-93.53","A","GD"
"65634","MO","Cross Timbers","Hickory","29","85","38.02","-93.19","A","GD"
"65635","MO","Dadeville","Dade","29","57","37.53","-93.72","A","GD"
"65636","MO","Diggins","Webster","29","225","37.17","-92.85","A","POB"
"65637","MO","Dora","Ozark","29","153","36.76","-92.21","A","GD"
"65638","MO","Drury","Douglas","29","67","36.84","-92.34","A","GD"
"65640","MO","Dunnegan","Polk","29","167","37.69","-93.56","A","GD"
"65641","MO","Eagle Rock","Barry","29","9","36.54","-93.74","A","GD"
"65644","MO","Elkland","Dallas","29","59","37.51","-93.04","A","GD"
"65645","MO","Morrisville","Polk","29","167","37.48","-93.54","A","POB"
"65646","MO","Everton","Dade","29","57","37.35","-93.71","A","GD"
"65647","MO","Exeter","Barry","29","9","36.69","-93.98","A","GD"
"65648","MO","Fair Grove","Greene","29","77","37.39","-93.16","A","GD"
"65649","MO","Fair Play","Polk","29","167","37.62","-93.61","A","GD"
"65650","MO","Flemington","Polk","29","167","37.81","-93.42","A","GD"
"65652","MO","Fordland","Webster","29","225","37.15","-92.95","A","GD"
"65653","MO","Forsyth","Taney","29","213","36.72","-93.11","A","GD"
"65654","MO","Freistatt","Lawrence","29","109","37.02","-93.9","A","POB"
"65655","MO","Gainesville","Ozark","29","153","36.6","-92.42","A","GD"
"65656","MO","Galena","Stone","29","209","36.77","-93.47","A","GD"
"65657","MO","Garrison","Christian","29","43","36.83","-93.01","A","GD"
"65658","MO","Golden","Barry","29","9","36.55","-93.64","A","GD"
"65660","MO","Graff","Wright","29","229","37.35","-92.28","A","GD"
"65661","MO","Greenfield","Dade","29","57","37.46","-93.82","A","GD"
"65662","MO","Grovespring","Wright","29","229","37.45","-92.59","A","GD"
"65663","MO","Half Way","Polk","29","167","37.63","-93.25","A","GD"
"65664","MO","Halltown","Lawrence","29","109","37.19","-93.63","A","POB"
"65666","MO","Hardenville","Ozark","29","153","36.59","-92.37","A","GD"
"65667","MO","Hartville","Wright","29","229","37.3","-92.49","A","GD"
"65668","MO","Hermitage","Hickory","29","85","37.91","-93.3","A","GD"
"65669","MO","Highlandville","Christian","29","43","36.92","-93.29","A","GD"
"65672","MO","Hollister","Taney","29","213","36.59","-93.24","A","GD"
"65673","MO","Hollister","Taney","29","213","36.62","-93.22","A","POB"
"65674","MO","Humansville","Polk","29","167","37.79","-93.61","A","GD"
"65675","MO","Hurley","Stone","29","209","36.92","-93.47","A","POB"
"65676","MO","Isabella","Ozark","29","153","36.58","-92.62","A","GD"
"65679","MO","Kirbyville","Taney","29","213","36.61","-93.13","A","GD"
"65680","MO","Kissee Mills","Taney","29","213","36.66","-93.03","A","GD"
"65681","MO","Lampe","Stone","29","209","36.56","-93.47","A","GD"
"65682","MO","Lockwood","Dade","29","57","37.4","-93.97","A","GD"
"65685","MO","Louisburg","Dallas","29","59","37.75","-93.17","A","GD"
"65686","MO","Kimberling City","Stone","29","209","36.63","-93.43","A","GD"
"65688","MO","Brandsville","Howell","29","91","36.58","-91.73","A","POB"
"65689","MO","Cabool","Texas","29","215","37.13","-92.09","A","GD"
"65690","MO","Couch","Oregon","29","149","36.58","-91.25","A","GD"
"65692","MO","Koshkonong","Oregon","29","149","36.61","-91.64","A","GD"
"65702","MO","Macomb","Wright","29","229","37.09","-92.5","A","GD"
"65704","MO","Mansfield","Wright","29","229","37.12","-92.58","A","GD"
"65705","MO","Marionville","Lawrence","29","109","37","-93.63","A","GD"
"65706","MO","Marshfield","Webster","29","225","37.33","-92.91","A","GD"
"65707","MO","Miller","Lawrence","29","109","37.22","-93.83","A","GD"
"65708","MO","Monett","Barry","29","9","36.92","-93.92","A","GD"
"65710","MO","Morrisville","Polk","29","167","37.49","-93.43","A","GD"
"65711","MO","Mountain Grove","Wright","29","229","37.17","-92.28","A","GD"
"65712","MO","Mount Vernon","Lawrence","29","109","37.1","-93.81","A","GD"
"65713","MO","Niangua","Webster","29","225","37.4","-92.77","A","GD"
"65714","MO","Nixa","Christian","29","43","37.04","-93.31","A","GD"
"65715","MO","Noble","Ozark","29","153","36.74","-92.58","A","GD"
"65717","MO","Norwood","Wright","29","229","37.08","-92.42","A","GD"
"65720","MO","Oldfield","Christian","29","43","36.93","-92.95","A","GD"
"65721","MO","Ozark","Christian","29","43","37.02","-93.22","A","GD"
"65722","MO","Phillipsburg","Laclede","29","105","37.58","-92.77","A","GD"
"65723","MO","Pierce City","Lawrence","29","109","36.95","-94.03","A","GD"
"65724","MO","Pittsburg","Hickory","29","85","37.85","-93.32","A","GD"
"65725","MO","Pleasant Hope","Greene","29","77","37.44","-93.27","A","GD"
"65726","MO","Point Lookout","Taney","29","213","36.59","-93.24","A","POB"
"65727","MO","Polk","Polk","29","167","37.77","-93.28","A","GD"
"65728","MO","Ponce De Leon","Stone","29","209","36.88","-93.35","A","GD"
"65729","MO","Pontiac","Ozark","29","153","36.53","-92.59","A","GD"
"65730","MO","Powell","Mcdonald","29","119","36.63","-94.17","A","GD"
"65731","MO","Powersite","Taney","29","213","36.65","-93.12","A","GD"
"65732","MO","Preston","Hickory","29","85","37.93","-93.19","A","GD"
"65733","MO","Protem","Taney","29","213","36.53","-92.85","A","GD"
"65734","MO","Purdy","Barry","29","9","36.8","-93.94","A","GD"
"65735","MO","Quincy","Hickory","29","85","38.06","-93.48","A","GD"
"65737","MO","Reeds Spring","Stone","29","209","36.69","-93.38","A","GD"
"65738","MO","Republic","Greene","29","77","37.12","-93.47","A","GD"
"65739","MO","Ridgedale","Taney","29","213","36.53","-93.28","A","GD"
"65740","MO","Rockaway Beach","Taney","29","213","36.71","-93.16","A","GD"
"65741","MO","Rockbridge","Ozark","29","153","36.79","-92.41","A","POB"
"65742","MO","Rogersville","Webster","29","225","37.12","-93.09","A","GD"
"65744","MO","Rueter","Taney","29","213","36.62","-92.9","A","GD"
"65745","MO","Seligman","Barry","29","9","36.53","-93.97","A","GD"
"65746","MO","Seymour","Webster","29","225","37.16","-92.79","A","GD"
"65747","MO","Shell Knob","Barry","29","9","36.59","-93.58","A","GD"
"65752","MO","South Greenfield","Dade","29","57","37.34","-93.83","A","GD"
"65753","MO","Sparta","Christian","29","43","37.01","-93.07","A","GD"
"65754","MO","Spokane","Christian","29","43","36.85","-93.31","A","GD"
"65755","MO","Squires","Douglas","29","67","36.8","-92.63","A","GD"
"65756","MO","Stotts City","Lawrence","29","109","37.11","-93.97","A","GD"
"65757","MO","Strafford","Greene","29","77","37.28","-93.11","A","GD"
"65759","MO","Taneyville","Taney","29","213","36.74","-93.03","A","GD"
"65760","MO","Tecumseh","Ozark","29","153","36.62","-92.28","A","GD"
"65761","MO","Theodosia","Ozark","29","153","36.57","-92.69","A","GD"
"65762","MO","Thornfield","Ozark","29","153","36.66","-92.63","A","GD"
"65764","MO","Tunas","Dallas","29","59","37.83","-92.97","A","GD"
"65765","MO","Turners","Greene","29","77","37.18","-93.16","A","POB"
"65766","MO","Udall","Ozark","29","153","36.54","-92.26","A","GD"
"65767","MO","Urbana","Dallas","29","59","37.84","-93.17","A","GD"
"65768","MO","Vanzant","Douglas","29","67","36.92","-92.27","A","GD"
"65769","MO","Verona","Lawrence","29","109","36.92","-93.78","A","GD"
"65770","MO","Walnut Grove","Greene","29","77","37.42","-93.55","A","GD"
"65771","MO","Walnut Shade","Taney","29","213","36.77","-93.21","A","GD"
"65772","MO","Washburn","Barry","29","9","36.58","-94.01","A","GD"
"65773","MO","Wasola","Ozark","29","153","36.76","-92.52","A","GD"
"65774","MO","Weaubleau","Hickory","29","85","37.92","-93.51","A","GD"
"65775","MO","West Plains","Howell","29","91","36.72","-91.87","A","GD"
"65777","MO","Moody","Howell","29","91","36.52","-92","A","GD"
"65778","MO","Myrtle","Oregon","29","149","36.53","-91.27","A","GD"
"65779","MO","Wheatland","Hickory","29","85","37.92","-93.38","A","GD"
"65781","MO","Willard","Greene","29","77","37.34","-93.42","A","GD"
"65783","MO","Windyville","Dallas","29","59","37.71","-92.92","A","GD"
"65784","MO","Zanoni","Ozark","29","153","36.69","-92.32","A","GD"
"65785","MO","Stockton","Cedar","29","39","37.7","-93.81","A","GD"
"65786","MO","Macks Creek","Camden","29","29","37.97","-92.94","A","GD"
"65787","MO","Roach","Camden","29","29","38.07","-92.88","A","GD"
"65788","MO","Peace Valley","Howell","29","91","36.81","-91.7","A","GD"
"65789","MO","Pomona","Howell","29","91","36.86","-91.89","A","GD"
"65790","MO","Pottersville","Howell","29","91","36.7","-92.13","A","GD"
"65791","MO","Thayer","Oregon","29","149","36.54","-91.53","A","GD"
"65793","MO","Willow Springs","Howell","29","91","37","-91.96","A","GD"
"65801","MO","Springfield","Greene","29","77","37.13","-93.29","A","POB"
"65802","MO","Springfield","Greene","29","77","37.21","-93.32","A","GD"
"65803","MO","Springfield","Greene","29","77","37.25","-93.29","A","GD"
"65804","MO","Springfield","Greene","29","77","37.16","-93.25","A","GD"
"65805","MO","Springfield","Greene","29","77","37.26","-93.32","A","POB"
"65806","MO","Springfield","Greene","29","77","37.21","-93.3","A","GD"
"65807","MO","Springfield","Greene","29","77","37.17","-93.32","A","GD"
"65808","MO","Springfield","Greene","29","77","37.19","-93.26","A","POB"
"65809","MO","Springfield","Greene","29","77","37.17","-93.21","A","GD"
"65810","MO","Springfield","Greene","29","77","37.12","-93.31","A","GD"
"65814","MO","Springfield","Greene","29","77","37.18","-93.28","A","POB"
"65817","MO","Springfield","Greene","29","77","37.17","-93.33","A","POB"
"65890","MO","Springfield","Greene","29","77","37.21","-93.35","A","PVT"
"65897","MO","Springfield","Greene","29","77","37.2","-93.28","A","PVT"
"65898","MO","Springfield","Greene","29","77","37.22","-93.3","A","PVT"
"65899","MO","Springfield","Greene","29","77","37.15","-93.25","A","PVT"
