"ZIPCode","State","City","County","StateFIPS","CountyFIPS","Latitude","Longitude","Preference","Type"
"1001","MA","Agawam","Hampden","25","13","42.07","-72.62","A","GD"
"1002","MA","Amherst","Hampshire","25","15","42.38","-72.5","A","GD"
"1003","MA","Amherst","Hampshire","25","15","42.39","-72.52","A","GD"
"1004","MA","Amherst","Hampshire","25","15","42.38","-72.51","A","POB"
"1005","MA","Barre","Worcester","25","27","42.41","-72.11","A","GD"
"1007","MA","Belchertown","Hampshire","25","15","42.28","-72.41","A","GD"
"1008","MA","Blandford","Hampden","25","13","42.18","-72.95","A","GD"
"1009","MA","Bondsville","Hampden","25","13","42.21","-72.34","A","POB"
"1010","MA","Brimfield","Hampden","25","13","42.13","-72.21","A","GD"
"1011","MA","Chester","Hampden","25","13","42.28","-72.98","A","GD"
"1012","MA","Chesterfield","Hampshire","25","15","42.39","-72.84","A","GD"
"1013","MA","Chicopee","Hampden","25","13","42.16","-72.6","A","GD"
"1014","MA","Chicopee","Hampden","25","13","42.18","-72.57","A","POB"
"1020","MA","Chicopee","Hampden","25","13","42.17","-72.57","A","GD"
"1021","MA","Chicopee","Hampden","25","13","42.18","-72.57","A","POB"
"1022","MA","Chicopee","Hampden","25","13","42.2","-72.55","A","GD"
"1026","MA","Cummington","Hampshire","25","15","42.47","-72.92","A","GD"
"1027","MA","Easthampton","Hampshire","25","15","42.27","-72.68","A","GD"
"1028","MA","East Longmeadow","Hampden","25","13","42.07","-72.51","A","GD"
"1029","MA","East Otis","Berkshire","25","3","42.18","-73.05","A","POB"
"1030","MA","Feeding Hills","Hampden","25","13","42.07","-72.68","A","GD"
"1031","MA","Gilbertville","Worcester","25","27","42.32","-72.19","A","GD"
"1032","MA","Goshen","Hampshire","25","15","42.45","-72.8","A","GD"
"1033","MA","Granby","Hampshire","25","15","42.26","-72.52","A","GD"
"1034","MA","Granville","Hampden","25","13","42.09","-72.94","A","GD"
"1035","MA","Hadley","Hampshire","25","15","42.35","-72.56","A","GD"
"1036","MA","Hampden","Hampden","25","13","42.06","-72.42","A","GD"
"1037","MA","Hardwick","Worcester","25","27","42.36","-72.19","A","POB"
"1038","MA","Hatfield","Hampshire","25","15","42.38","-72.61","A","GD"
"1039","MA","Haydenville","Hampshire","25","15","42.4","-72.69","A","GD"
"1040","MA","Holyoke","Hampden","25","13","42.2","-72.63","A","GD"
"1041","MA","Holyoke","Hampden","25","13","42.21","-72.61","A","POB"
"1050","MA","Huntington","Hampshire","25","15","42.27","-72.87","A","GD"
"1053","MA","Leeds","Hampshire","25","15","42.35","-72.7","A","GD"
"1054","MA","Leverett","Franklin","25","11","42.47","-72.49","A","GD"
"1056","MA","Ludlow","Hampden","25","13","42.18","-72.48","A","GD"
"1057","MA","Monson","Hampden","25","13","42.09","-72.32","A","GD"
"1059","MA","North Amherst","Hampshire","25","15","42.41","-72.53","A","POB"
"1060","MA","Northampton","Hampshire","25","15","42.32","-72.64","A","GD"
"1061","MA","Northampton","Hampshire","25","15","42.32","-72.69","A","POB"
"1062","MA","Florence","Hampshire","25","15","42.33","-72.68","A","GD"
"1063","MA","Northampton","Hampshire","25","15","42.32","-72.64","A","PVT"
"1066","MA","North Hatfield","Hampshire","25","15","42.41","-72.65","A","POB"
"1068","MA","Oakham","Worcester","25","27","42.35","-72.04","A","GD"
"1069","MA","Palmer","Hampden","25","13","42.17","-72.33","A","GD"
"1070","MA","Plainfield","Hampshire","25","15","42.52","-72.92","A","GD"
"1071","MA","Russell","Hampden","25","13","42.17","-72.86","A","GD"
"1072","MA","Shutesbury","Franklin","25","11","42.48","-72.42","A","GD"
"1073","MA","Southampton","Hampshire","25","15","42.23","-72.73","A","GD"
"1074","MA","South Barre","Worcester","25","27","42.39","-72.1","A","POB"
"1075","MA","South Hadley","Hampshire","25","15","42.24","-72.58","A","GD"
"1077","MA","Southwick","Hampden","25","13","42.05","-72.76","A","GD"
"1079","MA","Thorndike","Hampden","25","13","42.19","-72.33","A","POB"
"1080","MA","Three Rivers","Hampden","25","13","42.18","-72.36","A","GD"
"1081","MA","Wales","Hampden","25","13","42.06","-72.23","A","GD"
"1082","MA","Ware","Hampshire","25","15","42.27","-72.27","A","GD"
"1083","MA","Warren","Worcester","25","27","42.21","-72.19","A","POB"
"1084","MA","West Chesterfield","Hampshire","25","15","42.39","-72.87","A","GD"
"1085","MA","Westfield","Hampden","25","13","42.13","-72.75","A","GD"
"1086","MA","Westfield","Hampden","25","13","42.13","-72.79","A","POB"
"1088","MA","West Hatfield","Hampshire","25","15","42.39","-72.63","A","GD"
"1089","MA","West Springfield","Hampden","25","13","42.12","-72.64","A","GD"
"1090","MA","West Springfield","Hampden","25","13","42.12","-72.65","A","POB"
"1092","MA","West Warren","Worcester","25","27","42.21","-72.24","A","POB"
"1093","MA","Whately","Franklin","25","11","42.43","-72.65","A","POB"
"1094","MA","Wheelwright","Worcester","25","27","42.36","-72.14","A","POB"
"1095","MA","Wilbraham","Hampden","25","13","42.13","-72.44","A","GD"
"1096","MA","Williamsburg","Hampshire","25","15","42.4","-72.77","A","GD"
"1097","MA","Woronoco","Hampden","25","13","42.17","-72.83","A","POB"
"1098","MA","Worthington","Hampshire","25","15","42.4","-72.94","A","GD"
"1101","MA","Springfield","Hampden","25","13","42.1","-72.59","A","POB"
"1102","MA","Springfield","Hampden","25","13","42.12","-72.54","A","POB"
"1103","MA","Springfield","Hampden","25","13","42.1","-72.59","A","GD"
"1104","MA","Springfield","Hampden","25","13","42.13","-72.58","A","GD"
"1105","MA","Springfield","Hampden","25","13","42.1","-72.58","A","GD"
"1106","MA","Longmeadow","Hampden","25","13","42.05","-72.57","A","GD"
"1107","MA","Springfield","Hampden","25","13","42.12","-72.61","A","GD"
"1108","MA","Springfield","Hampden","25","13","42.08","-72.56","A","GD"
"1109","MA","Springfield","Hampden","25","13","42.12","-72.55","A","GD"
"1111","MA","Springfield","Hampden","25","13","42.12","-72.55","A","PVT"
"1115","MA","Springfield","Hampden","25","13","42.1","-72.59","A","POB"
"1116","MA","Longmeadow","Hampden","25","13","42.05","-72.57","A","POB"
"1118","MA","Springfield","Hampden","25","13","42.09","-72.53","A","GD"
"1119","MA","Springfield","Hampden","25","13","42.13","-72.51","A","GD"
"1128","MA","Springfield","Hampden","25","13","42.1","-72.49","A","GD"
"1129","MA","Springfield","Hampden","25","13","42.12","-72.49","A","GD"
"1138","MA","Springfield","Hampden","25","13","42.09","-72.56","A","POB"
"1139","MA","Springfield","Hampden","25","13","42.12","-72.55","A","POB"
"1144","MA","Springfield","Hampden","25","13","42.1","-72.59","A","GD"
"1151","MA","Indian Orchard","Hampden","25","13","42.15","-72.51","A","GD"
"1152","MA","Springfield","Hampden","25","13","42.15","-72.51","A","GD"
"1199","MA","Springfield","Hampden","25","13","42.12","-72.6","A","PVT"
"1201","MA","Pittsfield","Berkshire","25","3","42.45","-73.25","A","GD"
"1202","MA","Pittsfield","Berkshire","25","3","42.46","-73.32","A","POB"
"1203","MA","Pittsfield","Berkshire","25","3","42.45","-73.26","A","POB"
"1220","MA","Adams","Berkshire","25","3","42.62","-73.12","A","GD"
"1222","MA","Ashley Falls","Berkshire","25","3","42.06","-73.32","A","GD"
"1223","MA","Becket","Berkshire","25","3","42.29","-73.09","A","GD"
"1224","MA","Berkshire","Berkshire","25","3","42.51","-73.2","A","GD"
"1225","MA","Cheshire","Berkshire","25","3","42.56","-73.16","A","GD"
"1226","MA","Dalton","Berkshire","25","3","42.47","-73.16","A","GD"
"1227","MA","Dalton","Berkshire","25","3","42.47","-73.17","A","POB"
"1229","MA","Glendale","Berkshire","25","3","42.28","-73.34","A","POB"
"1230","MA","Great Barrington","Berkshire","25","3","42.19","-73.35","A","GD"
"1235","MA","Hinsdale","Berkshire","25","3","42.43","-73.09","A","GD"
"1236","MA","Housatonic","Berkshire","25","3","42.26","-73.37","A","GD"
"1237","MA","Lanesborough","Berkshire","25","3","42.55","-73.25","A","GD"
"1238","MA","Lee","Berkshire","25","3","42.3","-73.24","A","GD"
"1240","MA","Lenox","Berkshire","25","3","42.36","-73.27","A","GD"
"1242","MA","Lenox Dale","Berkshire","25","3","42.33","-73.25","A","POB"
"1243","MA","Middlefield","Hampshire","25","15","42.35","-73.01","A","POB"
"1244","MA","Mill River","Berkshire","25","3","42.11","-73.26","A","POB"
"1245","MA","Monterey","Berkshire","25","3","42.18","-73.22","A","GD"
"1247","MA","North Adams","Berkshire","25","3","42.7","-73.09","A","GD"
"1252","MA","North Egremont","Berkshire","25","3","42.2","-73.44","A","GD"
"1253","MA","Otis","Berkshire","25","3","42.2","-73.1","A","GD"
"1254","MA","Richmond","Berkshire","25","3","42.38","-73.36","A","GD"
"1255","MA","Sandisfield","Berkshire","25","3","42.12","-73.11","A","GD"
"1256","MA","Savoy","Berkshire","25","3","42.59","-73.02","A","GD"
"1257","MA","Sheffield","Berkshire","25","3","42.1","-73.37","A","GD"
"1258","MA","South Egremont","Berkshire","25","3","42.11","-73.46","A","POB"
"1259","MA","Southfield","Berkshire","25","3","42.07","-73.23","A","GD"
"1260","MA","South Lee","Berkshire","25","3","42.28","-73.3","A","POB"
"1262","MA","Stockbridge","Berkshire","25","3","42.3","-73.32","A","POB"
"1263","MA","Stockbridge","Berkshire","25","3","42.31","-73.31","A","PVT"
"1264","MA","Tyringham","Berkshire","25","3","42.23","-73.19","A","POB"
"1266","MA","West Stockbridge","Berkshire","25","3","42.33","-73.37","A","GD"
"1267","MA","Williamstown","Berkshire","25","3","42.69","-73.21","A","GD"
"1270","MA","Windsor","Berkshire","25","3","42.5","-73.03","A","GD"
"1301","MA","Greenfield","Franklin","25","11","42.6","-72.6","A","GD"
"1302","MA","Greenfield","Franklin","25","11","42.65","-72.61","A","POB"
"1330","MA","Ashfield","Franklin","25","11","42.52","-72.81","A","GD"
"1331","MA","Athol","Worcester","25","27","42.58","-72.21","A","GD"
"1337","MA","Bernardston","Franklin","25","11","42.69","-72.57","A","GD"
"1338","MA","Buckland","Franklin","25","11","42.57","-72.81","A","GD"
"1339","MA","Charlemont","Franklin","25","11","42.61","-72.89","A","GD"
"1340","MA","Colrain","Franklin","25","11","42.67","-72.72","A","GD"
"1341","MA","Conway","Franklin","25","11","42.51","-72.71","A","GD"
"1342","MA","Deerfield","Franklin","25","11","42.55","-72.61","A","GD"
"1343","MA","Drury","Berkshire","25","3","42.66","-73","A","GD"
"1344","MA","Erving","Franklin","25","11","42.6","-72.43","A","GD"
"1346","MA","Heath","Franklin","25","11","42.69","-72.82","A","GD"
"1347","MA","Lake Pleasant","Franklin","25","11","42.56","-72.52","A","POB"
"1349","MA","Millers Falls","Franklin","25","11","42.58","-72.49","A","GD"
"1350","MA","Monroe Bridge","Franklin","25","11","42.72","-72.96","A","POB"
"1351","MA","Montague","Franklin","25","11","42.54","-72.53","A","GD"
"1354","MA","Gill","Franklin","25","11","42.64","-72.52","A","GD"
"1355","MA","New Salem","Franklin","25","11","42.49","-72.33","A","GD"
"1360","MA","Northfield","Franklin","25","11","42.68","-72.46","A","GD"
"1364","MA","Orange","Franklin","25","11","42.6","-72.3","A","GD"
"1366","MA","Petersham","Worcester","25","27","42.48","-72.19","A","GD"
"1367","MA","Rowe","Franklin","25","11","42.7","-72.91","A","GD"
"1368","MA","Royalston","Worcester","25","27","42.67","-72.18","A","GD"
"1370","MA","Shelburne Falls","Franklin","25","11","42.6","-72.72","A","GD"
"1373","MA","South Deerfield","Franklin","25","11","42.47","-72.61","A","GD"
"1375","MA","Sunderland","Franklin","25","11","42.46","-72.56","A","GD"
"1376","MA","Turners Falls","Franklin","25","11","42.6","-72.56","A","GD"
"1378","MA","Warwick","Franklin","25","11","42.67","-72.34","A","GD"
"1379","MA","Wendell","Franklin","25","11","42.56","-72.41","A","GD"
"1380","MA","Wendell Depot","Franklin","25","11","42.57","-72.41","A","GD"
"1420","MA","Fitchburg","Worcester","25","27","42.58","-71.81","A","GD"
"1430","MA","Ashburnham","Worcester","25","27","42.66","-71.93","A","GD"
"1431","MA","Ashby","Middlesex","25","17","42.67","-71.82","A","GD"
"1432","MA","Ayer","Middlesex","25","17","42.56","-71.58","A","GD"
"1434","MA","Devens","Middlesex","25","17","42.54","-71.61","A","GD"
"1436","MA","Baldwinville","Worcester","25","27","42.61","-72.08","A","GD"
"1438","MA","East Templeton","Worcester","25","27","42.56","-72.04","A","POB"
"1440","MA","Gardner","Worcester","25","27","42.58","-71.99","A","GD"
"1441","MA","Westminster","Worcester","25","27","42.57","-72","A","PVT"
"1450","MA","Groton","Middlesex","25","17","42.61","-71.57","A","GD"
"1451","MA","Harvard","Worcester","25","27","42.5","-71.58","A","GD"
"1452","MA","Hubbardston","Worcester","25","27","42.48","-72","A","GD"
"1453","MA","Leominster","Worcester","25","27","42.53","-71.75","A","GD"
"1460","MA","Littleton","Middlesex","25","17","42.54","-71.49","A","GD"
"1462","MA","Lunenburg","Worcester","25","27","42.58","-71.72","A","GD"
"1463","MA","Pepperell","Middlesex","25","17","42.67","-71.59","A","GD"
"1464","MA","Shirley","Middlesex","25","17","42.56","-71.65","A","GD"
"1467","MA","Still River","Worcester","25","27","42.49","-71.61","A","POB"
"1468","MA","Templeton","Worcester","25","27","42.56","-72.07","A","GD"
"1469","MA","Townsend","Middlesex","25","17","42.66","-71.69","A","GD"
"1470","MA","Groton","Middlesex","25","17","42.61","-71.57","A","PVT"
"1471","MA","Groton","Middlesex","25","17","42.61","-71.57","A","PVT"
"1472","MA","West Groton","Middlesex","25","17","42.61","-71.63","A","POB"
"1473","MA","Westminster","Worcester","25","27","42.55","-71.9","A","GD"
"1474","MA","West Townsend","Middlesex","25","17","42.68","-71.76","A","GD"
"1475","MA","Winchendon","Worcester","25","27","42.67","-72.05","A","GD"
"1501","MA","Auburn","Worcester","25","27","42.2","-71.84","A","GD"
"1503","MA","Berlin","Worcester","25","27","42.38","-71.63","A","GD"
"1504","MA","Blackstone","Worcester","25","27","42.03","-71.52","A","GD"
"1505","MA","Boylston","Worcester","25","27","42.34","-71.73","A","GD"
"1506","MA","Brookfield","Worcester","25","27","42.2","-72.1","A","GD"
"1507","MA","Charlton","Worcester","25","27","42.14","-71.97","A","GD"
"1508","MA","Charlton City","Worcester","25","27","42.15","-71.99","A","POB"
"1509","MA","Charlton Depot","Worcester","25","27","42.17","-71.98","A","POB"
"1510","MA","Clinton","Worcester","25","27","42.42","-71.68","A","GD"
"1515","MA","East Brookfield","Worcester","25","27","42.22","-72.05","A","GD"
"1516","MA","Douglas","Worcester","25","27","42.06","-71.74","A","GD"
"1518","MA","Fiskdale","Worcester","25","27","42.12","-72.12","A","GD"
"1519","MA","Grafton","Worcester","25","27","42.2","-71.68","A","GD"
"1520","MA","Holden","Worcester","25","27","42.34","-71.85","A","GD"
"1521","MA","Holland","Hampden","25","13","42.06","-72.16","A","GD"
"1522","MA","Jefferson","Worcester","25","27","42.38","-71.87","A","GD"
"1523","MA","Lancaster","Worcester","25","27","42.47","-71.68","A","GD"
"1524","MA","Leicester","Worcester","25","27","42.24","-71.92","A","GD"
"1525","MA","Linwood","Worcester","25","27","42.11","-71.63","A","POB"
"1526","MA","Manchaug","Worcester","25","27","42.09","-71.75","A","POB"
"1527","MA","Millbury","Worcester","25","27","42.2","-71.77","A","GD"
"1529","MA","Millville","Worcester","25","27","42.03","-71.58","A","GD"
"1531","MA","New Braintree","Worcester","25","27","42.32","-72.13","A","GD"
"1532","MA","Northborough","Worcester","25","27","42.32","-71.64","A","GD"
"1534","MA","Northbridge","Worcester","25","27","42.14","-71.65","A","GD"
"1535","MA","North Brookfield","Worcester","25","27","42.27","-72.08","A","GD"
"1536","MA","North Grafton","Worcester","25","27","42.23","-71.7","A","GD"
"1537","MA","North Oxford","Worcester","25","27","42.17","-71.89","A","GD"
"1538","MA","North Uxbridge","Worcester","25","27","42.09","-71.64","A","POB"
"1540","MA","Oxford","Worcester","25","27","42.12","-71.87","A","GD"
"1541","MA","Princeton","Worcester","25","27","42.45","-71.88","A","GD"
"1542","MA","Rochdale","Worcester","25","27","42.2","-71.91","A","GD"
"1543","MA","Rutland","Worcester","25","27","42.38","-71.96","A","GD"
"1545","MA","Shrewsbury","Worcester","25","27","42.28","-71.72","A","GD"
"1546","MA","Shrewsbury","Worcester","25","27","42.29","-71.75","A","PVT"
"1550","MA","Southbridge","Worcester","25","27","42.07","-72.03","A","GD"
"1560","MA","South Grafton","Worcester","25","27","42.17","-71.68","A","GD"
"1561","MA","South Lancaster","Worcester","25","27","42.44","-71.69","A","POB"
"1562","MA","Spencer","Worcester","25","27","42.25","-71.99","A","GD"
"1564","MA","Sterling","Worcester","25","27","42.44","-71.77","A","GD"
"1566","MA","Sturbridge","Worcester","25","27","42.11","-72.08","A","GD"
"1568","MA","Upton","Worcester","25","27","42.17","-71.61","A","GD"
"1569","MA","Uxbridge","Worcester","25","27","42.07","-71.63","A","GD"
"1570","MA","Webster","Worcester","25","27","42.05","-71.86","A","GD"
"1571","MA","Dudley","Worcester","25","27","42.05","-71.92","A","GD"
"1581","MA","Westborough","Worcester","25","27","42.27","-71.61","A","GD"
"1583","MA","West Boylston","Worcester","25","27","42.36","-71.78","A","GD"
"1585","MA","West Brookfield","Worcester","25","27","42.24","-72.16","A","GD"
"1586","MA","West Millbury","Worcester","25","27","42.19","-71.76","A","POB"
"1588","MA","Whitinsville","Worcester","25","27","42.12","-71.67","A","GD"
"1590","MA","Sutton","Worcester","25","27","42.14","-71.74","A","GD"
"1601","MA","Worcester","Worcester","25","27","42.27","-71.81","A","POB"
"1602","MA","Worcester","Worcester","25","27","42.27","-71.84","A","GD"
"1603","MA","Worcester","Worcester","25","27","42.24","-71.83","A","GD"
"1604","MA","Worcester","Worcester","25","27","42.25","-71.77","A","GD"
"1605","MA","Worcester","Worcester","25","27","42.29","-71.79","A","GD"
"1606","MA","Worcester","Worcester","25","27","42.31","-71.8","A","GD"
"1607","MA","Worcester","Worcester","25","27","42.23","-71.79","A","GD"
"1608","MA","Worcester","Worcester","25","27","42.26","-71.8","A","GD"
"1609","MA","Worcester","Worcester","25","27","42.27","-71.82","A","GD"
"1610","MA","Worcester","Worcester","25","27","42.25","-71.81","A","GD"
"1611","MA","Cherry Valley","Worcester","25","27","42.24","-71.87","A","GD"
"1612","MA","Paxton","Worcester","25","27","42.31","-71.93","A","GD"
"1613","MA","Worcester","Worcester","25","27","42.26","-71.8","A","POB"
"1614","MA","Worcester","Worcester","25","27","42.26","-71.8","A","POB"
"1615","MA","Worcester","Worcester","25","27","42.27","-71.81","A","POB"
"1653","MA","Worcester","Worcester","25","27","42.29","-71.78","A","PVT"
"1655","MA","Worcester","Worcester","25","27","42.28","-71.76","A","GD"
"1701","MA","Framingham","Middlesex","25","17","42.32","-71.43","A","GD"
"1702","MA","Framingham","Middlesex","25","17","42.29","-71.43","A","GD"
"1703","MA","Framingham","Middlesex","25","17","42.32","-71.44","A","POB"
"1704","MA","Framingham","Middlesex","25","17","42.32","-71.44","A","POB"
"1705","MA","Framingham","Middlesex","25","17","42.32","-71.44","A","POB"
"1718","MA","Village Of Nagog Woods","Middlesex","25","17","42.52","-71.43","A","GD"
"1719","MA","Boxborough","Middlesex","25","17","42.49","-71.51","A","GD"
"1720","MA","Acton","Middlesex","25","17","42.48","-71.44","A","GD"
"1721","MA","Ashland","Middlesex","25","17","42.26","-71.46","A","GD"
"1730","MA","Bedford","Middlesex","25","17","42.49","-71.27","A","GD"
"1731","MA","Hanscom Afb","Middlesex","25","17","42.46","-71.28","A","GD"
"1740","MA","Bolton","Worcester","25","27","42.44","-71.61","A","GD"
"1741","MA","Carlisle","Middlesex","25","17","42.53","-71.35","A","GD"
"1742","MA","Concord","Middlesex","25","17","42.46","-71.37","A","GD"
"1745","MA","Fayville","Worcester","25","27","42.3","-71.5","A","GD"
"1746","MA","Holliston","Middlesex","25","17","42.2","-71.44","A","GD"
"1747","MA","Hopedale","Worcester","25","27","42.13","-71.54","A","GD"
"1748","MA","Hopkinton","Middlesex","25","17","42.23","-71.54","A","GD"
"1749","MA","Hudson","Middlesex","25","17","42.39","-71.56","A","GD"
"1752","MA","Marlborough","Middlesex","25","17","42.35","-71.55","A","GD"
"1754","MA","Maynard","Middlesex","25","17","42.43","-71.45","A","GD"
"1756","MA","Mendon","Worcester","25","27","42.09","-71.56","A","GD"
"1757","MA","Milford","Worcester","25","27","42.15","-71.52","A","GD"
"1760","MA","Natick","Middlesex","25","17","42.29","-71.35","A","GD"
"1770","MA","Sherborn","Middlesex","25","17","42.24","-71.37","A","GD"
"1772","MA","Southborough","Worcester","25","27","42.3","-71.53","A","GD"
"1773","MA","Lincoln","Middlesex","25","17","42.43","-71.31","A","GD"
"1775","MA","Stow","Middlesex","25","17","42.43","-71.51","A","GD"
"1776","MA","Sudbury","Middlesex","25","17","42.38","-71.43","A","GD"
"1778","MA","Wayland","Middlesex","25","17","42.35","-71.36","A","GD"
"1784","MA","Woodville","Middlesex","25","17","42.23","-71.56","A","POB"
"1801","MA","Woburn","Middlesex","25","17","42.49","-71.15","A","GD"
"1803","MA","Burlington","Middlesex","25","17","42.5","-71.2","A","GD"
"1805","MA","Burlington","Middlesex","25","17","42.51","-71.2","A","PVT"
"1810","MA","Andover","Essex","25","9","42.65","-71.16","A","GD"
"1812","MA","Andover","Essex","25","9","42.65","-71.18","A","PVT"
"1813","MA","Woburn","Middlesex","25","17","42.51","-71.13","A","PVT"
"1815","MA","Woburn","Middlesex","25","17","42.51","-71.13","A","PVT"
"1821","MA","Billerica","Middlesex","25","17","42.55","-71.25","A","GD"
"1822","MA","Billerica","Middlesex","25","17","42.54","-71.26","A","POB"
"1824","MA","Chelmsford","Middlesex","25","17","42.6","-71.35","A","GD"
"1826","MA","Dracut","Middlesex","25","17","42.68","-71.32","A","GD"
"1827","MA","Dunstable","Middlesex","25","17","42.68","-71.5","A","GD"
"1830","MA","Haverhill","Essex","25","9","42.79","-71.07","A","GD"
"1831","MA","Haverhill","Essex","25","9","42.78","-71.09","A","POB"
"1832","MA","Haverhill","Essex","25","9","42.78","-71.11","A","GD"
"1833","MA","Georgetown","Essex","25","9","42.72","-70.98","A","GD"
"1834","MA","Groveland","Essex","25","9","42.76","-71.03","A","GD"
"1835","MA","Haverhill","Essex","25","9","42.76","-71.08","A","GD"
"1840","MA","Lawrence","Essex","25","9","42.71","-71.16","A","GD"
"1841","MA","Lawrence","Essex","25","9","42.71","-71.17","A","GD"
"1842","MA","Lawrence","Essex","25","9","42.71","-71.16","A","POB"
"1843","MA","Lawrence","Essex","25","9","42.69","-71.16","A","GD"
"1844","MA","Methuen","Essex","25","9","42.73","-71.18","A","GD"
"1845","MA","North Andover","Essex","25","9","42.68","-71.11","A","GD"
"1850","MA","Lowell","Middlesex","25","17","42.65","-71.3","A","GD"
"1851","MA","Lowell","Middlesex","25","17","42.63","-71.33","A","GD"
"1852","MA","Lowell","Middlesex","25","17","42.63","-71.3","A","GD"
"1853","MA","Lowell","Middlesex","25","17","42.66","-71.3","A","POB"
"1854","MA","Lowell","Middlesex","25","17","42.65","-71.33","A","GD"
"1860","MA","Merrimac","Essex","25","9","42.83","-71","A","GD"
"1862","MA","North Billerica","Middlesex","25","17","42.58","-71.29","A","GD"
"1863","MA","North Chelmsford","Middlesex","25","17","42.63","-71.39","A","GD"
"1864","MA","North Reading","Middlesex","25","17","42.58","-71.09","A","GD"
"1865","MA","Nutting Lake","Middlesex","25","17","42.53","-71.27","A","POB"
"1866","MA","Pinehurst","Middlesex","25","17","42.53","-71.23","A","POB"
"1867","MA","Reading","Middlesex","25","17","42.53","-71.11","A","GD"
"1876","MA","Tewksbury","Middlesex","25","17","42.6","-71.22","A","GD"
"1879","MA","Tyngsboro","Middlesex","25","17","42.67","-71.42","A","GD"
"1880","MA","Wakefield","Middlesex","25","17","42.5","-71.07","A","GD"
"1885","MA","West Boxford","Essex","25","9","42.71","-71.06","A","POB"
"1886","MA","Westford","Middlesex","25","17","42.59","-71.44","A","GD"
"1887","MA","Wilmington","Middlesex","25","17","42.56","-71.17","A","GD"
"1888","MA","Woburn","Middlesex","25","17","42.49","-71.15","A","POB"
"1889","MA","North Reading","Middlesex","25","17","42.57","-71.11","A","PVT"
"1890","MA","Winchester","Middlesex","25","17","42.45","-71.14","A","GD"
"1899","MA","Andover","Essex","25","9","42.65","-71.18","A","PVT"
"1901","MA","Lynn","Essex","25","9","42.46","-70.95","A","GD"
"1902","MA","Lynn","Essex","25","9","42.47","-70.94","A","GD"
"1903","MA","Lynn","Essex","25","9","42.46","-70.95","A","POB"
"1904","MA","Lynn","Essex","25","9","42.49","-70.96","A","GD"
"1905","MA","Lynn","Essex","25","9","42.46","-70.97","A","GD"
"1906","MA","Saugus","Essex","25","9","42.46","-71.01","A","GD"
"1907","MA","Swampscott","Essex","25","9","42.47","-70.91","A","GD"
"1908","MA","Nahant","Essex","25","9","42.43","-70.93","A","GD"
"1910","MA","Lynn","Essex","25","9","42.47","-70.96","A","PVT"
"1913","MA","Amesbury","Essex","25","9","42.85","-70.94","A","GD"
"1915","MA","Beverly","Essex","25","9","42.56","-70.87","A","GD"
"1921","MA","Boxford","Essex","25","9","42.68","-71.01","A","GD"
"1922","MA","Byfield","Essex","25","9","42.75","-70.93","A","GD"
"1923","MA","Danvers","Essex","25","9","42.57","-70.95","A","GD"
"1929","MA","Essex","Essex","25","9","42.64","-70.78","A","GD"
"1930","MA","Gloucester","Essex","25","9","42.63","-70.67","A","GD"
"1931","MA","Gloucester","Essex","25","9","42.63","-70.68","A","POB"
"1936","MA","Hamilton","Essex","25","9","42.64","-70.86","A","POB"
"1937","MA","Hathorne","Essex","25","9","42.59","-70.98","A","POB"
"1938","MA","Ipswich","Essex","25","9","42.68","-70.84","A","GD"
"1940","MA","Lynnfield","Essex","25","9","42.53","-71.03","A","GD"
"1944","MA","Manchester","Essex","25","9","42.58","-70.76","A","GD"
"1945","MA","Marblehead","Essex","25","9","42.5","-70.86","A","GD"
"1949","MA","Middleton","Essex","25","9","42.59","-71.01","A","GD"
"1950","MA","Newburyport","Essex","25","9","42.81","-70.88","A","GD"
"1951","MA","Newbury","Essex","25","9","42.78","-70.85","A","GD"
"1952","MA","Salisbury","Essex","25","9","42.84","-70.86","A","GD"
"1960","MA","Peabody","Essex","25","9","42.53","-70.96","A","GD"
"1961","MA","Peabody","Essex","25","9","42.53","-70.97","A","POB"
"1965","MA","Prides Crossing","Essex","25","9","42.56","-70.83","A","POB"
"1966","MA","Rockport","Essex","25","9","42.66","-70.62","A","GD"
"1969","MA","Rowley","Essex","25","9","42.72","-70.89","A","GD"
"1970","MA","Salem","Essex","25","9","42.52","-70.9","A","GD"
"1971","MA","Salem","Essex","25","9","42.53","-70.87","A","POB"
"1982","MA","South Hamilton","Essex","25","9","42.62","-70.86","A","GD"
"1983","MA","Topsfield","Essex","25","9","42.64","-70.94","A","GD"
"1984","MA","Wenham","Essex","25","9","42.6","-70.88","A","GD"
"1985","MA","West Newbury","Essex","25","9","42.79","-70.97","A","GD"
"2018","MA","Accord","Plymouth","25","23","42.18","-70.89","A","POB"
"2019","MA","Bellingham","Norfolk","25","21","42.08","-71.47","A","GD"
"2020","MA","Brant Rock","Plymouth","25","23","42.09","-70.65","A","POB"
"2021","MA","Canton","Norfolk","25","21","42.17","-71.13","A","GD"
"2025","MA","Cohasset","Norfolk","25","21","42.23","-70.81","A","GD"
"2026","MA","Dedham","Norfolk","25","21","42.24","-71.17","A","GD"
"2027","MA","Dedham","Norfolk","25","21","42.25","-71.18","A","POB"
"2030","MA","Dover","Norfolk","25","21","42.24","-71.28","A","GD"
"2032","MA","East Walpole","Norfolk","25","21","42.15","-71.21","A","GD"
"2035","MA","Foxboro","Norfolk","25","21","42.06","-71.25","A","GD"
"2038","MA","Franklin","Norfolk","25","21","42.09","-71.41","A","GD"
"2040","MA","Greenbush","Plymouth","25","23","42.18","-70.75","A","POB"
"2041","MA","Green Harbor","Plymouth","25","23","42.07","-70.65","A","POB"
"2043","MA","Hingham","Plymouth","25","23","42.23","-70.89","A","GD"
"2044","MA","Hingham","Plymouth","25","23","42.24","-70.89","A","PVT"
"2045","MA","Hull","Plymouth","25","23","42.29","-70.88","A","GD"
"2047","MA","Humarock","Plymouth","25","23","42.13","-70.69","A","POB"
"2048","MA","Mansfield","Bristol","25","5","42.02","-71.22","A","GD"
"2050","MA","Marshfield","Plymouth","25","23","42.11","-70.69","A","GD"
"2051","MA","Marshfield Hills","Plymouth","25","23","42.15","-70.72","A","POB"
"2052","MA","Medfield","Norfolk","25","21","42.19","-71.31","A","GD"
"2053","MA","Medway","Norfolk","25","21","42.15","-71.42","A","GD"
"2054","MA","Millis","Norfolk","25","21","42.17","-71.36","A","GD"
"2055","MA","Minot","Plymouth","25","23","42.22","-70.78","A","POB"
"2056","MA","Norfolk","Norfolk","25","21","42.12","-71.33","A","GD"
"2059","MA","North Marshfield","Plymouth","25","23","42.14","-70.77","A","POB"
"2060","MA","North Scituate","Plymouth","25","23","42.22","-70.79","A","POB"
"2061","MA","Norwell","Plymouth","25","23","42.16","-70.83","A","GD"
"2062","MA","Norwood","Norfolk","25","21","42.19","-71.2","A","GD"
"2065","MA","Ocean Bluff","Plymouth","25","23","42.08","-70.67","A","POB"
"2066","MA","Scituate","Plymouth","25","23","42.2","-70.75","A","GD"
"2067","MA","Sharon","Norfolk","25","21","42.12","-71.18","A","GD"
"2070","MA","Sheldonville","Norfolk","25","21","42.03","-71.39","A","POB"
"2071","MA","South Walpole","Norfolk","25","21","42.1","-71.27","A","GD"
"2072","MA","Stoughton","Norfolk","25","21","42.13","-71.11","A","GD"
"2081","MA","Walpole","Norfolk","25","21","42.14","-71.25","A","GD"
"2090","MA","Westwood","Norfolk","25","21","42.22","-71.21","A","GD"
"2093","MA","Wrentham","Norfolk","25","21","42.06","-71.34","A","GD"
"2108","MA","Boston","Suffolk","25","25","42.36","-71.07","A","GD"
"2109","MA","Boston","Suffolk","25","25","42.36","-71.05","A","GD"
"2110","MA","Boston","Suffolk","25","25","42.36","-71.05","A","GD"
"2111","MA","Boston","Suffolk","25","25","42.35","-71.06","A","GD"
"2112","MA","Boston","Suffolk","25","25","42.36","-71.06","A","POB"
"2113","MA","Boston","Suffolk","25","25","42.37","-71.06","A","GD"
"2114","MA","Boston","Suffolk","25","25","42.36","-71.07","A","GD"
"2115","MA","Boston","Suffolk","25","25","42.34","-71.09","A","GD"
"2116","MA","Boston","Suffolk","25","25","42.35","-71.08","A","GD"
"2117","MA","Boston","Suffolk","25","25","42.34","-71.07","A","POB"
"2118","MA","Boston","Suffolk","25","25","42.34","-71.07","A","GD"
"2119","MA","Roxbury","Suffolk","25","25","42.32","-71.08","A","GD"
"2120","MA","Roxbury Crossing","Suffolk","25","25","42.33","-71.1","A","GD"
"2121","MA","Dorchester","Suffolk","25","25","42.31","-71.08","A","GD"
"2122","MA","Dorchester","Suffolk","25","25","42.3","-71.05","A","GD"
"2123","MA","Boston","Suffolk","25","25","42.35","-71.09","A","POB"
"2124","MA","Dorchester Center","Suffolk","25","25","42.29","-71.07","A","GD"
"2125","MA","Dorchester","Suffolk","25","25","42.32","-71.06","A","GD"
"2126","MA","Mattapan","Suffolk","25","25","42.27","-71.09","A","GD"
"2127","MA","Boston","Suffolk","25","25","42.33","-71.05","A","GD"
"2128","MA","Boston","Suffolk","25","25","42.38","-71.03","A","GD"
"2129","MA","Charlestown","Suffolk","25","25","42.38","-71.06","A","GD"
"2130","MA","Jamaica Plain","Suffolk","25","25","42.31","-71.11","A","GD"
"2131","MA","Roslindale","Suffolk","25","25","42.28","-71.13","A","GD"
"2132","MA","West Roxbury","Suffolk","25","25","42.28","-71.16","A","GD"
"2133","MA","Boston","Suffolk","25","25","42.36","-71.07","A","GD"
"2134","MA","Allston","Suffolk","25","25","42.36","-71.13","A","GD"
"2135","MA","Brighton","Suffolk","25","25","42.35","-71.15","A","GD"
"2136","MA","Hyde Park","Suffolk","25","25","42.25","-71.13","A","GD"
"2137","MA","Readville","Suffolk","25","25","42.24","-71.13","A","POB"
"2138","MA","Cambridge","Middlesex","25","17","42.38","-71.13","A","GD"
"2139","MA","Cambridge","Middlesex","25","17","42.36","-71.1","A","GD"
"2140","MA","Cambridge","Middlesex","25","17","42.39","-71.13","A","GD"
"2141","MA","Cambridge","Middlesex","25","17","42.37","-71.08","A","GD"
"2142","MA","Cambridge","Middlesex","25","17","42.36","-71.08","A","GD"
"2143","MA","Somerville","Middlesex","25","17","42.38","-71.1","A","GD"
"2144","MA","Somerville","Middlesex","25","17","42.4","-71.12","A","GD"
"2145","MA","Somerville","Middlesex","25","17","42.39","-71.09","A","GD"
"2148","MA","Malden","Middlesex","25","17","42.43","-71.06","A","GD"
"2149","MA","Everett","Middlesex","25","17","42.41","-71.05","A","GD"
"2150","MA","Chelsea","Suffolk","25","25","42.4","-71.03","A","GD"
"2151","MA","Revere","Suffolk","25","25","42.42","-71.01","A","GD"
"2152","MA","Winthrop","Suffolk","25","25","42.37","-70.98","A","GD"
"2153","MA","Medford","Middlesex","25","17","42.42","-71.11","A","POB"
"2155","MA","Medford","Middlesex","25","17","42.42","-71.11","A","GD"
"2156","MA","West Medford","Middlesex","25","17","42.42","-71.13","A","POB"
"2163","MA","Boston","Suffolk","25","25","42.37","-71.12","A","GD"
"2169","MA","Quincy","Norfolk","25","21","42.25","-71","A","GD"
"2170","MA","Quincy","Norfolk","25","21","42.27","-71.02","A","GD"
"2171","MA","Quincy","Norfolk","25","21","42.29","-71.02","A","GD"
"2176","MA","Melrose","Middlesex","25","17","42.46","-71.06","A","GD"
"2180","MA","Stoneham","Middlesex","25","17","42.48","-71.1","A","GD"
"2184","MA","Braintree","Norfolk","25","21","42.21","-71","A","GD"
"2185","MA","Braintree","Norfolk","25","21","42.2","-71","A","POB"
"2186","MA","Milton","Norfolk","25","21","42.25","-71.08","A","GD"
"2187","MA","Milton Village","Norfolk","25","21","42.26","-71.08","A","POB"
"2188","MA","Weymouth","Norfolk","25","21","42.21","-70.96","A","GD"
"2189","MA","East Weymouth","Norfolk","25","21","42.21","-70.93","A","GD"
"2190","MA","South Weymouth","Norfolk","25","21","42.17","-70.95","A","GD"
"2191","MA","North Weymouth","Norfolk","25","21","42.24","-70.94","A","GD"
"2196","MA","Boston","Suffolk","25","25","42.35","-71.06","A","POB"
"2199","MA","Boston","Suffolk","25","25","42.35","-71.08","A","GD"
"2201","MA","Boston","Suffolk","25","25","42.36","-71.06","A","PVT"
"2203","MA","Boston","Suffolk","25","25","42.36","-71.06","A","GD"
"2204","MA","Boston","Suffolk","25","25","42.4","-71.05","A","PVT"
"2205","MA","Boston","Suffolk","25","25","42.35","-71.06","A","POB"
"2206","MA","Boston","Suffolk","25","25","42.35","-71.04","A","PVT"
"2210","MA","Boston","Suffolk","25","25","42.35","-71.04","A","GD"
"2211","MA","Boston","Suffolk","25","25","42.36","-71.06","A","PVT"
"2212","MA","Boston","Suffolk","25","25","42.36","-71.06","A","PVT"
"2215","MA","Boston","Suffolk","25","25","42.35","-71.1","A","GD"
"2217","MA","Boston","Suffolk","25","25","42.35","-71.07","A","PVT"
"2222","MA","Boston","Suffolk","25","25","42.36","-71.07","A","GD"
"2228","MA","East Boston","Suffolk","25","25","42.36","-71.06","A","POB"
"2238","MA","Cambridge","Middlesex","25","17","42.38","-71.12","A","POB"
"2241","MA","Boston","Suffolk","25","25","42.35","-71.06","A","PVT"
"2266","MA","Boston","Suffolk","25","25","42.35","-71.06","A","PVT"
"2269","MA","Quincy","Norfolk","25","21","42.25","-71","A","POB"
"2283","MA","Boston","Suffolk","25","25","42.35","-71.06","A","POB"
"2284","MA","Boston","Suffolk","25","25","42.35","-71.06","A","POB"
"2293","MA","Boston","Suffolk","25","25","42.36","-71.06","A","PVT"
"2297","MA","Boston","Suffolk","25","25","42.36","-71.06","A","PVT"
"2298","MA","Boston","Suffolk","25","25","42.34","-71.05","A","POB"
"2301","MA","Brockton","Plymouth","25","23","42.08","-71.04","A","GD"
"2302","MA","Brockton","Plymouth","25","23","42.09","-71","A","GD"
"2303","MA","Brockton","Plymouth","25","23","42.08","-71.02","A","POB"
"2304","MA","Brockton","Plymouth","25","23","42.08","-71.03","A","POB"
"2305","MA","Brockton","Plymouth","25","23","42.08","-71.03","A","POB"
"2322","MA","Avon","Norfolk","25","21","42.12","-71.05","A","GD"
"2324","MA","Bridgewater","Plymouth","25","23","41.98","-70.97","A","GD"
"2325","MA","Bridgewater","Plymouth","25","23","41.99","-70.97","A","PVT"
"2327","MA","Bryantville","Plymouth","25","23","42.04","-70.83","A","POB"
"2330","MA","Carver","Plymouth","25","23","41.87","-70.76","A","GD"
"2331","MA","Duxbury","Plymouth","25","23","42.03","-70.69","A","POB"
"2332","MA","Duxbury","Plymouth","25","23","42.03","-70.7","A","GD"
"2333","MA","East Bridgewater","Plymouth","25","23","42.04","-70.95","A","GD"
"2334","MA","Easton","Bristol","25","5","42.02","-71.13","A","POB"
"2337","MA","Elmwood","Plymouth","25","23","42.01","-70.96","A","POB"
"2338","MA","Halifax","Plymouth","25","23","41.99","-70.86","A","GD"
"2339","MA","Hanover","Plymouth","25","23","42.12","-70.86","A","GD"
"2340","MA","Hanover","Plymouth","25","23","42.11","-70.81","A","PVT"
"2341","MA","Hanson","Plymouth","25","23","42.06","-70.87","A","GD"
"2343","MA","Holbrook","Norfolk","25","21","42.15","-71.01","A","GD"
"2344","MA","Middleboro","Plymouth","25","23","41.89","-70.92","A","PVT"
"2345","MA","Manomet","Plymouth","25","23","41.9","-70.55","A","POB"
"2346","MA","Middleboro","Plymouth","25","23","41.89","-70.89","A","GD"
"2347","MA","Lakeville","Plymouth","25","23","41.83","-70.96","A","GD"
"2348","MA","Lakeville","Plymouth","25","23","41.88","-70.94","A","PVT"
"2349","MA","Middleboro","Plymouth","25","23","41.87","-70.91","A","PVT"
"2350","MA","Monponsett","Plymouth","25","23","42.02","-70.85","A","POB"
"2351","MA","Abington","Plymouth","25","23","42.12","-70.95","A","GD"
"2355","MA","North Carver","Plymouth","25","23","41.92","-70.8","A","POB"
"2356","MA","North Easton","Bristol","25","5","42.06","-71.12","A","GD"
"2357","MA","North Easton","Bristol","25","5","42.06","-71.08","A","PVT"
"2358","MA","North Pembroke","Plymouth","25","23","42.09","-70.79","A","POB"
"2359","MA","Pembroke","Plymouth","25","23","42.06","-70.81","A","GD"
"2360","MA","Plymouth","Plymouth","25","23","41.9","-70.63","A","GD"
"2361","MA","Plymouth","Plymouth","25","23","41.92","-70.66","A","POB"
"2362","MA","Plymouth","Plymouth","25","23","41.96","-70.66","A","POB"
"2364","MA","Kingston","Plymouth","25","23","41.99","-70.74","A","GD"
"2366","MA","South Carver","Plymouth","25","23","41.85","-70.66","A","POB"
"2367","MA","Plympton","Plymouth","25","23","41.97","-70.81","A","GD"
"2368","MA","Randolph","Norfolk","25","21","42.17","-71.05","A","GD"
"2370","MA","Rockland","Plymouth","25","23","42.13","-70.91","A","GD"
"2375","MA","South Easton","Bristol","25","5","42.03","-71.1","A","GD"
"2379","MA","West Bridgewater","Plymouth","25","23","42.02","-71.02","A","GD"
"2381","MA","White Horse Beach","Plymouth","25","23","41.93","-70.56","A","POB"
"2382","MA","Whitman","Plymouth","25","23","42.08","-70.94","A","GD"
"2420","MA","Lexington","Middlesex","25","17","42.46","-71.22","A","GD"
"2421","MA","Lexington","Middlesex","25","17","42.44","-71.24","A","GD"
"2445","MA","Brookline","Norfolk","25","21","42.33","-71.13","A","GD"
"2446","MA","Brookline","Norfolk","25","21","42.34","-71.12","A","GD"
"2447","MA","Brookline Village","Norfolk","25","21","42.33","-71.12","A","POB"
"2451","MA","Waltham","Middlesex","25","17","42.39","-71.25","A","GD"
"2452","MA","Waltham","Middlesex","25","17","42.39","-71.22","A","GD"
"2453","MA","Waltham","Middlesex","25","17","42.37","-71.24","A","GD"
"2454","MA","Waltham","Middlesex","25","17","42.38","-71.24","A","POB"
"2455","MA","North Waltham","Middlesex","25","17","42.42","-71.25","A","POB"
"2456","MA","New Town","Middlesex","25","17","42.33","-71.21","A","POB"
"2457","MA","Babson Park","Norfolk","25","21","42.3","-71.27","A","POB"
"2458","MA","Newton","Middlesex","25","17","42.35","-71.19","A","GD"
"2459","MA","Newton Center","Middlesex","25","17","42.32","-71.19","A","GD"
"2460","MA","Newtonville","Middlesex","25","17","42.35","-71.21","A","GD"
"2461","MA","Newton Highlands","Middlesex","25","17","42.32","-71.21","A","GD"
"2462","MA","Newton Lower Falls","Middlesex","25","17","42.33","-71.26","A","GD"
"2464","MA","Newton Upper Falls","Middlesex","25","17","42.31","-71.22","A","GD"
"2465","MA","West Newton","Middlesex","25","17","42.35","-71.23","A","GD"
"2466","MA","Auburndale","Middlesex","25","17","42.34","-71.25","A","GD"
"2467","MA","Chestnut Hill","Middlesex","25","17","42.32","-71.16","A","GD"
"2468","MA","Waban","Middlesex","25","17","42.33","-71.23","A","GD"
"2471","MA","Watertown","Middlesex","25","17","42.37","-71.18","A","POB"
"2472","MA","Watertown","Middlesex","25","17","42.37","-71.18","A","GD"
"2474","MA","Arlington","Middlesex","25","17","42.42","-71.15","A","GD"
"2475","MA","Arlington Heights","Middlesex","25","17","42.41","-71.14","A","POB"
"2476","MA","Arlington","Middlesex","25","17","42.42","-71.18","A","GD"
"2477","MA","Watertown","Middlesex","25","17","42.37","-71.15","A","PVT"
"2478","MA","Belmont","Middlesex","25","17","42.39","-71.17","A","GD"
"2479","MA","Waverley","Middlesex","25","17","42.39","-71.19","A","POB"
"2481","MA","Wellesley Hills","Norfolk","25","21","42.31","-71.27","A","GD"
"2482","MA","Wellesley","Norfolk","25","21","42.3","-71.3","A","GD"
"2492","MA","Needham","Norfolk","25","21","42.28","-71.23","A","GD"
"2493","MA","Weston","Middlesex","25","17","42.36","-71.29","A","GD"
"2494","MA","Needham Heights","Norfolk","25","21","42.3","-71.23","A","GD"
"2495","MA","Nonantum","Middlesex","25","17","42.33","-71.21","A","POB"
"2532","MA","Buzzards Bay","Barnstable","25","1","41.75","-70.6","A","GD"
"2534","MA","Cataumet","Barnstable","25","1","41.66","-70.61","A","POB"
"2535","MA","Chilmark","Dukes","25","7","41.35","-70.75","A","GD"
"2536","MA","East Falmouth","Barnstable","25","1","41.58","-70.56","A","GD"
"2537","MA","East Sandwich","Barnstable","25","1","41.73","-70.44","A","GD"
"2538","MA","East Wareham","Plymouth","25","23","41.78","-70.65","A","GD"
"2539","MA","Edgartown","Dukes","25","7","41.38","-70.53","A","GD"
"2540","MA","Falmouth","Barnstable","25","1","41.56","-70.62","A","GD"
"2541","MA","Falmouth","Barnstable","25","1","41.55","-70.63","A","POB"
"2542","MA","Buzzards Bay","Barnstable","25","1","41.69","-70.55","A","GD"
"2543","MA","Woods Hole","Barnstable","25","1","41.51","-70.71","A","GD"
"2552","MA","Menemsha","Dukes","25","7","41.35","-70.74","A","POB"
"2553","MA","Monument Beach","Barnstable","25","1","41.71","-70.61","A","POB"
"2554","MA","Nantucket","Nantucket","25","19","41.28","-70.1","A","GD"
"2556","MA","North Falmouth","Barnstable","25","1","41.64","-70.63","A","GD"
"2557","MA","Oak Bluffs","Dukes","25","7","41.45","-70.57","A","POB"
"2558","MA","Onset","Plymouth","25","23","41.74","-70.66","A","POB"
"2559","MA","Pocasset","Barnstable","25","1","41.69","-70.61","A","GD"
"2561","MA","Sagamore","Barnstable","25","1","41.77","-70.53","A","POB"
"2562","MA","Sagamore Beach","Barnstable","25","1","41.79","-70.53","A","GD"
"2563","MA","Sandwich","Barnstable","25","1","41.73","-70.49","A","GD"
"2564","MA","Siasconset","Nantucket","25","19","41.26","-69.99","A","POB"
"2568","MA","Vineyard Haven","Dukes","25","7","41.45","-70.61","A","GD"
"2571","MA","Wareham","Plymouth","25","23","41.76","-70.71","A","GD"
"2574","MA","West Falmouth","Barnstable","25","1","41.6","-70.64","A","POB"
"2575","MA","West Tisbury","Dukes","25","7","41.4","-70.65","A","POB"
"2576","MA","West Wareham","Plymouth","25","23","41.77","-70.76","A","GD"
"2584","MA","Nantucket","Nantucket","25","19","41.26","-70.01","A","POB"
"2601","MA","Hyannis","Barnstable","25","1","41.66","-70.3","A","GD"
"2630","MA","Barnstable","Barnstable","25","1","41.7","-70.3","A","GD"
"2631","MA","Brewster","Barnstable","25","1","41.75","-70.07","A","GD"
"2632","MA","Centerville","Barnstable","25","1","41.66","-70.35","A","GD"
"2633","MA","Chatham","Barnstable","25","1","41.69","-69.98","A","GD"
"2634","MA","Centerville","Barnstable","25","1","41.66","-70.35","A","POB"
"2635","MA","Cotuit","Barnstable","25","1","41.63","-70.44","A","GD"
"2637","MA","Cummaquid","Barnstable","25","1","41.71","-70.27","A","POB"
"2638","MA","Dennis","Barnstable","25","1","41.73","-70.19","A","GD"
"2639","MA","Dennis Port","Barnstable","25","1","41.66","-70.14","A","GD"
"2641","MA","East Dennis","Barnstable","25","1","41.75","-70.15","A","POB"
"2642","MA","Eastham","Barnstable","25","1","41.84","-69.98","A","GD"
"2643","MA","East Orleans","Barnstable","25","1","41.77","-69.93","A","POB"
"2644","MA","Forestdale","Barnstable","25","1","41.68","-70.51","A","GD"
"2645","MA","Harwich","Barnstable","25","1","41.71","-70.06","A","GD"
"2646","MA","Harwich Port","Barnstable","25","1","41.67","-70.07","A","GD"
"2647","MA","Hyannis Port","Barnstable","25","1","41.63","-70.3","A","POB"
"2648","MA","Marstons Mills","Barnstable","25","1","41.67","-70.42","A","GD"
"2649","MA","Mashpee","Barnstable","25","1","41.61","-70.49","A","GD"
"2650","MA","North Chatham","Barnstable","25","1","41.71","-69.96","A","GD"
"2651","MA","North Eastham","Barnstable","25","1","41.87","-70.01","A","POB"
"2652","MA","North Truro","Barnstable","25","1","42.04","-70.09","A","POB"
"2653","MA","Orleans","Barnstable","25","1","41.78","-69.98","A","GD"
"2655","MA","Osterville","Barnstable","25","1","41.63","-70.39","A","GD"
"2657","MA","Provincetown","Barnstable","25","1","42.05","-70.19","A","GD"
"2659","MA","South Chatham","Barnstable","25","1","41.68","-70.02","A","GD"
"2660","MA","South Dennis","Barnstable","25","1","41.7","-70.15","A","GD"
"2661","MA","South Harwich","Barnstable","25","1","41.68","-70.04","A","POB"
"2662","MA","South Orleans","Barnstable","25","1","41.75","-69.99","A","POB"
"2663","MA","South Wellfleet","Barnstable","25","1","41.9","-70","A","POB"
"2664","MA","South Yarmouth","Barnstable","25","1","41.67","-70.2","A","GD"
"2666","MA","Truro","Barnstable","25","1","41.99","-70.05","A","POB"
"2667","MA","Wellfleet","Barnstable","25","1","41.93","-70.02","A","GD"
"2668","MA","West Barnstable","Barnstable","25","1","41.7","-70.36","A","GD"
"2669","MA","West Chatham","Barnstable","25","1","41.68","-70","A","POB"
"2670","MA","West Dennis","Barnstable","25","1","41.66","-70.17","A","GD"
"2671","MA","West Harwich","Barnstable","25","1","41.67","-70.11","A","GD"
"2672","MA","West Hyannisport","Barnstable","25","1","41.64","-70.32","A","POB"
"2673","MA","West Yarmouth","Barnstable","25","1","41.66","-70.24","A","GD"
"2675","MA","Yarmouth Port","Barnstable","25","1","41.7","-70.23","A","GD"
"2702","MA","Assonet","Bristol","25","5","41.79","-71.07","A","GD"
"2703","MA","Attleboro","Bristol","25","5","41.93","-71.31","A","GD"
"2712","MA","Chartley","Bristol","25","5","41.97","-71.24","A","POB"
"2713","MA","Cuttyhunk","Dukes","25","7","41.43","-70.9","A","POB"
"2714","MA","Dartmouth","Bristol","25","5","41.57","-71.01","A","POB"
"2715","MA","Dighton","Bristol","25","5","41.82","-71.13","A","GD"
"2717","MA","East Freetown","Bristol","25","5","41.77","-70.96","A","GD"
"2718","MA","East Taunton","Bristol","25","5","41.88","-71.02","A","GD"
"2719","MA","Fairhaven","Bristol","25","5","41.63","-70.88","A","GD"
"2720","MA","Fall River","Bristol","25","5","41.72","-71.14","A","GD"
"2721","MA","Fall River","Bristol","25","5","41.68","-71.15","A","GD"
"2722","MA","Fall River","Bristol","25","5","41.7","-71.16","A","POB"
"2723","MA","Fall River","Bristol","25","5","41.69","-71.13","A","GD"
"2724","MA","Fall River","Bristol","25","5","41.68","-71.17","A","GD"
"2725","MA","Somerset","Bristol","25","5","41.72","-71.18","A","GD"
"2726","MA","Somerset","Bristol","25","5","41.75","-71.15","A","GD"
"2738","MA","Marion","Plymouth","25","23","41.71","-70.75","A","GD"
"2739","MA","Mattapoisett","Plymouth","25","23","41.66","-70.81","A","GD"
"2740","MA","New Bedford","Bristol","25","5","41.63","-70.94","A","GD"
"2741","MA","New Bedford","Bristol","25","5","41.64","-70.94","A","POB"
"2742","MA","New Bedford","Bristol","25","5","41.64","-70.93","A","POB"
"2743","MA","Acushnet","Bristol","25","5","41.7","-70.9","A","GD"
"2744","MA","New Bedford","Bristol","25","5","41.61","-70.91","A","GD"
"2745","MA","New Bedford","Bristol","25","5","41.69","-70.94","A","GD"
"2746","MA","New Bedford","Bristol","25","5","41.66","-70.93","A","GD"
"2747","MA","North Dartmouth","Bristol","25","5","41.65","-70.99","A","GD"
"2748","MA","South Dartmouth","Bristol","25","5","41.58","-70.96","A","GD"
"2760","MA","North Attleboro","Bristol","25","5","41.97","-71.33","A","GD"
"2761","MA","North Attleboro","Bristol","25","5","41.98","-71.33","A","POB"
"2762","MA","Plainville","Norfolk","25","21","42.02","-71.32","A","GD"
"2763","MA","Attleboro Falls","Bristol","25","5","41.97","-71.31","A","GD"
"2764","MA","North Dighton","Bristol","25","5","41.85","-71.15","A","GD"
"2766","MA","Norton","Bristol","25","5","41.97","-71.18","A","GD"
"2767","MA","Raynham","Bristol","25","5","41.93","-71.04","A","GD"
"2768","MA","Raynham Center","Bristol","25","5","41.93","-71.04","A","POB"
"2769","MA","Rehoboth","Bristol","25","5","41.84","-71.26","A","GD"
"2770","MA","Rochester","Plymouth","25","23","41.76","-70.84","A","GD"
"2771","MA","Seekonk","Bristol","25","5","41.84","-71.33","A","GD"
"2777","MA","Swansea","Bristol","25","5","41.75","-71.21","A","GD"
"2779","MA","Berkley","Bristol","25","5","41.83","-71.08","A","GD"
"2780","MA","Taunton","Bristol","25","5","41.91","-71.1","A","GD"
"2783","MA","Taunton","Bristol","25","5","41.95","-71.13","A","PVT"
"2790","MA","Westport","Bristol","25","5","41.6","-71.08","A","GD"
"2791","MA","Westport Point","Bristol","25","5","41.52","-71.07","A","POB"
"5501","MA","Andover","Essex","25","9","42.65","-71.18","A","PVT"
"5544","MA","Andover","Essex","25","9","42.65","-71.18","A","PVT"
