"ZIPCode","State","City","County","StateFIPS","CountyFIPS","Latitude","Longitude","Preference","Type"
"20588","MD","Dhs","Howard","24","27","38.88","-77.02","A","PVT"
"20601","MD","Waldorf","Charles","24","17","38.62","-76.87","A","GD"
"20602","MD","Waldorf","Charles","24","17","38.59","-76.9","A","GD"
"20603","MD","Waldorf","Charles","24","17","38.63","-76.96","A","GD"
"20604","MD","Waldorf","Charles","24","17","38.62","-76.89","A","POB"
"20606","MD","Abell","Saint Marys","24","37","38.25","-76.74","A","GD"
"20607","MD","Accokeek","Prince Georges","24","33","38.67","-77.01","A","GD"
"20608","MD","Aquasco","Prince Georges","24","33","38.57","-76.7","A","GD"
"20609","MD","Avenue","Saint Marys","24","37","38.26","-76.76","A","GD"
"20610","MD","Barstow","Calvert","24","9","38.53","-76.61","A","POB"
"20611","MD","Bel Alton","Charles","24","17","38.46","-76.99","A","GD"
"20612","MD","Benedict","Charles","24","17","38.51","-76.68","A","POB"
"20613","MD","Brandywine","Prince Georges","24","33","38.67","-76.81","A","GD"
"20615","MD","Broomes Island","Calvert","24","9","38.42","-76.55","A","GD"
"20616","MD","Bryans Road","Charles","24","17","38.64","-77.07","A","GD"
"20617","MD","Bryantown","Charles","24","17","38.54","-76.84","A","GD"
"20618","MD","Bushwood","Saint Marys","24","37","38.27","-76.8","A","GD"
"20619","MD","California","Saint Marys","24","37","38.3","-76.52","A","GD"
"20620","MD","Callaway","Saint Marys","24","37","38.23","-76.52","A","GD"
"20621","MD","Chaptico","Saint Marys","24","37","38.31","-76.81","A","GD"
"20622","MD","Charlotte Hall","Charles","24","17","38.46","-76.84","A","GD"
"20623","MD","Cheltenham","Prince Georges","24","33","38.74","-76.83","A","GD"
"20624","MD","Clements","Saint Marys","24","37","38.33","-76.73","A","GD"
"20625","MD","Cobb Island","Charles","24","17","38.26","-76.85","A","POB"
"20626","MD","Coltons Point","Saint Marys","24","37","38.23","-76.76","A","GD"
"20627","MD","Compton","Saint Marys","24","37","38.31","-76.63","A","POB"
"20628","MD","Dameron","Saint Marys","24","37","38.14","-76.34","A","GD"
"20629","MD","Dowell","Calvert","24","9","38.33","-76.45","A","POB"
"20630","MD","Drayden","Saint Marys","24","37","38.16","-76.48","A","GD"
"20632","MD","Faulkner","Charles","24","17","38.42","-76.96","A","GD"
"20634","MD","Great Mills","Saint Marys","24","37","38.26","-76.49","A","GD"
"20635","MD","Helen","Saint Marys","24","37","38.33","-76.79","A","POB"
"20636","MD","Hollywood","Saint Marys","24","37","38.34","-76.56","A","GD"
"20637","MD","Hughesville","Charles","24","17","38.53","-76.78","A","GD"
"20639","MD","Huntingtown","Calvert","24","9","38.6","-76.61","A","GD"
"20640","MD","Indian Head","Charles","24","17","38.58","-77.17","A","GD"
"20643","MD","Ironsides","Charles","24","17","38.49","-77.16","A","POB"
"20645","MD","Issue","Charles","24","17","38.3","-76.91","A","GD"
"20646","MD","La Plata","Charles","24","17","38.53","-76.99","A","GD"
"20650","MD","Leonardtown","Saint Marys","24","37","38.27","-76.65","A","GD"
"20653","MD","Lexington Park","Saint Marys","24","37","38.25","-76.45","A","GD"
"20656","MD","Loveville","Saint Marys","24","37","38.35","-76.68","A","GD"
"20657","MD","Lusby","Calvert","24","9","38.38","-76.44","A","GD"
"20658","MD","Marbury","Charles","24","17","38.57","-77.16","A","GD"
"20659","MD","Mechanicsville","Saint Marys","24","37","38.43","-76.73","A","GD"
"20660","MD","Morganza","Saint Marys","24","37","38.37","-76.7","A","POB"
"20661","MD","Mount Victoria","Charles","24","17","38.36","-76.9","A","POB"
"20662","MD","Nanjemoy","Charles","24","17","38.44","-77.2","A","GD"
"20664","MD","Newburg","Charles","24","17","38.35","-76.93","A","GD"
"20667","MD","Park Hall","Saint Marys","24","37","38.22","-76.44","A","GD"
"20670","MD","Patuxent River","Saint Marys","24","37","38.28","-76.43","A","GD"
"20674","MD","Piney Point","Saint Marys","24","37","38.13","-76.5","A","GD"
"20675","MD","Pomfret","Charles","24","17","38.58","-77.03","A","GD"
"20676","MD","Port Republic","Calvert","24","9","38.49","-76.54","A","GD"
"20677","MD","Port Tobacco","Charles","24","17","38.51","-77.04","A","GD"
"20678","MD","Prince Frederick","Calvert","24","9","38.53","-76.6","A","GD"
"20680","MD","Ridge","Saint Marys","24","37","38.11","-76.38","A","GD"
"20682","MD","Rock Point","Charles","24","17","38.35","-76.92","A","POB"
"20684","MD","Saint Inigoes","Saint Marys","24","37","38.15","-76.42","A","GD"
"20685","MD","Saint Leonard","Calvert","24","9","38.44","-76.51","A","GD"
"20686","MD","Saint Marys City","Saint Marys","24","37","38.18","-76.43","A","POB"
"20687","MD","Scotland","Saint Marys","24","37","38.07","-76.34","A","GD"
"20688","MD","Solomons","Calvert","24","9","38.34","-76.46","A","GD"
"20689","MD","Sunderland","Calvert","24","9","38.67","-76.58","A","GD"
"20690","MD","Tall Timbers","Saint Marys","24","37","38.17","-76.53","A","GD"
"20692","MD","Valley Lee","Saint Marys","24","37","38.18","-76.51","A","GD"
"20693","MD","Welcome","Charles","24","17","38.46","-77.09","A","GD"
"20695","MD","White Plains","Charles","24","17","38.59","-76.97","A","GD"
"20697","MD","Southern Md Facility","Prince Georges","24","33","39.03","-76.91","A","PVT"
"20701","MD","Annapolis Junction","Howard","24","27","39.13","-76.79","A","GD"
"20703","MD","Lanham","Prince Georges","24","33","38.98","-76.84","A","POB"
"20704","MD","Beltsville","Prince Georges","24","33","39.04","-76.91","A","POB"
"20705","MD","Beltsville","Prince Georges","24","33","39.05","-76.91","A","GD"
"20706","MD","Lanham","Prince Georges","24","33","38.96","-76.85","A","GD"
"20707","MD","Laurel","Prince Georges","24","33","39.1","-76.87","A","GD"
"20708","MD","Laurel","Prince Georges","24","33","39.06","-76.84","A","GD"
"20709","MD","Laurel","Prince Georges","24","33","39.07","-76.84","A","POB"
"20710","MD","Bladensburg","Prince Georges","24","33","38.94","-76.93","A","GD"
"20711","MD","Lothian","Anne Arundel","24","3","38.79","-76.67","A","GD"
"20712","MD","Mount Rainier","Prince Georges","24","33","38.94","-76.96","A","GD"
"20714","MD","North Beach","Calvert","24","9","38.71","-76.54","A","GD"
"20715","MD","Bowie","Prince Georges","24","33","38.98","-76.74","A","GD"
"20716","MD","Bowie","Prince Georges","24","33","38.93","-76.72","A","GD"
"20717","MD","Bowie","Prince Georges","24","33","39.01","-76.78","A","POB"
"20718","MD","Bowie","Prince Georges","24","33","38.98","-76.76","A","POB"
"20719","MD","Bowie","Prince Georges","24","33","38.96","-76.74","A","POB"
"20720","MD","Bowie","Prince Georges","24","33","38.98","-76.79","A","GD"
"20721","MD","Bowie","Prince Georges","24","33","38.92","-76.8","A","GD"
"20722","MD","Brentwood","Prince Georges","24","33","38.94","-76.95","A","GD"
"20723","MD","Laurel","Howard","24","27","39.14","-76.86","A","GD"
"20724","MD","Laurel","Anne Arundel","24","3","39.1","-76.81","A","GD"
"20725","MD","Laurel","Prince Georges","24","33","39.1","-76.84","A","POB"
"20726","MD","Laurel","Prince Georges","24","33","39.09","-76.85","A","POB"
"20731","MD","Capitol Heights","Prince Georges","24","33","38.88","-76.91","A","POB"
"20732","MD","Chesapeake Beach","Calvert","24","9","38.67","-76.54","A","GD"
"20733","MD","Churchton","Anne Arundel","24","3","38.8","-76.52","A","GD"
"20735","MD","Clinton","Prince Georges","24","33","38.75","-76.9","A","GD"
"20736","MD","Owings","Calvert","24","9","38.69","-76.62","A","GD"
"20737","MD","Riverdale","Prince Georges","24","33","38.96","-76.92","A","GD"
"20738","MD","Riverdale","Prince Georges","24","33","38.96","-76.93","A","POB"
"20740","MD","College Park","Prince Georges","24","33","39","-76.93","A","GD"
"20741","MD","College Park","Prince Georges","24","33","39","-76.93","A","POB"
"20742","MD","College Park","Prince Georges","24","33","38.99","-76.95","A","PVT"
"20743","MD","Capitol Heights","Prince Georges","24","33","38.89","-76.9","A","GD"
"20744","MD","Fort Washington","Prince Georges","24","33","38.76","-76.98","A","GD"
"20745","MD","Oxon Hill","Prince Georges","24","33","38.81","-76.99","A","GD"
"20746","MD","Suitland","Prince Georges","24","33","38.84","-76.92","A","GD"
"20747","MD","District Heights","Prince Georges","24","33","38.85","-76.89","A","GD"
"20748","MD","Temple Hills","Prince Georges","24","33","38.82","-76.94","A","GD"
"20749","MD","Fort Washington","Prince Georges","24","33","38.74","-77","A","POB"
"20750","MD","Oxon Hill","Prince Georges","24","33","38.8","-76.99","A","POB"
"20751","MD","Deale","Anne Arundel","24","3","38.78","-76.55","A","GD"
"20752","MD","Suitland","Prince Georges","24","33","38.85","-76.92","A","POB"
"20753","MD","District Heights","Prince Georges","24","33","38.86","-76.89","A","POB"
"20754","MD","Dunkirk","Calvert","24","9","38.74","-76.65","A","GD"
"20755","MD","Fort George G Meade","Anne Arundel","24","3","39.11","-76.74","A","GD"
"20757","MD","Temple Hills","Prince Georges","24","33","38.81","-76.95","A","POB"
"20758","MD","Friendship","Anne Arundel","24","3","38.73","-76.59","A","GD"
"20759","MD","Fulton","Howard","24","27","39.16","-76.92","A","GD"
"20762","MD","Andrews Air Force Base","Prince Georges","24","33","38.81","-76.88","A","GD"
"20763","MD","Savage","Howard","24","27","39.13","-76.82","A","GD"
"20764","MD","Shady Side","Anne Arundel","24","3","38.84","-76.51","A","GD"
"20765","MD","Galesville","Anne Arundel","24","3","38.84","-76.54","A","POB"
"20768","MD","Greenbelt","Prince Georges","24","33","39","-76.88","A","POB"
"20769","MD","Glenn Dale","Prince Georges","24","33","38.99","-76.81","A","GD"
"20770","MD","Greenbelt","Prince Georges","24","33","39","-76.88","A","GD"
"20771","MD","Greenbelt","Prince Georges","24","33","39.01","-76.87","A","PVT"
"20772","MD","Upper Marlboro","Prince Georges","24","33","38.79","-76.78","A","GD"
"20773","MD","Upper Marlboro","Prince Georges","24","33","38.82","-76.75","A","POB"
"20774","MD","Upper Marlboro","Prince Georges","24","33","38.89","-76.8","A","GD"
"20775","MD","Upper Marlboro","Prince Georges","24","33","38.78","-76.77","A","POB"
"20776","MD","Harwood","Anne Arundel","24","3","38.88","-76.59","A","GD"
"20777","MD","Highland","Howard","24","27","39.18","-76.97","A","GD"
"20778","MD","West River","Anne Arundel","24","3","38.83","-76.56","A","GD"
"20779","MD","Tracys Landing","Anne Arundel","24","3","38.77","-76.57","A","GD"
"20781","MD","Hyattsville","Prince Georges","24","33","38.95","-76.93","A","GD"
"20782","MD","Hyattsville","Prince Georges","24","33","38.96","-76.96","A","GD"
"20783","MD","Hyattsville","Prince Georges","24","33","38.99","-76.97","A","GD"
"20784","MD","Hyattsville","Prince Georges","24","33","38.95","-76.89","A","GD"
"20785","MD","Hyattsville","Prince Georges","24","33","38.92","-76.89","A","GD"
"20787","MD","Hyattsville","Prince Georges","24","33","39","-76.97","A","POB"
"20788","MD","Hyattsville","Prince Georges","24","33","38.96","-76.97","A","POB"
"20790","MD","Capitol Heights","Prince Georges","24","33","38.85","-76.93","A","PVT"
"20791","MD","Capitol Heights","Prince Georges","24","33","38.82","-76.94","A","POB"
"20792","MD","Upper Marlboro","Prince Georges","24","33","38.82","-76.75","A","POB"
"20794","MD","Jessup","Howard","24","27","39.15","-76.79","A","GD"
"20797","MD","Southern Md Facility","Prince Georges","24","33","38.89","-76.91","A","PVT"
"20799","MD","Capitol Heights","Prince Georges","24","33","38.88","-76.85","A","PVT"
"20810","MD","Bethesda","Montgomery","24","31","38.98","-77.1","A","PVT"
"20811","MD","Bethesda","Montgomery","24","31","38.98","-77.1","A","PVT"
"20812","MD","Glen Echo","Montgomery","24","31","38.97","-77.14","A","GD"
"20813","MD","Bethesda","Montgomery","24","31","38.98","-77.08","A","POB"
"20814","MD","Bethesda","Montgomery","24","31","39","-77.1","A","GD"
"20815","MD","Chevy Chase","Montgomery","24","31","38.98","-77.08","A","GD"
"20816","MD","Bethesda","Montgomery","24","31","38.96","-77.11","A","GD"
"20817","MD","Bethesda","Montgomery","24","31","39","-77.14","A","GD"
"20818","MD","Cabin John","Montgomery","24","31","38.97","-77.16","A","GD"
"20824","MD","Bethesda","Montgomery","24","31","38.98","-77.09","A","POB"
"20825","MD","Chevy Chase","Montgomery","24","31","38.99","-77.07","A","POB"
"20827","MD","Bethesda","Montgomery","24","31","39.01","-77.16","A","POB"
"20830","MD","Olney","Montgomery","24","31","39.16","-77.07","A","POB"
"20832","MD","Olney","Montgomery","24","31","39.15","-77.07","A","GD"
"20833","MD","Brookeville","Montgomery","24","31","39.18","-77.05","A","GD"
"20837","MD","Poolesville","Montgomery","24","31","39.13","-77.41","A","GD"
"20838","MD","Barnesville","Montgomery","24","31","39.22","-77.38","A","GD"
"20839","MD","Beallsville","Montgomery","24","31","39.19","-77.42","A","GD"
"20841","MD","Boyds","Montgomery","24","31","39.18","-77.31","A","GD"
"20842","MD","Dickerson","Montgomery","24","31","39.22","-77.43","A","GD"
"20847","MD","Rockville","Montgomery","24","31","39.08","-77.15","A","POB"
"20848","MD","Rockville","Montgomery","24","31","39.08","-77.12","A","POB"
"20849","MD","Rockville","Montgomery","24","31","39.08","-77.15","A","POB"
"20850","MD","Rockville","Montgomery","24","31","39.09","-77.17","A","GD"
"20851","MD","Rockville","Montgomery","24","31","39.08","-77.12","A","GD"
"20852","MD","Rockville","Montgomery","24","31","39.05","-77.12","A","GD"
"20853","MD","Rockville","Montgomery","24","31","39.09","-77.09","A","GD"
"20854","MD","Potomac","Montgomery","24","31","39.04","-77.2","A","GD"
"20855","MD","Derwood","Montgomery","24","31","39.13","-77.14","A","GD"
"20857","MD","Rockville","Montgomery","24","31","39.08","-77.15","A","PVT"
"20859","MD","Potomac","Montgomery","24","31","39.03","-77.2","A","POB"
"20860","MD","Sandy Spring","Montgomery","24","31","39.14","-77.03","A","GD"
"20861","MD","Ashton","Montgomery","24","31","39.15","-76.99","A","GD"
"20862","MD","Brinklow","Montgomery","24","31","39.18","-77.02","A","GD"
"20866","MD","Burtonsville","Montgomery","24","31","39.1","-76.93","A","GD"
"20868","MD","Spencerville","Montgomery","24","31","39.12","-76.98","A","GD"
"20871","MD","Clarksburg","Montgomery","24","31","39.25","-77.27","A","GD"
"20872","MD","Damascus","Montgomery","24","31","39.28","-77.23","A","GD"
"20874","MD","Germantown","Montgomery","24","31","39.16","-77.28","A","GD"
"20875","MD","Germantown","Montgomery","24","31","39.18","-77.26","A","POB"
"20876","MD","Germantown","Montgomery","24","31","39.2","-77.24","A","GD"
"20877","MD","Gaithersburg","Montgomery","24","31","39.14","-77.19","A","GD"
"20878","MD","Gaithersburg","Montgomery","24","31","39.12","-77.24","A","GD"
"20879","MD","Gaithersburg","Montgomery","24","31","39.17","-77.18","A","GD"
"20880","MD","Washington Grove","Montgomery","24","31","39.14","-77.17","A","POB"
"20882","MD","Gaithersburg","Montgomery","24","31","39.22","-77.16","A","GD"
"20883","MD","Gaithersburg","Montgomery","24","31","39.14","-77.23","A","POB"
"20884","MD","Gaithersburg","Montgomery","24","31","39.14","-77.19","A","POB"
"20885","MD","Gaithersburg","Montgomery","24","31","39.14","-77.23","A","POB"
"20886","MD","Montgomery Village","Montgomery","24","31","39.18","-77.19","A","GD"
"20889","MD","Bethesda","Montgomery","24","31","39.01","-77.1","A","PVT"
"20891","MD","Kensington","Montgomery","24","31","39.03","-77.07","A","POB"
"20892","MD","Bethesda","Montgomery","24","31","39.01","-77.1","A","PVT"
"20894","MD","Bethesda","Montgomery","24","31","39","-77.1","A","PVT"
"20895","MD","Kensington","Montgomery","24","31","39.03","-77.08","A","GD"
"20896","MD","Garrett Park","Montgomery","24","31","39.04","-77.09","A","POB"
"20897","MD","Suburb Maryland Fac","Montgomery","24","31","39.09","-77.06","A","PVT"
"20898","MD","Gaithersburg","Montgomery","24","31","39.14","-77.2","A","POB"
"20899","MD","Gaithersburg","Montgomery","24","31","39.14","-77.22","A","PVT"
"20901","MD","Silver Spring","Montgomery","24","31","39.02","-77.01","A","GD"
"20902","MD","Silver Spring","Montgomery","24","31","39.04","-77.05","A","GD"
"20903","MD","Silver Spring","Montgomery","24","31","39.01","-76.98","A","GD"
"20904","MD","Silver Spring","Montgomery","24","31","39.07","-76.97","A","GD"
"20905","MD","Silver Spring","Montgomery","24","31","39.1","-76.99","A","GD"
"20906","MD","Silver Spring","Montgomery","24","31","39.08","-77.06","A","GD"
"20907","MD","Silver Spring","Montgomery","24","31","39","-77.03","A","POB"
"20908","MD","Silver Spring","Montgomery","24","31","39.1","-77.08","A","POB"
"20910","MD","Silver Spring","Montgomery","24","31","39","-77.03","A","GD"
"20911","MD","Silver Spring","Montgomery","24","31","39","-77.03","A","POB"
"20912","MD","Takoma Park","Montgomery","24","31","38.98","-77","A","GD"
"20913","MD","Takoma Park","Montgomery","24","31","38.98","-77","A","POB"
"20914","MD","Silver Spring","Montgomery","24","31","39.07","-77","A","POB"
"20915","MD","Silver Spring","Montgomery","24","31","39.04","-77.05","A","POB"
"20916","MD","Silver Spring","Montgomery","24","31","39.08","-77.08","A","POB"
"20918","MD","Silver Spring","Montgomery","24","31","39.02","-77.01","A","POB"
"20993","MD","Silver Spring","Montgomery","24","31","39.04","-76.99","A","PVT"
"20997","MD","Silver Spring","Montgomery","24","31","38.99","-77.03","A","PVT"
"21001","MD","Aberdeen","Harford","24","25","39.51","-76.18","A","GD"
"21005","MD","Aberdeen Proving Ground","Harford","24","25","39.48","-76.12","A","GD"
"21009","MD","Abingdon","Harford","24","25","39.47","-76.3","A","GD"
"21010","MD","Gunpowder","Harford","24","25","39.39","-76.3","A","GD"
"21012","MD","Arnold","Anne Arundel","24","3","39.05","-76.5","A","GD"
"21013","MD","Baldwin","Baltimore","24","5","39.51","-76.49","A","GD"
"21014","MD","Bel Air","Harford","24","25","39.54","-76.35","A","GD"
"21015","MD","Bel Air","Harford","24","25","39.53","-76.3","A","GD"
"21017","MD","Belcamp","Harford","24","25","39.48","-76.24","A","GD"
"21018","MD","Benson","Harford","24","25","39.51","-76.39","A","POB"
"21020","MD","Boring","Baltimore","24","5","39.53","-76.82","A","POB"
"21022","MD","Brooklandville","Baltimore","24","5","39.41","-76.67","A","POB"
"21023","MD","Butler","Baltimore","24","5","39.54","-76.73","A","POB"
"21027","MD","Chase","Baltimore","24","5","39.35","-76.37","A","POB"
"21028","MD","Churchville","Harford","24","25","39.57","-76.24","A","GD"
"21029","MD","Clarksville","Howard","24","27","39.2","-76.94","A","GD"
"21030","MD","Cockeysville","Baltimore","24","5","39.48","-76.65","A","GD"
"21031","MD","Hunt Valley","Baltimore","24","5","39.49","-76.66","A","GD"
"21032","MD","Crownsville","Anne Arundel","24","3","39.04","-76.59","A","GD"
"21034","MD","Darlington","Harford","24","25","39.65","-76.21","A","GD"
"21035","MD","Davidsonville","Anne Arundel","24","3","38.94","-76.63","A","GD"
"21036","MD","Dayton","Howard","24","27","39.23","-76.99","A","GD"
"21037","MD","Edgewater","Anne Arundel","24","3","38.92","-76.54","A","GD"
"21040","MD","Edgewood","Harford","24","25","39.43","-76.31","A","GD"
"21041","MD","Ellicott City","Howard","24","27","39.27","-76.83","A","POB"
"21042","MD","Ellicott City","Howard","24","27","39.27","-76.87","A","GD"
"21043","MD","Ellicott City","Howard","24","27","39.26","-76.8","A","GD"
"21044","MD","Columbia","Howard","24","27","39.21","-76.88","A","GD"
"21045","MD","Columbia","Howard","24","27","39.2","-76.82","A","GD"
"21046","MD","Columbia","Howard","24","27","39.17","-76.84","A","GD"
"21047","MD","Fallston","Harford","24","25","39.53","-76.43","A","GD"
"21048","MD","Finksburg","Carroll","24","13","39.51","-76.91","A","GD"
"21050","MD","Forest Hill","Harford","24","25","39.58","-76.38","A","GD"
"21051","MD","Fork","Baltimore","24","5","39.47","-76.45","A","GD"
"21052","MD","Fort Howard","Baltimore","24","5","39.21","-76.45","A","POB"
"21053","MD","Freeland","Baltimore","24","5","39.7","-76.71","A","GD"
"21054","MD","Gambrills","Anne Arundel","24","3","39.04","-76.68","A","GD"
"21056","MD","Gibson Island","Anne Arundel","24","3","39.08","-76.43","A","POB"
"21057","MD","Glen Arm","Baltimore","24","5","39.45","-76.5","A","GD"
"21060","MD","Glen Burnie","Anne Arundel","24","3","39.16","-76.59","A","GD"
"21061","MD","Glen Burnie","Anne Arundel","24","3","39.16","-76.63","A","GD"
"21062","MD","Glen Burnie","Anne Arundel","24","3","39.17","-76.6","A","PVT"
"21065","MD","Hunt Valley","Baltimore","24","5","39.49","-76.65","A","PVT"
"21071","MD","Glyndon","Baltimore","24","5","39.47","-76.81","A","POB"
"21074","MD","Hampstead","Carroll","24","13","39.62","-76.85","A","GD"
"21075","MD","Elkridge","Howard","24","27","39.2","-76.76","A","GD"
"21076","MD","Hanover","Anne Arundel","24","3","39.16","-76.72","A","GD"
"21077","MD","Harmans","Anne Arundel","24","3","39.16","-76.7","A","GD"
"21078","MD","Havre De Grace","Harford","24","25","39.55","-76.12","A","GD"
"21082","MD","Hydes","Baltimore","24","5","39.48","-76.47","A","GD"
"21084","MD","Jarrettsville","Harford","24","25","39.61","-76.47","A","GD"
"21085","MD","Joppa","Harford","24","25","39.43","-76.36","A","GD"
"21087","MD","Kingsville","Baltimore","24","5","39.44","-76.41","A","GD"
"21088","MD","Lineboro","Carroll","24","13","39.71","-76.78","A","POB"
"21090","MD","Linthicum Heights","Anne Arundel","24","3","39.21","-76.66","A","GD"
"21092","MD","Long Green","Baltimore","24","5","39.48","-76.53","A","POB"
"21093","MD","Lutherville Timonium","Baltimore","24","5","39.44","-76.63","A","GD"
"21094","MD","Lutherville Timonium","Baltimore","24","5","39.42","-76.63","A","POB"
"21102","MD","Manchester","Carroll","24","13","39.68","-76.85","A","GD"
"21104","MD","Marriottsville","Carroll","24","13","39.34","-76.91","A","GD"
"21105","MD","Maryland Line","Baltimore","24","5","39.72","-76.65","A","POB"
"21106","MD","Mayo","Anne Arundel","24","3","38.88","-76.51","A","POB"
"21108","MD","Millersville","Anne Arundel","24","3","39.1","-76.62","A","GD"
"21111","MD","Monkton","Baltimore","24","5","39.58","-76.59","A","GD"
"21113","MD","Odenton","Anne Arundel","24","3","39.08","-76.71","A","GD"
"21114","MD","Crofton","Anne Arundel","24","3","39.01","-76.68","A","GD"
"21117","MD","Owings Mills","Baltimore","24","5","39.42","-76.78","A","GD"
"21120","MD","Parkton","Baltimore","24","5","39.66","-76.67","A","GD"
"21122","MD","Pasadena","Anne Arundel","24","3","39.13","-76.52","A","GD"
"21123","MD","Pasadena","Anne Arundel","24","3","39.11","-76.55","A","POB"
"21128","MD","Perry Hall","Baltimore","24","5","39.4","-76.44","A","GD"
"21130","MD","Perryman","Harford","24","25","39.47","-76.2","A","POB"
"21131","MD","Phoenix","Baltimore","24","5","39.51","-76.57","A","GD"
"21132","MD","Pylesville","Harford","24","25","39.7","-76.42","A","GD"
"21133","MD","Randallstown","Baltimore","24","5","39.38","-76.8","A","GD"
"21136","MD","Reisterstown","Baltimore","24","5","39.47","-76.82","A","GD"
"21139","MD","Riderwood","Baltimore","24","5","39.41","-76.65","A","POB"
"21140","MD","Riva","Anne Arundel","24","3","38.95","-76.58","A","GD"
"21144","MD","Severn","Anne Arundel","24","3","39.13","-76.69","A","GD"
"21146","MD","Severna Park","Anne Arundel","24","3","39.08","-76.56","A","GD"
"21150","MD","Simpsonville","Howard","24","27","39.17","-76.87","A","POB"
"21152","MD","Sparks Glencoe","Baltimore","24","5","39.54","-76.67","A","GD"
"21153","MD","Stevenson","Baltimore","24","5","39.41","-76.71","A","POB"
"21154","MD","Street","Harford","24","25","39.66","-76.36","A","GD"
"21155","MD","Upperco","Baltimore","24","5","39.57","-76.81","A","GD"
"21156","MD","Upper Falls","Baltimore","24","5","39.44","-76.4","A","GD"
"21157","MD","Westminster","Carroll","24","13","39.56","-76.99","A","GD"
"21158","MD","Westminster","Carroll","24","13","39.62","-77.04","A","GD"
"21160","MD","Whiteford","Harford","24","25","39.71","-76.32","A","GD"
"21161","MD","White Hall","Harford","24","25","39.66","-76.57","A","GD"
"21162","MD","White Marsh","Baltimore","24","5","39.39","-76.41","A","GD"
"21163","MD","Woodstock","Howard","24","27","39.33","-76.86","A","GD"
"21201","MD","Baltimore","Baltimore City","24","510","39.3","-76.62","A","GD"
"21202","MD","Baltimore","Baltimore City","24","510","39.3","-76.61","A","GD"
"21203","MD","Baltimore","Baltimore City","24","510","39.3","-76.61","A","POB"
"21204","MD","Towson","Baltimore","24","5","39.41","-76.63","A","GD"
"21205","MD","Baltimore","Baltimore City","24","510","39.3","-76.57","A","GD"
"21206","MD","Baltimore","Baltimore City","24","510","39.34","-76.54","A","GD"
"21207","MD","Gwynn Oak","Baltimore","24","5","39.32","-76.72","A","GD"
"21208","MD","Pikesville","Baltimore","24","5","39.38","-76.73","A","GD"
"21209","MD","Baltimore","Baltimore City","24","510","39.37","-76.67","A","GD"
"21210","MD","Baltimore","Baltimore City","24","510","39.35","-76.63","A","GD"
"21211","MD","Baltimore","Baltimore City","24","510","39.33","-76.63","A","GD"
"21212","MD","Baltimore","Baltimore City","24","510","39.36","-76.61","A","GD"
"21213","MD","Baltimore","Baltimore City","24","510","39.31","-76.58","A","GD"
"21214","MD","Baltimore","Baltimore City","24","510","39.35","-76.56","A","GD"
"21215","MD","Baltimore","Baltimore City","24","510","39.34","-76.68","A","GD"
"21216","MD","Baltimore","Baltimore City","24","510","39.31","-76.67","A","GD"
"21217","MD","Baltimore","Baltimore City","24","510","39.31","-76.64","A","GD"
"21218","MD","Baltimore","Baltimore City","24","510","39.33","-76.6","A","GD"
"21219","MD","Sparrows Point","Baltimore","24","5","39.23","-76.45","A","GD"
"21220","MD","Middle River","Baltimore","24","5","39.34","-76.41","A","GD"
"21221","MD","Essex","Baltimore","24","5","39.31","-76.45","A","GD"
"21222","MD","Dundalk","Baltimore","24","5","39.26","-76.51","A","GD"
"21223","MD","Baltimore","Baltimore City","24","510","39.29","-76.65","A","GD"
"21224","MD","Baltimore","Baltimore City","24","510","39.28","-76.55","A","GD"
"21225","MD","Brooklyn","Baltimore City","24","510","39.23","-76.61","A","GD"
"21226","MD","Curtis Bay","Anne Arundel","24","3","39.21","-76.57","A","GD"
"21227","MD","Halethorpe","Baltimore","24","5","39.24","-76.68","A","GD"
"21228","MD","Catonsville","Baltimore","24","5","39.28","-76.74","A","GD"
"21229","MD","Baltimore","Baltimore City","24","510","39.29","-76.69","A","GD"
"21230","MD","Baltimore","Baltimore City","24","510","39.27","-76.63","A","GD"
"21231","MD","Baltimore","Baltimore City","24","510","39.29","-76.59","A","GD"
"21233","MD","Baltimore","Baltimore City","24","510","39.29","-76.61","A","GD"
"21234","MD","Parkville","Baltimore","24","5","39.39","-76.54","A","GD"
"21235","MD","Baltimore","Baltimore City","24","510","39.31","-76.73","A","PVT"
"21236","MD","Nottingham","Baltimore","24","5","39.39","-76.49","A","GD"
"21237","MD","Rosedale","Baltimore","24","5","39.33","-76.5","A","GD"
"21239","MD","Baltimore","Baltimore City","24","510","39.36","-76.59","A","GD"
"21240","MD","Baltimore","Anne Arundel","24","3","39.18","-76.67","A","GD"
"21241","MD","Baltimore","Baltimore City","24","510","39.31","-76.73","A","PVT"
"21244","MD","Windsor Mill","Baltimore","24","5","39.33","-76.76","A","GD"
"21250","MD","Baltimore","Baltimore","24","5","39.26","-76.71","A","PVT"
"21251","MD","Baltimore","Baltimore City","24","510","39.35","-76.58","A","PVT"
"21252","MD","Towson","Baltimore","24","5","39.39","-76.61","A","PVT"
"21263","MD","Baltimore","Baltimore City","24","510","39.29","-76.61","A","PVT"
"21264","MD","Baltimore","Baltimore City","24","510","39.29","-76.62","A","PVT"
"21270","MD","Baltimore","Baltimore City","24","510","39.36","-76.71","A","POB"
"21273","MD","Baltimore","Baltimore City","24","510","39.29","-76.61","A","PVT"
"21275","MD","Baltimore","Baltimore City","24","510","39.29","-76.61","A","PVT"
"21278","MD","Baltimore","Baltimore City","24","510","39.32","-76.62","A","PVT"
"21279","MD","Baltimore","Baltimore City","24","510","39.3","-76.61","A","PVT"
"21280","MD","Baltimore","Baltimore City","24","510","39.3","-76.61","A","PVT"
"21281","MD","Baltimore","Baltimore City","24","510","39.29","-76.57","A","POB"
"21282","MD","Pikesville","Baltimore","24","5","39.39","-76.72","A","POB"
"21284","MD","Towson","Baltimore","24","5","39.4","-76.6","A","POB"
"21285","MD","Towson","Baltimore","24","5","39.41","-76.6","A","POB"
"21286","MD","Towson","Baltimore","24","5","39.4","-76.58","A","GD"
"21287","MD","Baltimore","Baltimore City","24","510","39.3","-76.56","A","GD"
"21288","MD","Baltimore","Baltimore City","24","510","39.29","-76.61","A","PVT"
"21289","MD","Baltimore","Baltimore City","24","510","39.31","-76.73","A","PVT"
"21290","MD","Baltimore","Baltimore City","24","510","39.29","-76.62","A","PVT"
"21297","MD","Baltimore","Baltimore City","24","510","39.3","-76.61","A","POB"
"21298","MD","Baltimore","Baltimore City","24","510","39.3","-76.61","A","PVT"
"21401","MD","Annapolis","Anne Arundel","24","3","38.99","-76.53","A","GD"
"21402","MD","Annapolis","Anne Arundel","24","3","38.98","-76.48","A","GD"
"21403","MD","Annapolis","Anne Arundel","24","3","38.95","-76.49","A","GD"
"21404","MD","Annapolis","Anne Arundel","24","3","38.98","-76.5","A","POB"
"21405","MD","Annapolis","Anne Arundel","24","3","39.03","-76.54","A","GD"
"21409","MD","Annapolis","Anne Arundel","24","3","39.02","-76.45","A","GD"
"21411","MD","Annapolis","Anne Arundel","24","3","38.97","-76.5","A","PVT"
"21412","MD","Annapolis","Anne Arundel","24","3","39.12","-76.53","A","PVT"
"21501","MD","Cumberland","Allegany","24","1","39.65","-78.76","A","POB"
"21502","MD","Cumberland","Allegany","24","1","39.65","-78.77","A","GD"
"21503","MD","Cumberland","Allegany","24","1","39.65","-78.76","A","POB"
"21504","MD","Cumberland","Allegany","24","1","39.66","-78.75","A","POB"
"21505","MD","Cumberland","Allegany","24","1","39.66","-78.75","A","POB"
"21520","MD","Accident","Garrett","24","23","39.63","-79.31","A","GD"
"21521","MD","Barton","Allegany","24","1","39.54","-79.02","A","GD"
"21522","MD","Bittinger","Garrett","24","23","39.61","-79.22","A","GD"
"21523","MD","Bloomington","Garrett","24","23","39.48","-79.07","A","GD"
"21524","MD","Corriganville","Allegany","24","1","39.7","-78.8","A","POB"
"21528","MD","Eckhart Mines","Allegany","24","1","39.65","-78.91","A","POB"
"21529","MD","Ellerslie","Allegany","24","1","39.72","-78.78","A","POB"
"21530","MD","Flintstone","Allegany","24","1","39.7","-78.55","A","GD"
"21531","MD","Friendsville","Garrett","24","23","39.66","-79.42","A","GD"
"21532","MD","Frostburg","Allegany","24","1","39.65","-78.94","A","GD"
"21536","MD","Grantsville","Garrett","24","23","39.67","-79.17","A","GD"
"21538","MD","Kitzmiller","Garrett","24","23","39.39","-79.21","A","GD"
"21539","MD","Lonaconing","Allegany","24","1","39.58","-78.99","A","GD"
"21540","MD","Luke","Allegany","24","1","39.48","-79.06","A","GD"
"21541","MD","Mc Henry","Garrett","24","23","39.56","-79.37","A","GD"
"21542","MD","Midland","Allegany","24","1","39.59","-78.95","A","POB"
"21543","MD","Midlothian","Allegany","24","1","39.64","-78.96","A","POB"
"21545","MD","Mount Savage","Allegany","24","1","39.7","-78.87","A","GD"
"21550","MD","Oakland","Garrett","24","23","39.41","-79.39","A","GD"
"21555","MD","Oldtown","Allegany","24","1","39.58","-78.56","A","GD"
"21556","MD","Pinto","Allegany","24","1","39.57","-78.85","A","POB"
"21557","MD","Rawlings","Allegany","24","1","39.49","-78.93","A","GD"
"21560","MD","Spring Gap","Allegany","24","1","39.57","-78.72","A","POB"
"21561","MD","Swanton","Garrett","24","23","39.48","-79.23","A","GD"
"21562","MD","Westernport","Allegany","24","1","39.49","-79.03","A","GD"
"21601","MD","Easton","Talbot","24","41","38.78","-76.08","A","GD"
"21607","MD","Barclay","Queen Annes","24","35","39.14","-75.86","A","GD"
"21609","MD","Bethlehem","Caroline","24","11","38.74","-75.95","A","POB"
"21610","MD","Betterton","Kent","24","29","39.37","-76.07","A","GD"
"21612","MD","Bozman","Talbot","24","41","38.75","-76.27","A","GD"
"21613","MD","Cambridge","Dorchester","24","19","38.54","-76.1","A","GD"
"21617","MD","Centreville","Queen Annes","24","35","39.05","-76.06","A","GD"
"21619","MD","Chester","Queen Annes","24","35","38.97","-76.28","A","GD"
"21620","MD","Chestertown","Kent","24","29","39.21","-76.09","A","GD"
"21622","MD","Church Creek","Dorchester","24","19","38.41","-76.19","A","GD"
"21623","MD","Church Hill","Queen Annes","24","35","39.12","-75.97","A","GD"
"21624","MD","Claiborne","Talbot","24","41","38.84","-76.27","A","POB"
"21625","MD","Cordova","Talbot","24","41","38.88","-76","A","GD"
"21626","MD","Crapo","Dorchester","24","19","38.34","-76.1","A","GD"
"21627","MD","Crocheron","Dorchester","24","19","38.23","-76.05","A","GD"
"21628","MD","Crumpton","Queen Annes","24","35","39.24","-75.92","A","POB"
"21629","MD","Denton","Caroline","24","11","38.87","-75.83","A","GD"
"21631","MD","East New Market","Dorchester","24","19","38.59","-75.94","A","GD"
"21632","MD","Federalsburg","Caroline","24","11","38.71","-75.77","A","GD"
"21634","MD","Fishing Creek","Dorchester","24","19","38.29","-76.19","A","GD"
"21635","MD","Galena","Kent","24","29","39.35","-75.84","A","GD"
"21636","MD","Goldsboro","Caroline","24","11","39.03","-75.79","A","GD"
"21638","MD","Grasonville","Queen Annes","24","35","38.95","-76.21","A","GD"
"21639","MD","Greensboro","Caroline","24","11","38.97","-75.8","A","GD"
"21640","MD","Henderson","Caroline","24","11","39.08","-75.8","A","GD"
"21641","MD","Hillsboro","Caroline","24","11","38.92","-75.94","A","POB"
"21643","MD","Hurlock","Dorchester","24","19","38.65","-75.86","A","GD"
"21644","MD","Ingleside","Queen Annes","24","35","39.1","-75.87","A","GD"
"21645","MD","Kennedyville","Kent","24","29","39.32","-75.96","A","GD"
"21647","MD","Mcdaniel","Talbot","24","41","38.81","-76.28","A","GD"
"21648","MD","Madison","Dorchester","24","19","38.49","-76.24","A","GD"
"21649","MD","Marydel","Caroline","24","11","39.12","-75.77","A","GD"
"21650","MD","Massey","Kent","24","29","39.32","-75.82","A","GD"
"21651","MD","Millington","Kent","24","29","39.26","-75.85","A","GD"
"21652","MD","Neavitt","Talbot","24","41","38.72","-76.28","A","POB"
"21653","MD","Newcomb","Talbot","24","41","38.75","-76.18","A","POB"
"21654","MD","Oxford","Talbot","24","41","38.68","-76.14","A","GD"
"21655","MD","Preston","Caroline","24","11","38.74","-75.92","A","GD"
"21656","MD","Price","Queen Annes","24","35","39.14","-75.98","A","POB"
"21657","MD","Queen Anne","Queen Annes","24","35","38.94","-75.98","A","GD"
"21658","MD","Queenstown","Queen Annes","24","35","38.95","-76.16","A","GD"
"21659","MD","Rhodesdale","Dorchester","24","19","38.58","-75.78","A","GD"
"21660","MD","Ridgely","Caroline","24","11","38.95","-75.89","A","GD"
"21661","MD","Rock Hall","Kent","24","29","39.13","-76.23","A","GD"
"21662","MD","Royal Oak","Talbot","24","41","38.71","-76.2","A","GD"
"21663","MD","Saint Michaels","Talbot","24","41","38.79","-76.23","A","GD"
"21664","MD","Secretary","Dorchester","24","19","38.61","-75.95","A","POB"
"21665","MD","Sherwood","Talbot","24","41","38.75","-76.32","A","GD"
"21666","MD","Stevensville","Queen Annes","24","35","38.94","-76.34","A","GD"
"21667","MD","Still Pond","Kent","24","29","39.34","-76.05","A","GD"
"21668","MD","Sudlersville","Queen Annes","24","35","39.19","-75.85","A","GD"
"21669","MD","Taylors Island","Dorchester","24","19","38.47","-76.29","A","POB"
"21670","MD","Templeville","Caroline","24","11","39.13","-75.77","A","POB"
"21671","MD","Tilghman","Talbot","24","41","38.71","-76.34","A","GD"
"21672","MD","Toddville","Dorchester","24","19","38.28","-76.06","A","GD"
"21673","MD","Trappe","Talbot","24","41","38.66","-76.06","A","GD"
"21675","MD","Wingate","Dorchester","24","19","38.29","-76.09","A","GD"
"21676","MD","Wittman","Talbot","24","41","38.79","-76.3","A","GD"
"21677","MD","Woolford","Dorchester","24","19","38.51","-76.18","A","GD"
"21678","MD","Worton","Kent","24","29","39.31","-76.1","A","GD"
"21679","MD","Wye Mills","Talbot","24","41","38.92","-76.07","A","GD"
"21690","MD","Chestertown","Queen Annes","24","35","39.22","-76.07","A","PVT"
"21701","MD","Frederick","Frederick","24","21","39.43","-77.38","A","GD"
"21702","MD","Frederick","Frederick","24","21","39.45","-77.44","A","GD"
"21703","MD","Frederick","Frederick","24","21","39.38","-77.45","A","GD"
"21704","MD","Frederick","Frederick","24","21","39.36","-77.38","A","GD"
"21705","MD","Frederick","Frederick","24","21","39.41","-77.41","A","POB"
"21709","MD","Frederick","Frederick","24","21","39.43","-77.42","A","PVT"
"21710","MD","Adamstown","Frederick","24","21","39.3","-77.45","A","GD"
"21711","MD","Big Pool","Washington","24","43","39.65","-78.02","A","GD"
"21713","MD","Boonsboro","Washington","24","43","39.52","-77.67","A","GD"
"21714","MD","Braddock Heights","Frederick","24","21","39.42","-77.5","A","POB"
"21715","MD","Brownsville","Washington","24","43","39.39","-77.66","A","POB"
"21716","MD","Brunswick","Frederick","24","21","39.31","-77.62","A","GD"
"21717","MD","Buckeystown","Frederick","24","21","39.33","-77.43","A","POB"
"21718","MD","Burkittsville","Frederick","24","21","39.39","-77.63","A","GD"
"21719","MD","Cascade","Washington","24","43","39.71","-77.49","A","GD"
"21720","MD","Cavetown","Washington","24","43","39.65","-77.59","A","POB"
"21721","MD","Chewsville","Washington","24","43","39.65","-77.63","A","POB"
"21722","MD","Clear Spring","Washington","24","43","39.66","-77.91","A","GD"
"21723","MD","Cooksville","Howard","24","27","39.33","-77.02","A","GD"
"21727","MD","Emmitsburg","Frederick","24","21","39.69","-77.32","A","GD"
"21733","MD","Fairplay","Washington","24","43","39.55","-77.75","A","GD"
"21734","MD","Funkstown","Washington","24","43","39.61","-77.71","A","POB"
"21737","MD","Glenelg","Howard","24","27","39.26","-77.01","A","GD"
"21738","MD","Glenwood","Howard","24","27","39.28","-77.02","A","GD"
"21740","MD","Hagerstown","Washington","24","43","39.63","-77.73","A","GD"
"21741","MD","Hagerstown","Washington","24","43","39.64","-77.72","A","POB"
"21742","MD","Hagerstown","Washington","24","43","39.66","-77.69","A","GD"
"21746","MD","Hagerstown","Washington","24","43","39.56","-77.72","A","PVT"
"21747","MD","Hagerstown","Washington","24","43","39.64","-77.75","A","POB"
"21749","MD","Hagerstown","Washington","24","43","39.64","-77.75","A","PVT"
"21750","MD","Hancock","Washington","24","43","39.7","-78.2","A","GD"
"21754","MD","Ijamsville","Frederick","24","21","39.34","-77.32","A","GD"
"21755","MD","Jefferson","Frederick","24","21","39.36","-77.56","A","GD"
"21756","MD","Keedysville","Washington","24","43","39.46","-77.69","A","GD"
"21757","MD","Keymar","Carroll","24","13","39.59","-77.26","A","GD"
"21758","MD","Knoxville","Frederick","24","21","39.34","-77.65","A","GD"
"21759","MD","Ladiesburg","Frederick","24","21","39.58","-77.26","A","POB"
"21762","MD","Libertytown","Frederick","24","21","39.48","-77.25","A","POB"
"21765","MD","Lisbon","Howard","24","27","39.34","-77.07","A","POB"
"21766","MD","Little Orleans","Allegany","24","1","39.66","-78.38","A","GD"
"21767","MD","Maugansville","Washington","24","43","39.7","-77.75","A","GD"
"21769","MD","Middletown","Frederick","24","21","39.44","-77.55","A","GD"
"21770","MD","Monrovia","Frederick","24","21","39.35","-77.25","A","GD"
"21771","MD","Mount Airy","Frederick","24","21","39.39","-77.16","A","GD"
"21773","MD","Myersville","Frederick","24","21","39.52","-77.56","A","GD"
"21774","MD","New Market","Frederick","24","21","39.4","-77.28","A","GD"
"21775","MD","New Midway","Frederick","24","21","39.55","-77.3","A","POB"
"21776","MD","New Windsor","Carroll","24","13","39.53","-77.1","A","GD"
"21777","MD","Point Of Rocks","Frederick","24","21","39.28","-77.53","A","GD"
"21778","MD","Rocky Ridge","Frederick","24","21","39.61","-77.33","A","GD"
"21779","MD","Rohrersville","Washington","24","43","39.43","-77.66","A","GD"
"21780","MD","Sabillasville","Frederick","24","21","39.68","-77.47","A","GD"
"21781","MD","Saint James","Washington","24","43","39.57","-77.76","A","POB"
"21782","MD","Sharpsburg","Washington","24","43","39.46","-77.76","A","GD"
"21783","MD","Smithsburg","Washington","24","43","39.65","-77.56","A","GD"
"21784","MD","Sykesville","Carroll","24","13","39.4","-76.96","A","GD"
"21787","MD","Taneytown","Carroll","24","13","39.66","-77.17","A","GD"
"21788","MD","Thurmont","Frederick","24","21","39.6","-77.4","A","GD"
"21790","MD","Tuscarora","Frederick","24","21","39.26","-77.49","A","GD"
"21791","MD","Union Bridge","Carroll","24","13","39.55","-77.19","A","GD"
"21792","MD","Unionville","Frederick","24","21","39.47","-77.19","A","POB"
"21793","MD","Walkersville","Frederick","24","21","39.49","-77.35","A","GD"
"21794","MD","West Friendship","Howard","24","27","39.3","-76.97","A","GD"
"21795","MD","Williamsport","Washington","24","43","39.6","-77.82","A","GD"
"21797","MD","Woodbine","Howard","24","27","39.34","-77.07","A","GD"
"21798","MD","Woodsboro","Frederick","24","21","39.54","-77.31","A","GD"
"21801","MD","Salisbury","Wicomico","24","45","38.37","-75.62","A","GD"
"21802","MD","Salisbury","Wicomico","24","45","38.34","-75.58","A","POB"
"21803","MD","Salisbury","Wicomico","24","45","38.36","-75.66","A","POB"
"21804","MD","Salisbury","Wicomico","24","45","38.35","-75.56","A","GD"
"21810","MD","Allen","Wicomico","24","45","38.29","-75.7","A","POB"
"21811","MD","Berlin","Worcester","24","47","38.33","-75.19","A","GD"
"21813","MD","Bishopville","Worcester","24","47","38.43","-75.17","A","GD"
"21814","MD","Bivalve","Wicomico","24","45","38.29","-75.89","A","GD"
"21817","MD","Crisfield","Somerset","24","39","37.99","-75.84","A","GD"
"21821","MD","Deal Island","Somerset","24","39","38.17","-75.93","A","GD"
"21822","MD","Eden","Worcester","24","47","38.29","-75.65","A","GD"
"21824","MD","Ewell","Somerset","24","39","37.99","-76.03","A","GD"
"21826","MD","Fruitland","Wicomico","24","45","38.32","-75.62","A","GD"
"21829","MD","Girdletree","Worcester","24","47","38.09","-75.38","A","GD"
"21830","MD","Hebron","Wicomico","24","45","38.41","-75.7","A","GD"
"21835","MD","Linkwood","Dorchester","24","19","38.54","-75.95","A","GD"
"21836","MD","Manokin","Somerset","24","39","38.12","-75.75","A","POB"
"21837","MD","Mardela Springs","Wicomico","24","45","38.46","-75.76","A","GD"
"21838","MD","Marion Station","Somerset","24","39","38.02","-75.74","A","GD"
"21840","MD","Nanticoke","Wicomico","24","45","38.26","-75.9","A","GD"
"21841","MD","Newark","Worcester","24","47","38.23","-75.29","A","GD"
"21842","MD","Ocean City","Worcester","24","47","38.38","-75.07","A","GD"
"21843","MD","Ocean City","Worcester","24","47","38.33","-75.09","A","POB"
"21849","MD","Parsonsburg","Wicomico","24","45","38.38","-75.46","A","GD"
"21850","MD","Pittsville","Wicomico","24","45","38.37","-75.4","A","GD"
"21851","MD","Pocomoke City","Worcester","24","47","38.07","-75.55","A","GD"
"21852","MD","Powellville","Wicomico","24","45","38.35","-75.41","A","POB"
"21853","MD","Princess Anne","Somerset","24","39","38.2","-75.71","A","GD"
"21856","MD","Quantico","Wicomico","24","45","38.33","-75.79","A","GD"
"21857","MD","Rehobeth","Somerset","24","39","38.05","-75.67","A","POB"
"21861","MD","Sharptown","Wicomico","24","45","38.54","-75.72","A","POB"
"21862","MD","Showell","Worcester","24","47","38.4","-75.22","A","GD"
"21863","MD","Snow Hill","Worcester","24","47","38.19","-75.4","A","GD"
"21864","MD","Stockton","Worcester","24","47","38.04","-75.41","A","GD"
"21865","MD","Tyaskin","Wicomico","24","45","38.29","-75.84","A","GD"
"21866","MD","Tylerton","Somerset","24","39","37.97","-76.02","A","POB"
"21867","MD","Upper Fairmount","Somerset","24","39","38.11","-75.79","A","POB"
"21869","MD","Vienna","Dorchester","24","19","38.46","-75.87","A","GD"
"21871","MD","Westover","Somerset","24","39","38.11","-75.74","A","GD"
"21872","MD","Whaleyville","Worcester","24","47","38.41","-75.3","A","GD"
"21874","MD","Willards","Wicomico","24","45","38.4","-75.36","A","GD"
"21875","MD","Delmar","Wicomico","24","45","38.44","-75.56","A","GD"
"21890","MD","Westover","Somerset","24","39","38.16","-75.7","A","PVT"
"21901","MD","North East","Cecil","24","15","39.6","-75.96","A","GD"
"21902","MD","Perry Point","Cecil","24","15","39.55","-76.07","A","POB"
"21903","MD","Perryville","Cecil","24","15","39.57","-76.05","A","GD"
"21904","MD","Port Deposit","Cecil","24","15","39.62","-76.08","A","GD"
"21911","MD","Rising Sun","Cecil","24","15","39.7","-76.05","A","GD"
"21912","MD","Warwick","Cecil","24","15","39.43","-75.82","A","GD"
"21913","MD","Cecilton","Cecil","24","15","39.4","-75.87","A","POB"
"21914","MD","Charlestown","Cecil","24","15","39.57","-75.98","A","POB"
"21915","MD","Chesapeake City","Cecil","24","15","39.51","-75.83","A","GD"
"21916","MD","Childs","Cecil","24","15","39.64","-75.86","A","POB"
"21917","MD","Colora","Cecil","24","15","39.67","-76.1","A","GD"
"21918","MD","Conowingo","Cecil","24","15","39.68","-76.16","A","GD"
"21919","MD","Earleville","Cecil","24","15","39.42","-75.93","A","GD"
"21920","MD","Elk Mills","Cecil","24","15","39.66","-75.83","A","POB"
"21921","MD","Elkton","Cecil","24","15","39.63","-75.85","A","GD"
"21922","MD","Elkton","Cecil","24","15","39.61","-75.83","A","POB"
"21930","MD","Georgetown","Cecil","24","15","39.37","-75.89","A","POB"
