"ZIPCode","State","City","County","StateFIPS","CountyFIPS","Latitude","Longitude","Preference","Type"
"84001","UT","Altamont","Duchesne","49","13","40.36","-110.28","A","GD"
"84002","UT","Altonah","Duchesne","49","13","40.45","-110.31","A","GD"
"84003","UT","American Fork","Utah","49","49","40.41","-111.78","A","GD"
"84004","UT","Alpine","Utah","49","49","40.47","-111.77","A","GD"
"84005","UT","Eagle Mountain","Utah","49","49","40.34","-111.99","A","GD"
"84006","UT","Bingham Canyon","Salt Lake","49","35","40.58","-112.09","A","GD"
"84007","UT","Bluebell","Duchesne","49","13","40.3","-110.21","A","GD"
"84008","UT","Bonanza","Uintah","49","47","40.46","-109.54","A","GD"
"84009","UT","South Jordan","Salt Lake","49","35","40.57","-111.98","A","GD"
"84010","UT","Bountiful","Davis","49","11","40.88","-111.87","A","GD"
"84011","UT","Bountiful","Davis","49","11","40.88","-111.87","A","POB"
"84013","UT","Cedar Valley","Utah","49","49","40.3","-112.09","A","GD"
"84014","UT","Centerville","Davis","49","11","40.93","-111.88","A","GD"
"84015","UT","Clearfield","Davis","49","11","41.12","-112.04","A","GD"
"84016","UT","Clearfield","Davis","49","11","41.1","-112.02","A","POB"
"84017","UT","Coalville","Summit","49","43","40.91","-111.28","A","GD"
"84018","UT","Croydon","Morgan","49","29","41.2","-111.48","A","GD"
"84020","UT","Draper","Salt Lake","49","35","40.51","-111.87","A","GD"
"84021","UT","Duchesne","Duchesne","49","13","40.18","-110.42","A","GD"
"84022","UT","Dugway","Tooele","49","45","40.22","-112.77","A","GD"
"84023","UT","Dutch John","Daggett","49","9","40.86","-109.26","A","GD"
"84024","UT","Echo","Summit","49","43","40.98","-111.44","A","POB"
"84025","UT","Farmington","Davis","49","11","40.99","-111.9","A","GD"
"84026","UT","Fort Duchesne","Uintah","49","47","40.29","-109.85","A","GD"
"84027","UT","Fruitland","Duchesne","49","13","40.21","-110.81","A","POB"
"84028","UT","Garden City","Rich","49","33","41.91","-111.41","A","GD"
"84029","UT","Grantsville","Tooele","49","45","40.63","-112.53","A","GD"
"84031","UT","Hanna","Duchesne","49","13","40.56","-110.81","A","GD"
"84032","UT","Heber City","Wasatch","49","51","40.46","-111.35","A","GD"
"84033","UT","Henefer","Summit","49","43","41.01","-111.49","A","POB"
"84034","UT","Ibapah","Tooele","49","45","40.03","-113.92","A","GD"
"84035","UT","Jensen","Uintah","49","47","40.29","-109.29","A","GD"
"84036","UT","Kamas","Summit","49","43","40.64","-111.2","A","GD"
"84037","UT","Kaysville","Davis","49","11","41.03","-111.93","A","GD"
"84038","UT","Laketown","Rich","49","33","41.84","-111.33","A","POB"
"84039","UT","Lapoint","Uintah","49","47","40.44","-109.81","A","GD"
"84040","UT","Layton","Davis","49","11","41.09","-111.93","A","GD"
"84041","UT","Layton","Davis","49","11","41.07","-111.98","A","GD"
"84042","UT","Lindon","Utah","49","49","40.34","-111.71","A","GD"
"84043","UT","Lehi","Utah","49","49","40.41","-111.87","A","GD"
"84044","UT","Magna","Salt Lake","49","35","40.7","-112.1","A","GD"
"84045","UT","Saratoga Springs","Utah","49","49","40.33","-111.91","A","GD"
"84046","UT","Manila","Daggett","49","9","40.97","-109.76","A","GD"
"84047","UT","Midvale","Salt Lake","49","35","40.62","-111.89","A","GD"
"84049","UT","Midway","Wasatch","49","51","40.53","-111.5","A","GD"
"84050","UT","Morgan","Morgan","49","29","41.04","-111.69","A","GD"
"84051","UT","Mountain Home","Duchesne","49","13","40.37","-110.41","A","GD"
"84052","UT","Myton","Duchesne","49","13","40.19","-110.05","A","GD"
"84053","UT","Neola","Duchesne","49","13","40.44","-110.03","A","GD"
"84054","UT","North Salt Lake","Davis","49","11","40.84","-111.91","A","GD"
"84055","UT","Oakley","Summit","49","43","40.78","-111.16","A","GD"
"84056","UT","Hill Afb","Davis","49","11","41.13","-112","A","GD"
"84057","UT","Orem","Utah","49","49","40.31","-111.71","A","GD"
"84058","UT","Orem","Utah","49","49","40.28","-111.71","A","GD"
"84059","UT","Orem","Utah","49","49","40.32","-111.72","A","POB"
"84060","UT","Park City","Summit","49","43","40.65","-111.49","A","GD"
"84061","UT","Peoa","Summit","49","43","40.75","-111.34","A","GD"
"84062","UT","Pleasant Grove","Utah","49","49","40.39","-111.73","A","GD"
"84063","UT","Randlett","Uintah","49","47","40.11","-109.69","A","GD"
"84064","UT","Randolph","Rich","49","33","41.67","-111.11","A","POB"
"84065","UT","Riverton","Salt Lake","49","35","40.5","-111.95","A","GD"
"84066","UT","Roosevelt","Duchesne","49","13","40.31","-110.02","A","GD"
"84067","UT","Roy","Weber","49","57","41.17","-112.05","A","GD"
"84068","UT","Park City","Summit","49","43","40.67","-111.5","A","POB"
"84069","UT","Rush Valley","Tooele","49","45","40.38","-112.49","A","GD"
"84070","UT","Sandy","Salt Lake","49","35","40.58","-111.89","A","GD"
"84071","UT","Stockton","Tooele","49","45","40.44","-112.36","A","GD"
"84072","UT","Tabiona","Duchesne","49","13","40.35","-110.72","A","GD"
"84073","UT","Talmage","Duchesne","49","13","40.35","-110.44","A","GD"
"84074","UT","Tooele","Tooele","49","45","40.56","-112.3","A","GD"
"84075","UT","Syracuse","Davis","49","11","41.09","-112.07","A","GD"
"84076","UT","Tridell","Uintah","49","47","40.46","-109.84","A","GD"
"84078","UT","Vernal","Uintah","49","47","40.57","-109.45","A","GD"
"84079","UT","Vernal","Uintah","49","47","40.45","-109.54","A","POB"
"84080","UT","Vernon","Tooele","49","45","40.13","-112.43","A","GD"
"84081","UT","West Jordan","Salt Lake","49","35","40.61","-112.03","A","GD"
"84082","UT","Wallsburg","Wasatch","49","51","40.37","-111.42","A","GD"
"84083","UT","Wendover","Tooele","49","45","40.7","-114.03","A","GD"
"84084","UT","West Jordan","Salt Lake","49","35","40.63","-111.96","A","GD"
"84085","UT","Whiterocks","Uintah","49","47","40.55","-109.92","A","GD"
"84086","UT","Woodruff","Rich","49","33","41.5","-111.2","A","GD"
"84087","UT","Woods Cross","Davis","49","11","40.88","-111.92","A","GD"
"84088","UT","West Jordan","Salt Lake","49","35","40.6","-111.97","A","GD"
"84089","UT","Clearfield","Davis","49","11","41.12","-112.02","A","POB"
"84090","UT","Sandy","Salt Lake","49","35","40.57","-111.85","A","POB"
"84091","UT","Sandy","Salt Lake","49","35","40.59","-111.82","A","POB"
"84092","UT","Sandy","Salt Lake","49","35","40.56","-111.81","A","GD"
"84093","UT","Sandy","Salt Lake","49","35","40.6","-111.83","A","GD"
"84094","UT","Sandy","Salt Lake","49","35","40.57","-111.86","A","GD"
"84095","UT","South Jordan","Salt Lake","49","35","40.56","-111.97","A","GD"
"84096","UT","Herriman","Salt Lake","49","35","40.51","-112.03","A","GD"
"84097","UT","Orem","Utah","49","49","40.31","-111.67","A","GD"
"84098","UT","Park City","Summit","49","43","40.73","-111.53","A","GD"
"84101","UT","Salt Lake City","Salt Lake","49","35","40.76","-111.9","A","GD"
"84102","UT","Salt Lake City","Salt Lake","49","35","40.76","-111.86","A","GD"
"84103","UT","Salt Lake City","Salt Lake","49","35","40.78","-111.88","A","GD"
"84104","UT","Salt Lake City","Salt Lake","49","35","40.75","-111.94","A","GD"
"84105","UT","Salt Lake City","Salt Lake","49","35","40.74","-111.86","A","GD"
"84106","UT","Salt Lake City","Salt Lake","49","35","40.71","-111.86","A","GD"
"84107","UT","Salt Lake City","Salt Lake","49","35","40.66","-111.88","A","GD"
"84108","UT","Salt Lake City","Salt Lake","49","35","40.75","-111.81","A","GD"
"84109","UT","Salt Lake City","Salt Lake","49","35","40.71","-111.8","A","GD"
"84110","UT","Salt Lake City","Salt Lake","49","35","40.76","-111.9","A","POB"
"84111","UT","Salt Lake City","Salt Lake","49","35","40.76","-111.88","A","GD"
"84112","UT","Salt Lake City","Salt Lake","49","35","40.76","-111.84","A","GD"
"84113","UT","Salt Lake City","Salt Lake","49","35","40.76","-111.84","A","GD"
"84114","UT","Salt Lake City","Salt Lake","49","35","40.78","-111.89","A","GD"
"84115","UT","Salt Lake City","Salt Lake","49","35","40.72","-111.89","A","GD"
"84116","UT","Salt Lake City","Salt Lake","49","35","40.79","-111.94","A","GD"
"84117","UT","Salt Lake City","Salt Lake","49","35","40.66","-111.84","A","GD"
"84118","UT","Salt Lake City","Salt Lake","49","35","40.65","-112","A","GD"
"84119","UT","West Valley City","Salt Lake","49","35","40.7","-111.95","A","GD"
"84120","UT","West Valley City","Salt Lake","49","35","40.69","-112","A","GD"
"84121","UT","Salt Lake City","Salt Lake","49","35","40.62","-111.8","A","GD"
"84122","UT","Salt Lake City","Salt Lake","49","35","40.8","-111.96","A","POB"
"84123","UT","Salt Lake City","Salt Lake","49","35","40.66","-111.92","A","GD"
"84124","UT","Salt Lake City","Salt Lake","49","35","40.68","-111.82","A","GD"
"84125","UT","Salt Lake City","Salt Lake","49","35","40.7","-111.95","A","POB"
"84126","UT","Salt Lake City","Salt Lake","49","35","40.7","-111.95","A","POB"
"84127","UT","Salt Lake City","Salt Lake","49","35","40.7","-111.95","A","POB"
"84128","UT","West Valley City","Salt Lake","49","35","40.69","-112.05","A","GD"
"84129","UT","Salt Lake City","Salt Lake","49","35","40.69","-111.95","A","GD"
"84130","UT","Salt Lake City","Salt Lake","49","35","40.7","-111.95","A","POB"
"84131","UT","Salt Lake City","Salt Lake","49","35","40.7","-111.95","A","POB"
"84132","UT","Salt Lake City","Salt Lake","49","35","40.77","-111.84","A","PVT"
"84133","UT","Salt Lake City","Salt Lake","49","35","40.77","-111.89","A","GD"
"84134","UT","Salt Lake City","Salt Lake","49","35","40.77","-111.94","A","PVT"
"84136","UT","Salt Lake City","Salt Lake","49","35","40.77","-111.89","A","PVT"
"84138","UT","Salt Lake City","Salt Lake","49","35","40.76","-111.88","A","GD"
"84139","UT","Salt Lake City","Salt Lake","49","35","40.77","-111.89","A","PVT"
"84141","UT","Salt Lake City","Salt Lake","49","35","40.67","-111.86","A","PVT"
"84143","UT","Salt Lake City","Salt Lake","49","35","40.78","-111.88","A","PVT"
"84145","UT","Salt Lake City","Salt Lake","49","35","40.76","-111.9","A","POB"
"84147","UT","Salt Lake City","Salt Lake","49","35","40.76","-111.88","A","POB"
"84148","UT","Salt Lake City","Salt Lake","49","35","40.76","-111.83","A","PVT"
"84150","UT","Salt Lake City","Salt Lake","49","35","40.77","-111.89","A","PVT"
"84151","UT","Salt Lake City","Salt Lake","49","35","40.79","-111.94","A","POB"
"84152","UT","Salt Lake City","Salt Lake","49","35","40.73","-111.86","A","POB"
"84157","UT","Salt Lake City","Salt Lake","49","35","40.66","-111.88","A","POB"
"84158","UT","Salt Lake City","Salt Lake","49","35","40.74","-111.82","A","POB"
"84165","UT","Salt Lake City","Salt Lake","49","35","40.71","-111.89","A","POB"
"84170","UT","Salt Lake City","Salt Lake","49","35","40.7","-112.01","A","POB"
"84171","UT","Salt Lake City","Salt Lake","49","35","40.62","-111.81","A","POB"
"84180","UT","Salt Lake City","Salt Lake","49","35","40.77","-111.9","A","GD"
"84184","UT","Salt Lake City","Salt Lake","49","35","40.68","-111.96","A","PVT"
"84189","UT","Salt Lake City","Salt Lake","49","35","40.77","-111.89","A","PVT"
"84190","UT","Salt Lake City","Salt Lake","49","35","40.73","-111.89","A","PVT"
"84199","UT","Salt Lake City","Salt Lake","49","35","40.73","-111.94","A","PVT"
"84201","UT","Ogden","Weber","49","57","41.24","-112","A","PVT"
"84244","UT","Ogden","Weber","49","57","41.26","-111.97","A","PVT"
"84301","UT","Bear River City","Box Elder","49","3","41.62","-112.13","A","POB"
"84302","UT","Brigham City","Box Elder","49","3","41.52","-112.03","A","GD"
"84304","UT","Cache Junction","Cache","49","5","41.83","-112","A","GD"
"84305","UT","Clarkston","Cache","49","5","41.93","-112.05","A","POB"
"84306","UT","Collinston","Box Elder","49","3","41.8","-112.07","A","GD"
"84307","UT","Corinne","Box Elder","49","3","41.54","-112.21","A","GD"
"84308","UT","Cornish","Cache","49","5","41.97","-111.97","A","GD"
"84309","UT","Deweyville","Box Elder","49","3","41.71","-112.09","A","GD"
"84310","UT","Eden","Weber","49","57","41.33","-111.86","A","GD"
"84311","UT","Fielding","Box Elder","49","3","41.82","-112.12","A","GD"
"84312","UT","Garland","Box Elder","49","3","41.76","-112.16","A","GD"
"84313","UT","Grouse Creek","Box Elder","49","3","41.62","-113.96","A","GD"
"84314","UT","Honeyville","Box Elder","49","3","41.64","-112.09","A","GD"
"84315","UT","Hooper","Weber","49","57","41.17","-112.12","A","GD"
"84316","UT","Howell","Box Elder","49","3","41.74","-112.44","A","POB"
"84317","UT","Huntsville","Weber","49","57","41.31","-111.67","A","GD"
"84318","UT","Hyde Park","Cache","49","5","41.8","-111.81","A","GD"
"84319","UT","Hyrum","Cache","49","5","41.62","-111.8","A","GD"
"84320","UT","Lewiston","Cache","49","5","41.97","-111.85","A","GD"
"84321","UT","Logan","Cache","49","5","41.74","-111.81","A","GD"
"84322","UT","Logan","Cache","49","5","41.75","-111.81","A","PVT"
"84323","UT","Logan","Cache","49","5","41.73","-111.84","A","POB"
"84324","UT","Mantua","Box Elder","49","3","41.5","-111.95","A","GD"
"84325","UT","Mendon","Cache","49","5","41.72","-111.98","A","GD"
"84326","UT","Millville","Cache","49","5","41.68","-111.82","A","POB"
"84327","UT","Newton","Cache","49","5","41.86","-112","A","POB"
"84328","UT","Paradise","Cache","49","5","41.55","-111.83","A","GD"
"84329","UT","Park Valley","Box Elder","49","3","41.79","-113.49","A","GD"
"84330","UT","Plymouth","Box Elder","49","3","41.89","-112.16","A","POB"
"84331","UT","Portage","Box Elder","49","3","41.97","-112.22","A","GD"
"84332","UT","Providence","Cache","49","5","41.7","-111.81","A","GD"
"84333","UT","Richmond","Cache","49","5","41.92","-111.82","A","GD"
"84334","UT","Riverside","Box Elder","49","3","41.79","-112.15","A","POB"
"84335","UT","Smithfield","Cache","49","5","41.83","-111.85","A","GD"
"84336","UT","Snowville","Box Elder","49","3","41.96","-112.72","A","GD"
"84337","UT","Tremonton","Box Elder","49","3","41.71","-112.2","A","GD"
"84338","UT","Trenton","Cache","49","5","41.91","-111.94","A","GD"
"84339","UT","Wellsville","Cache","49","5","41.64","-111.93","A","GD"
"84340","UT","Willard","Box Elder","49","3","41.39","-112.04","A","GD"
"84341","UT","Logan","Cache","49","5","41.77","-111.82","A","GD"
"84401","UT","Ogden","Weber","49","57","41.22","-112","A","GD"
"84402","UT","Ogden","Weber","49","57","41.22","-112.02","A","POB"
"84403","UT","Ogden","Weber","49","57","41.19","-111.95","A","GD"
"84404","UT","Ogden","Weber","49","57","41.27","-112.02","A","GD"
"84405","UT","Ogden","Weber","49","57","41.16","-111.97","A","GD"
"84407","UT","Ogden","Weber","49","57","41.24","-111.97","A","PVT"
"84408","UT","Ogden","Weber","49","57","41.19","-111.94","A","PVT"
"84409","UT","Ogden","Weber","49","57","41.19","-111.95","A","POB"
"84412","UT","Ogden","Weber","49","57","41.3","-111.95","A","POB"
"84414","UT","Ogden","Weber","49","57","41.32","-111.97","A","GD"
"84415","UT","Ogden","Weber","49","57","41.18","-111.95","A","POB"
"84501","UT","Price","Carbon","49","7","39.58","-110.79","A","GD"
"84510","UT","Aneth","San Juan","49","37","37.21","-109.29","A","POB"
"84511","UT","Blanding","San Juan","49","37","37.54","-109.42","A","GD"
"84512","UT","Bluff","San Juan","49","37","37.15","-109.55","A","POB"
"84513","UT","Castle Dale","Emery","49","15","39.22","-111.02","A","POB"
"84515","UT","Cisco","Grand","49","19","38.94","-109.22","A","GD"
"84516","UT","Clawson","Emery","49","15","39.15","-111.09","A","POB"
"84518","UT","Cleveland","Emery","49","15","39.4","-110.89","A","POB"
"84520","UT","East Carbon","Carbon","49","7","39.54","-110.41","A","GD"
"84521","UT","Elmo","Emery","49","15","39.39","-110.81","A","GD"
"84522","UT","Emery","Emery","49","15","38.93","-111.21","A","POB"
"84523","UT","Ferron","Emery","49","15","39.1","-111.15","A","POB"
"84525","UT","Green River","Emery","49","15","38.97","-110.21","A","GD"
"84526","UT","Helper","Carbon","49","7","39.72","-110.96","A","GD"
"84528","UT","Huntington","Emery","49","15","39.36","-111.03","A","POB"
"84529","UT","Kenilworth","Carbon","49","7","39.68","-110.81","A","GD"
"84530","UT","La Sal","San Juan","49","37","38.28","-109.2","A","POB"
"84531","UT","Mexican Hat","San Juan","49","37","37.13","-109.92","A","POB"
"84532","UT","Moab","Grand","49","19","38.54","-109.48","A","GD"
"84533","UT","Lake Powell","San Juan","49","37","37.58","-110.36","A","GD"
"84534","UT","Montezuma Creek","San Juan","49","37","37.24","-109.24","A","POB"
"84535","UT","Monticello","San Juan","49","37","38.01","-109.44","A","GD"
"84536","UT","Monument Valley","San Juan","49","37","37.09","-110.24","A","POB"
"84537","UT","Orangeville","Emery","49","15","39.28","-111.18","A","POB"
"84539","UT","Sunnyside","Carbon","49","7","39.6","-110.34","A","POB"
"84540","UT","Thompson","Grand","49","19","39.27","-109.33","A","GD"
"84542","UT","Wellington","Carbon","49","7","39.54","-110.73","A","GD"
"84601","UT","Provo","Utah","49","49","40.23","-111.68","A","GD"
"84602","UT","Provo","Utah","49","49","40.23","-111.69","A","GD"
"84603","UT","Provo","Utah","49","49","40.23","-111.7","A","POB"
"84604","UT","Provo","Utah","49","49","40.3","-111.64","A","GD"
"84605","UT","Provo","Utah","49","49","40.22","-111.68","A","POB"
"84606","UT","Provo","Utah","49","49","40.23","-111.64","A","GD"
"84620","UT","Aurora","Sevier","49","41","38.92","-111.93","A","POB"
"84621","UT","Axtell","Sanpete","49","39","39.04","-111.82","A","GD"
"84622","UT","Centerfield","Sanpete","49","39","39.12","-111.82","A","POB"
"84623","UT","Chester","Sanpete","49","39","39.46","-111.57","A","GD"
"84624","UT","Delta","Millard","49","27","39.35","-112.6","A","GD"
"84626","UT","Elberta","Utah","49","49","39.93","-111.98","A","POB"
"84627","UT","Ephraim","Sanpete","49","39","39.36","-111.58","A","GD"
"84628","UT","Eureka","Juab","49","23","39.94","-112.15","A","POB"
"84629","UT","Fairview","Sanpete","49","39","39.74","-111.45","A","GD"
"84630","UT","Fayette","Sanpete","49","39","39.24","-111.82","A","GD"
"84631","UT","Fillmore","Millard","49","27","38.97","-112.35","A","GD"
"84632","UT","Fountain Green","Sanpete","49","39","39.63","-111.64","A","POB"
"84633","UT","Goshen","Utah","49","49","39.95","-111.91","A","POB"
"84634","UT","Gunnison","Sanpete","49","39","39.16","-111.81","A","POB"
"84635","UT","Hinckley","Millard","49","27","39.37","-112.72","A","GD"
"84636","UT","Holden","Millard","49","27","39.12","-112.29","A","POB"
"84637","UT","Kanosh","Millard","49","27","38.79","-112.47","A","POB"
"84638","UT","Leamington","Millard","49","27","39.53","-112.28","A","POB"
"84639","UT","Levan","Juab","49","23","39.51","-111.9","A","POB"
"84640","UT","Lynndyl","Millard","49","27","39.5","-112.39","A","POB"
"84642","UT","Manti","Sanpete","49","39","39.27","-111.63","A","GD"
"84643","UT","Mayfield","Sanpete","49","39","39.12","-111.71","A","POB"
"84644","UT","Meadow","Millard","49","27","38.89","-112.41","A","POB"
"84645","UT","Mona","Juab","49","23","39.85","-111.86","A","GD"
"84646","UT","Moroni","Sanpete","49","39","39.53","-111.59","A","POB"
"84647","UT","Mount Pleasant","Sanpete","49","39","39.54","-111.44","A","GD"
"84648","UT","Nephi","Juab","49","23","39.7","-111.84","A","GD"
"84649","UT","Oak City","Millard","49","27","39.32","-112.36","A","POB"
"84651","UT","Payson","Utah","49","49","40.01","-111.73","A","GD"
"84652","UT","Redmond","Sevier","49","41","39.01","-111.87","A","POB"
"84653","UT","Salem","Utah","49","49","40.04","-111.65","A","GD"
"84654","UT","Salina","Sevier","49","41","38.92","-111.73","A","GD"
"84655","UT","Santaquin","Utah","49","49","39.98","-111.8","A","GD"
"84656","UT","Scipio","Millard","49","27","39.2","-112.1","A","POB"
"84657","UT","Sigurd","Sevier","49","41","38.83","-111.96","A","POB"
"84660","UT","Spanish Fork","Utah","49","49","40.1","-111.64","A","GD"
"84662","UT","Spring City","Sanpete","49","39","39.46","-111.48","A","POB"
"84663","UT","Springville","Utah","49","49","40.17","-111.58","A","GD"
"84664","UT","Mapleton","Utah","49","49","40.12","-111.58","A","GD"
"84665","UT","Sterling","Sanpete","49","39","39.2","-111.68","A","POB"
"84667","UT","Wales","Sanpete","49","39","39.49","-111.63","A","GD"
"84701","UT","Richfield","Sevier","49","41","38.76","-112.02","A","GD"
"84710","UT","Alton","Kane","49","25","37.45","-112.5","A","POB"
"84711","UT","Annabella","Sevier","49","41","38.7","-112.05","A","POB"
"84712","UT","Antimony","Garfield","49","17","38.07","-111.96","A","GD"
"84713","UT","Beaver","Beaver","49","1","38.3","-112.62","A","GD"
"84714","UT","Beryl","Iron","49","21","37.79","-113.7","A","GD"
"84715","UT","Bicknell","Wayne","49","55","38.33","-111.54","A","POB"
"84716","UT","Boulder","Garfield","49","17","37.94","-111.43","A","POB"
"84718","UT","Cannonville","Garfield","49","17","37.56","-112.07","A","POB"
"84719","UT","Brian Head","Iron","49","21","37.69","-112.83","A","POB"
"84720","UT","Cedar City","Iron","49","21","37.63","-113.14","A","GD"
"84721","UT","Cedar City","Iron","49","21","37.77","-113.11","A","GD"
"84722","UT","Central","Washington","49","53","37.42","-113.63","A","GD"
"84723","UT","Circleville","Piute","49","31","38.18","-112.25","A","POB"
"84724","UT","Elsinore","Sevier","49","41","38.68","-112.15","A","GD"
"84725","UT","Enterprise","Washington","49","53","37.55","-113.75","A","POB"
"84726","UT","Escalante","Garfield","49","17","37.76","-111.62","A","POB"
"84728","UT","Garrison","Millard","49","27","39.1","-113.97","A","GD"
"84729","UT","Glendale","Kane","49","25","37.34","-112.6","A","POB"
"84730","UT","Glenwood","Sevier","49","41","38.75","-112","A","POB"
"84731","UT","Greenville","Beaver","49","1","38.26","-112.8","A","GD"
"84732","UT","Greenwich","Piute","49","31","38.44","-111.91","A","GD"
"84733","UT","Gunlock","Washington","49","53","37.3","-113.84","A","GD"
"84734","UT","Hanksville","Wayne","49","55","38.35","-110.69","A","POB"
"84735","UT","Hatch","Garfield","49","17","37.65","-112.45","A","POB"
"84736","UT","Henrieville","Garfield","49","17","37.56","-112","A","POB"
"84737","UT","Hurricane","Washington","49","53","37.14","-113.3","A","GD"
"84738","UT","Ivins","Washington","49","53","37.17","-113.68","A","GD"
"84739","UT","Joseph","Sevier","49","41","38.62","-112.22","A","GD"
"84740","UT","Junction","Piute","49","31","38.26","-112.22","A","POB"
"84741","UT","Kanab","Kane","49","25","37.16","-112.33","A","GD"
"84742","UT","Kanarraville","Iron","49","21","37.54","-113.2","A","POB"
"84743","UT","Kingston","Piute","49","31","38.21","-112.18","A","POB"
"84744","UT","Koosharem","Sevier","49","41","38.53","-111.88","A","GD"
"84745","UT","La Verkin","Washington","49","53","37.21","-113.26","A","GD"
"84746","UT","Leeds","Washington","49","53","37.24","-113.36","A","POB"
"84747","UT","Loa","Wayne","49","55","38.43","-111.64","A","GD"
"84749","UT","Lyman","Wayne","49","55","38.39","-111.58","A","POB"
"84750","UT","Marysvale","Piute","49","31","38.46","-112.22","A","POB"
"84751","UT","Milford","Beaver","49","1","38.39","-113","A","GD"
"84752","UT","Minersville","Beaver","49","1","38.22","-112.92","A","POB"
"84753","UT","Modena","Iron","49","21","37.98","-113.89","A","GD"
"84754","UT","Monroe","Sevier","49","41","38.65","-112.12","A","GD"
"84755","UT","Mount Carmel","Kane","49","25","37.24","-112.76","A","POB"
"84756","UT","Newcastle","Iron","49","21","37.62","-113.52","A","POB"
"84757","UT","New Harmony","Washington","49","53","37.47","-113.26","A","GD"
"84758","UT","Orderville","Kane","49","25","37.29","-112.7","A","POB"
"84759","UT","Panguitch","Garfield","49","17","37.83","-112.45","A","GD"
"84760","UT","Paragonah","Iron","49","21","37.94","-112.73","A","POB"
"84761","UT","Parowan","Iron","49","21","37.85","-112.84","A","POB"
"84762","UT","Duck Creek Village","Kane","49","25","37.5","-112.69","A","POB"
"84763","UT","Rockville","Washington","49","53","37.16","-113.06","A","POB"
"84764","UT","Bryce","Garfield","49","17","37.67","-112.16","A","POB"
"84765","UT","Santa Clara","Washington","49","53","37.13","-113.65","A","GD"
"84766","UT","Sevier","Sevier","49","41","38.58","-112.29","A","GD"
"84767","UT","Springdale","Washington","49","53","37.28","-112.98","A","POB"
"84770","UT","Saint George","Washington","49","53","37.12","-113.6","A","GD"
"84771","UT","Saint George","Washington","49","53","37.14","-113.49","A","POB"
"84772","UT","Summit","Iron","49","21","37.8","-112.94","A","POB"
"84773","UT","Teasdale","Wayne","49","55","38.25","-111.39","A","GD"
"84774","UT","Toquerville","Washington","49","53","37.27","-113.28","A","GD"
"84775","UT","Torrey","Wayne","49","55","38.29","-111.25","A","GD"
"84776","UT","Tropic","Garfield","49","17","37.63","-112.08","A","POB"
"84779","UT","Virgin","Washington","49","53","37.34","-113.11","A","GD"
"84780","UT","Washington","Washington","49","53","37.13","-113.5","A","GD"
"84781","UT","Pine Valley","Washington","49","53","37.4","-113.5","A","GD"
"84782","UT","Veyo","Washington","49","53","37.35","-113.67","A","GD"
"84783","UT","Dammeron Valley","Washington","49","53","37.29","-113.66","A","GD"
"84784","UT","Hildale","Washington","49","53","37","-112.99","A","POB"
"84790","UT","Saint George","Washington","49","53","37.07","-113.56","A","GD"
"84791","UT","Saint George","Washington","49","53","37.09","-113.56","A","POB"
