"ZIPCode","State","City","County","StateFIPS","CountyFIPS","Latitude","Longitude","Preference","Type"
"32003","FL","Fleming Island","Clay","12","19","30.1","-81.71","A","GD"
"32004","FL","Ponte Vedra Beach","Saint Johns","12","109","30.24","-81.39","A","POB"
"32006","FL","Fleming Island","Clay","12","19","30.16","-81.7","A","POB"
"32007","FL","Bostwick","Putnam","12","107","29.78","-81.64","A","POB"
"32008","FL","Branford","Suwannee","12","121","29.93","-82.91","A","GD"
"32009","FL","Bryceville","Nassau","12","89","30.42","-81.96","A","GD"
"32011","FL","Callahan","Nassau","12","89","30.56","-81.84","A","GD"
"32013","FL","Day","Lafayette","12","67","30.19","-83.29","A","POB"
"32024","FL","Lake City","Columbia","12","23","30.11","-82.71","A","GD"
"32025","FL","Lake City","Columbia","12","23","30.16","-82.62","A","GD"
"32026","FL","Raiford","Union","12","125","30.06","-82.18","A","PVT"
"32030","FL","Doctors Inlet","Clay","12","19","30.11","-81.78","A","POB"
"32033","FL","Elkton","Saint Johns","12","109","29.79","-81.45","A","GD"
"32034","FL","Fernandina Beach","Nassau","12","89","30.63","-81.47","A","GD"
"32035","FL","Fernandina Beach","Nassau","12","89","30.67","-81.46","A","POB"
"32038","FL","Fort White","Columbia","12","23","29.93","-82.72","A","GD"
"32040","FL","Glen Saint Mary","Baker","12","3","30.26","-82.22","A","GD"
"32041","FL","Yulee","Nassau","12","89","30.63","-81.57","A","POB"
"32042","FL","Graham","Bradford","12","7","29.97","-82.12","A","POB"
"32043","FL","Green Cove Springs","Clay","12","19","29.98","-81.73","A","GD"
"32044","FL","Hampton","Bradford","12","7","29.86","-82.16","A","GD"
"32046","FL","Hilliard","Nassau","12","89","30.69","-81.93","A","GD"
"32050","FL","Middleburg","Clay","12","19","30.07","-81.86","A","POB"
"32052","FL","Jasper","Hamilton","12","47","30.49","-82.94","A","GD"
"32053","FL","Jennings","Hamilton","12","47","30.58","-83.13","A","GD"
"32054","FL","Lake Butler","Union","12","125","30.01","-82.39","A","GD"
"32055","FL","Lake City","Columbia","12","23","30.22","-82.65","A","GD"
"32056","FL","Lake City","Columbia","12","23","30.19","-82.64","A","POB"
"32058","FL","Lawtey","Bradford","12","7","30.08","-82.09","A","GD"
"32059","FL","Lee","Madison","12","79","30.39","-83.27","A","GD"
"32060","FL","Live Oak","Suwannee","12","121","30.29","-83.05","A","GD"
"32061","FL","Lulu","Columbia","12","23","30.1","-82.5","A","GD"
"32062","FL","Mc Alpin","Suwannee","12","121","30.14","-82.96","A","GD"
"32063","FL","Macclenny","Baker","12","3","30.26","-82.12","A","GD"
"32064","FL","Live Oak","Suwannee","12","121","30.3","-82.99","A","GD"
"32065","FL","Orange Park","Clay","12","19","30.14","-81.79","A","GD"
"32066","FL","Mayo","Lafayette","12","67","30.06","-83.21","A","GD"
"32067","FL","Orange Park","Clay","12","19","30.03","-81.79","A","POB"
"32068","FL","Middleburg","Clay","12","19","30.08","-81.87","A","GD"
"32071","FL","O Brien","Suwannee","12","121","30.04","-82.95","A","GD"
"32072","FL","Olustee","Baker","12","3","30.19","-82.43","A","POB"
"32073","FL","Orange Park","Clay","12","19","30.17","-81.74","A","GD"
"32079","FL","Penney Farms","Clay","12","19","29.98","-81.81","A","POB"
"32080","FL","Saint Augustine","Saint Johns","12","109","29.84","-81.27","A","GD"
"32081","FL","Ponte Vedra","Saint Johns","12","109","30.11","-81.42","A","GD"
"32082","FL","Ponte Vedra Beach","Saint Johns","12","109","30.19","-81.38","A","GD"
"32083","FL","Raiford","Union","12","125","30.07","-82.23","A","GD"
"32084","FL","Saint Augustine","Saint Johns","12","109","29.9","-81.33","A","GD"
"32085","FL","Saint Augustine","Saint Johns","12","109","29.89","-81.34","A","POB"
"32086","FL","Saint Augustine","Saint Johns","12","109","29.81","-81.31","A","GD"
"32087","FL","Sanderson","Baker","12","3","30.36","-82.26","A","GD"
"32091","FL","Starke","Bradford","12","7","29.94","-82.09","A","GD"
"32092","FL","Saint Augustine","Saint Johns","12","109","29.96","-81.52","A","GD"
"32094","FL","Wellborn","Suwannee","12","121","30.21","-82.82","A","GD"
"32095","FL","Saint Augustine","Saint Johns","12","109","29.99","-81.37","A","GD"
"32096","FL","White Springs","Hamilton","12","47","30.38","-82.75","A","GD"
"32097","FL","Yulee","Nassau","12","89","30.65","-81.61","A","GD"
"32099","FL","Jacksonville","Duval","12","31","30.34","-81.77","A","GD"
"32102","FL","Astor","Lake","12","69","29.16","-81.55","A","GD"
"32105","FL","Barberville","Volusia","12","127","29.19","-81.42","A","POB"
"32110","FL","Bunnell","Flagler","12","35","29.45","-81.3","A","GD"
"32111","FL","Candler","Marion","12","83","29.07","-81.97","A","POB"
"32112","FL","Crescent City","Putnam","12","107","29.43","-81.55","A","GD"
"32113","FL","Citra","Marion","12","83","29.39","-82.09","A","GD"
"32114","FL","Daytona Beach","Volusia","12","127","29.2","-81.04","A","GD"
"32115","FL","Daytona Beach","Volusia","12","127","29.21","-81.02","A","POB"
"32116","FL","Daytona Beach","Volusia","12","127","29.22","-81.01","A","POB"
"32117","FL","Daytona Beach","Volusia","12","127","29.24","-81.06","A","GD"
"32118","FL","Daytona Beach","Volusia","12","127","29.2","-81","A","GD"
"32119","FL","Daytona Beach","Volusia","12","127","29.16","-81.02","A","GD"
"32120","FL","Daytona Beach","Volusia","12","127","29.2","-81.05","A","POB"
"32121","FL","Daytona Beach","Volusia","12","127","29.19","-81.05","A","POB"
"32122","FL","Daytona Beach","Volusia","12","127","29.15","-81.03","A","POB"
"32123","FL","Port Orange","Volusia","12","127","29.15","-81.03","A","POB"
"32124","FL","Daytona Beach","Volusia","12","127","29.17","-81.13","A","GD"
"32125","FL","Daytona Beach","Volusia","12","127","29.23","-81.06","A","POB"
"32126","FL","Daytona Beach","Volusia","12","127","29.23","-81.01","A","POB"
"32127","FL","Port Orange","Volusia","12","127","29.11","-80.98","A","GD"
"32128","FL","Port Orange","Volusia","12","127","29.09","-81.05","A","GD"
"32129","FL","Port Orange","Volusia","12","127","29.14","-81.02","A","GD"
"32130","FL","De Leon Springs","Volusia","12","127","29.14","-81.34","A","GD"
"32131","FL","East Palatka","Putnam","12","107","29.66","-81.58","A","GD"
"32132","FL","Edgewater","Volusia","12","127","28.98","-80.91","A","GD"
"32133","FL","Eastlake Weir","Marion","12","83","29.02","-81.91","A","POB"
"32134","FL","Fort Mc Coy","Marion","12","83","29.39","-81.87","A","GD"
"32135","FL","Palm Coast","Flagler","12","35","29.55","-81.23","A","POB"
"32136","FL","Flagler Beach","Flagler","12","35","29.47","-81.13","A","GD"
"32137","FL","Palm Coast","Flagler","12","35","29.58","-81.22","A","GD"
"32138","FL","Grandin","Putnam","12","107","29.73","-81.92","A","POB"
"32139","FL","Georgetown","Putnam","12","107","29.39","-81.61","A","GD"
"32140","FL","Florahome","Putnam","12","107","29.76","-81.87","A","GD"
"32141","FL","Edgewater","Volusia","12","127","28.95","-80.9","A","GD"
"32142","FL","Palm Coast","Flagler","12","35","29.48","-81.21","A","POB"
"32143","FL","Palm Coast","Flagler","12","35","29.57","-81.2","A","GD"
"32145","FL","Hastings","Saint Johns","12","109","29.66","-81.46","A","GD"
"32147","FL","Hollister","Putnam","12","107","29.63","-81.8","A","POB"
"32148","FL","Interlachen","Putnam","12","107","29.65","-81.88","A","GD"
"32149","FL","Interlachen","Putnam","12","107","29.62","-81.9","A","POB"
"32157","FL","Lake Como","Putnam","12","107","29.48","-81.57","A","POB"
"32158","FL","Lady Lake","Lake","12","69","28.93","-81.93","A","POB"
"32159","FL","Lady Lake","Lake","12","69","28.93","-81.93","A","GD"
"32160","FL","Lake Geneva","Clay","12","19","29.77","-82.01","A","POB"
"32162","FL","The Villages","Sumter","12","119","28.92","-81.99","A","GD"
"32163","FL","The Villages","Sumter","12","119","28.95","-81.99","A","GD"
"32164","FL","Palm Coast","Flagler","12","35","29.5","-81.22","A","GD"
"32168","FL","New Smyrna Beach","Volusia","12","127","29.02","-80.97","A","GD"
"32169","FL","New Smyrna Beach","Volusia","12","127","29.01","-80.88","A","GD"
"32170","FL","New Smyrna Beach","Volusia","12","127","29.03","-80.91","A","POB"
"32173","FL","Ormond Beach","Volusia","12","127","29.29","-81.09","A","POB"
"32174","FL","Ormond Beach","Volusia","12","127","29.29","-81.11","A","GD"
"32175","FL","Ormond Beach","Volusia","12","127","29.29","-81.06","A","POB"
"32176","FL","Ormond Beach","Volusia","12","127","29.32","-81.06","A","GD"
"32177","FL","Palatka","Putnam","12","107","29.66","-81.67","A","GD"
"32178","FL","Palatka","Putnam","12","107","29.65","-81.64","A","POB"
"32179","FL","Ocklawaha","Marion","12","83","29.06","-81.88","A","GD"
"32180","FL","Pierson","Volusia","12","127","29.23","-81.45","A","GD"
"32181","FL","Pomona Park","Putnam","12","107","29.48","-81.61","A","GD"
"32182","FL","Orange Springs","Marion","12","83","29.48","-81.94","A","POB"
"32183","FL","Ocklawaha","Marion","12","83","29.04","-81.93","A","POB"
"32185","FL","Putnam Hall","Putnam","12","107","29.73","-81.96","A","POB"
"32187","FL","San Mateo","Putnam","12","107","29.6","-81.57","A","GD"
"32189","FL","Satsuma","Putnam","12","107","29.56","-81.65","A","GD"
"32190","FL","Seville","Volusia","12","127","29.33","-81.51","A","GD"
"32192","FL","Sparr","Marion","12","83","29.34","-82.09","A","POB"
"32193","FL","Welaka","Putnam","12","107","29.48","-81.67","A","GD"
"32195","FL","Weirsdale","Marion","12","83","28.98","-81.91","A","GD"
"32198","FL","Daytona Beach","Volusia","12","127","29.2","-81.05","A","PVT"
"32201","FL","Jacksonville","Duval","12","31","30.27","-81.76","A","POB"
"32202","FL","Jacksonville","Duval","12","31","30.33","-81.65","A","GD"
"32203","FL","Jacksonville","Duval","12","31","30.34","-81.67","A","POB"
"32204","FL","Jacksonville","Duval","12","31","30.32","-81.68","A","GD"
"32205","FL","Jacksonville","Duval","12","31","30.31","-81.72","A","GD"
"32206","FL","Jacksonville","Duval","12","31","30.35","-81.65","A","GD"
"32207","FL","Jacksonville","Duval","12","31","30.3","-81.63","A","GD"
"32208","FL","Jacksonville","Duval","12","31","30.39","-81.68","A","GD"
"32209","FL","Jacksonville","Duval","12","31","30.36","-81.69","A","GD"
"32210","FL","Jacksonville","Duval","12","31","30.27","-81.74","A","GD"
"32211","FL","Jacksonville","Duval","12","31","30.33","-81.59","A","GD"
"32212","FL","Jacksonville","Duval","12","31","30.21","-81.69","A","GD"
"32214","FL","Jacksonville","Duval","12","31","30.22","-81.69","A","PVT"
"32216","FL","Jacksonville","Duval","12","31","30.28","-81.59","A","GD"
"32217","FL","Jacksonville","Duval","12","31","30.24","-81.62","A","GD"
"32218","FL","Jacksonville","Duval","12","31","30.45","-81.66","A","GD"
"32219","FL","Jacksonville","Duval","12","31","30.41","-81.76","A","GD"
"32220","FL","Jacksonville","Duval","12","31","30.33","-81.81","A","GD"
"32221","FL","Jacksonville","Duval","12","31","30.28","-81.82","A","GD"
"32222","FL","Jacksonville","Duval","12","31","30.22","-81.81","A","GD"
"32223","FL","Jacksonville","Duval","12","31","30.16","-81.63","A","GD"
"32224","FL","Jacksonville","Duval","12","31","30.28","-81.46","A","GD"
"32225","FL","Jacksonville","Duval","12","31","30.35","-81.51","A","GD"
"32226","FL","Jacksonville","Duval","12","31","30.45","-81.54","A","GD"
"32227","FL","Jacksonville","Duval","12","31","30.38","-81.41","A","GD"
"32228","FL","Jacksonville","Duval","12","31","30.39","-81.4","A","POB"
"32229","FL","Jacksonville","Duval","12","31","30.41","-81.58","A","POB"
"32231","FL","Jacksonville","Duval","12","31","30.29","-81.63","A","POB"
"32232","FL","Jacksonville","Duval","12","31","30.29","-81.63","A","POB"
"32233","FL","Atlantic Beach","Duval","12","31","30.35","-81.41","A","GD"
"32234","FL","Jacksonville","Duval","12","31","30.23","-81.98","A","GD"
"32235","FL","Jacksonville","Duval","12","31","30.29","-81.64","A","POB"
"32236","FL","Jacksonville","Duval","12","31","30.31","-81.73","A","POB"
"32237","FL","Jacksonville","Duval","12","31","30.24","-81.62","A","POB"
"32238","FL","Jacksonville","Duval","12","31","30.22","-81.76","A","POB"
"32239","FL","Jacksonville","Duval","12","31","30.33","-81.58","A","POB"
"32240","FL","Jacksonville Beach","Duval","12","31","30.28","-81.41","A","POB"
"32241","FL","Jacksonville","Duval","12","31","30.17","-81.63","A","POB"
"32244","FL","Jacksonville","Duval","12","31","30.22","-81.76","A","GD"
"32245","FL","Jacksonville","Duval","12","31","30.25","-81.55","A","POB"
"32246","FL","Jacksonville","Duval","12","31","30.3","-81.52","A","GD"
"32247","FL","Jacksonville","Duval","12","31","30.3","-81.64","A","POB"
"32250","FL","Jacksonville Beach","Duval","12","31","30.28","-81.4","A","GD"
"32254","FL","Jacksonville","Duval","12","31","30.34","-81.73","A","GD"
"32255","FL","Jacksonville","Duval","12","31","30.28","-81.55","A","POB"
"32256","FL","Jacksonville","Duval","12","31","30.21","-81.55","A","GD"
"32257","FL","Jacksonville","Duval","12","31","30.19","-81.6","A","GD"
"32258","FL","Jacksonville","Duval","12","31","30.14","-81.55","A","GD"
"32259","FL","Saint Johns","Saint Johns","12","109","30.09","-81.59","A","GD"
"32260","FL","Jacksonville","Saint Johns","12","109","30.12","-81.63","A","POB"
"32266","FL","Neptune Beach","Duval","12","31","30.32","-81.4","A","GD"
"32277","FL","Jacksonville","Duval","12","31","30.36","-81.59","A","GD"
"32301","FL","Tallahassee","Leon","12","73","30.43","-84.27","A","GD"
"32302","FL","Tallahassee","Leon","12","73","30.44","-84.28","A","POB"
"32303","FL","Tallahassee","Leon","12","73","30.49","-84.32","A","GD"
"32304","FL","Tallahassee","Leon","12","73","30.45","-84.33","A","GD"
"32305","FL","Tallahassee","Leon","12","73","30.36","-84.3","A","GD"
"32306","FL","Tallahassee","Leon","12","73","30.44","-84.3","A","PVT"
"32307","FL","Tallahassee","Leon","12","73","30.43","-84.29","A","PVT"
"32308","FL","Tallahassee","Leon","12","73","30.47","-84.23","A","GD"
"32309","FL","Tallahassee","Leon","12","73","30.54","-84.14","A","GD"
"32310","FL","Tallahassee","Leon","12","73","30.41","-84.39","A","GD"
"32311","FL","Tallahassee","Leon","12","73","30.4","-84.19","A","GD"
"32312","FL","Tallahassee","Leon","12","73","30.57","-84.24","A","GD"
"32313","FL","Tallahassee","Leon","12","73","30.44","-84.29","A","PVT"
"32314","FL","Tallahassee","Leon","12","73","30.44","-84.33","A","POB"
"32315","FL","Tallahassee","Leon","12","73","30.46","-84.29","A","POB"
"32316","FL","Tallahassee","Leon","12","73","30.45","-84.33","A","POB"
"32317","FL","Tallahassee","Leon","12","73","30.46","-84.14","A","GD"
"32318","FL","Tallahassee","Leon","12","73","30.44","-84.28","A","POB"
"32320","FL","Apalachicola","Franklin","12","37","29.73","-85.01","A","GD"
"32321","FL","Bristol","Liberty","12","77","30.29","-84.99","A","GD"
"32322","FL","Carrabelle","Franklin","12","37","29.88","-84.64","A","GD"
"32323","FL","Lanark Village","Franklin","12","37","29.89","-84.61","A","POB"
"32324","FL","Chattahoochee","Gadsden","12","39","30.68","-84.81","A","GD"
"32326","FL","Crawfordville","Wakulla","12","129","30.18","-84.38","A","POB"
"32327","FL","Crawfordville","Wakulla","12","129","30.19","-84.32","A","GD"
"32328","FL","Eastpoint","Franklin","12","37","29.74","-84.9","A","GD"
"32329","FL","Apalachicola","Franklin","12","37","29.73","-84.99","A","POB"
"32330","FL","Greensboro","Gadsden","12","39","30.57","-84.75","A","POB"
"32331","FL","Greenville","Madison","12","79","30.44","-83.64","A","GD"
"32332","FL","Gretna","Gadsden","12","39","30.62","-84.66","A","GD"
"32333","FL","Havana","Gadsden","12","39","30.61","-84.42","A","GD"
"32334","FL","Hosford","Liberty","12","77","30.34","-84.76","A","GD"
"32335","FL","Sumatra","Liberty","12","77","30.02","-84.98","A","POB"
"32336","FL","Lamont","Jefferson","12","65","30.26","-83.87","A","GD"
"32337","FL","Lloyd","Jefferson","12","65","30.48","-84.02","A","POB"
"32340","FL","Madison","Madison","12","79","30.48","-83.41","A","GD"
"32341","FL","Madison","Madison","12","79","30.47","-83.42","A","POB"
"32343","FL","Midway","Gadsden","12","39","30.49","-84.45","A","GD"
"32344","FL","Monticello","Jefferson","12","65","30.5","-83.9","A","GD"
"32345","FL","Monticello","Jefferson","12","65","30.54","-83.87","A","POB"
"32346","FL","Panacea","Wakulla","12","129","30","-84.39","A","GD"
"32347","FL","Perry","Taylor","12","123","30.14","-83.6","A","GD"
"32348","FL","Perry","Taylor","12","123","30.02","-83.58","A","GD"
"32350","FL","Pinetta","Madison","12","79","30.59","-83.33","A","GD"
"32351","FL","Quincy","Gadsden","12","39","30.56","-84.63","A","GD"
"32352","FL","Quincy","Gadsden","12","39","30.65","-84.6","A","GD"
"32353","FL","Quincy","Gadsden","12","39","30.58","-84.59","A","POB"
"32355","FL","Saint Marks","Wakulla","12","129","30.17","-84.21","A","POB"
"32356","FL","Salem","Taylor","12","123","29.88","-83.42","A","POB"
"32357","FL","Shady Grove","Taylor","12","123","30.29","-83.63","A","POB"
"32358","FL","Sopchoppy","Wakulla","12","129","30.06","-84.52","A","GD"
"32359","FL","Steinhatchee","Taylor","12","123","29.67","-83.38","A","GD"
"32360","FL","Telogia","Liberty","12","77","30.34","-84.82","A","POB"
"32361","FL","Wacissa","Jefferson","12","65","30.36","-83.99","A","POB"
"32362","FL","Woodville","Leon","12","73","30.31","-84.26","A","POB"
"32395","FL","Tallahassee","Leon","12","73","30.43","-84.26","A","PVT"
"32399","FL","Tallahassee","Leon","12","73","30.44","-84.28","A","PVT"
"32401","FL","Panama City","Bay","12","5","30.16","-85.65","A","GD"
"32402","FL","Panama City","Bay","12","5","30.19","-85.68","A","POB"
"32403","FL","Panama City","Bay","12","5","30.06","-85.58","A","GD"
"32404","FL","Panama City","Bay","12","5","30.19","-85.55","A","GD"
"32405","FL","Panama City","Bay","12","5","30.2","-85.67","A","GD"
"32406","FL","Panama City","Bay","12","5","30.16","-85.74","A","POB"
"32407","FL","Panama City Beach","Bay","12","5","30.2","-85.81","A","GD"
"32408","FL","Panama City","Bay","12","5","30.16","-85.76","A","GD"
"32409","FL","Panama City","Bay","12","5","30.36","-85.65","A","GD"
"32410","FL","Mexico Beach","Bay","12","5","29.96","-85.41","A","POB"
"32411","FL","Panama City","Bay","12","5","30.15","-85.73","A","POB"
"32412","FL","Panama City","Bay","12","5","30.16","-85.65","A","POB"
"32413","FL","Panama City Beach","Bay","12","5","30.26","-85.93","A","GD"
"32417","FL","Panama City","Bay","12","5","30.18","-85.81","A","POB"
"32420","FL","Alford","Jackson","12","63","30.64","-85.38","A","GD"
"32421","FL","Altha","Calhoun","12","13","30.52","-85.2","A","GD"
"32422","FL","Argyle","Walton","12","131","30.75","-86.07","A","POB"
"32423","FL","Bascom","Jackson","12","63","30.95","-85.08","A","GD"
"32424","FL","Blountstown","Calhoun","12","13","30.4","-85.08","A","GD"
"32425","FL","Bonifay","Holmes","12","59","30.85","-85.71","A","GD"
"32426","FL","Campbellton","Jackson","12","63","30.95","-85.39","A","GD"
"32427","FL","Caryville","Washington","12","133","30.74","-85.8","A","GD"
"32428","FL","Chipley","Washington","12","133","30.62","-85.57","A","GD"
"32430","FL","Clarksville","Calhoun","12","13","30.43","-85.22","A","GD"
"32431","FL","Cottondale","Jackson","12","63","30.79","-85.4","A","GD"
"32432","FL","Cypress","Jackson","12","63","30.71","-85.08","A","POB"
"32433","FL","Defuniak Springs","Walton","12","131","30.8","-86.19","A","GD"
"32434","FL","Mossy Head","Walton","12","131","30.74","-86.31","A","POB"
"32435","FL","Defuniak Springs","Walton","12","131","30.69","-86.13","A","GD"
"32437","FL","Ebro","Washington","12","133","30.43","-85.89","A","GD"
"32438","FL","Fountain","Bay","12","5","30.49","-85.41","A","GD"
"32439","FL","Freeport","Walton","12","131","30.48","-86.15","A","GD"
"32440","FL","Graceville","Jackson","12","63","30.93","-85.52","A","GD"
"32442","FL","Grand Ridge","Jackson","12","63","30.69","-85.02","A","GD"
"32443","FL","Greenwood","Jackson","12","63","30.87","-85.11","A","GD"
"32444","FL","Lynn Haven","Bay","12","5","30.24","-85.65","A","GD"
"32445","FL","Malone","Jackson","12","63","30.96","-85.17","A","GD"
"32446","FL","Marianna","Jackson","12","63","30.8","-85.21","A","GD"
"32447","FL","Marianna","Jackson","12","63","30.76","-85.25","A","POB"
"32448","FL","Marianna","Jackson","12","63","30.68","-85.24","A","GD"
"32449","FL","Wewahitchka","Calhoun","12","13","30.29","-85.24","A","GD"
"32452","FL","Noma","Holmes","12","59","30.98","-85.62","A","POB"
"32455","FL","Ponce De Leon","Holmes","12","59","30.65","-85.96","A","GD"
"32456","FL","Port Saint Joe","Gulf","12","45","29.82","-85.31","A","GD"
"32457","FL","Port Saint Joe","Gulf","12","45","29.81","-85.3","A","POB"
"32459","FL","Santa Rosa Beach","Walton","12","131","30.35","-86.19","A","GD"
"32460","FL","Sneads","Jackson","12","63","30.74","-84.93","A","GD"
"32461","FL","Rosemary Beach","Walton","12","131","30.29","-86.03","A","POB"
"32462","FL","Vernon","Washington","12","133","30.55","-85.83","A","GD"
"32463","FL","Wausau","Washington","12","133","30.63","-85.59","A","POB"
"32464","FL","Westville","Holmes","12","59","30.9","-85.94","A","GD"
"32465","FL","Wewahitchka","Gulf","12","45","30.05","-85.2","A","GD"
"32466","FL","Youngstown","Bay","12","5","30.38","-85.53","A","GD"
"32501","FL","Pensacola","Escambia","12","33","30.43","-87.22","A","GD"
"32502","FL","Pensacola","Escambia","12","33","30.41","-87.22","A","GD"
"32503","FL","Pensacola","Escambia","12","33","30.45","-87.21","A","GD"
"32504","FL","Pensacola","Escambia","12","33","30.49","-87.19","A","GD"
"32505","FL","Pensacola","Escambia","12","33","30.44","-87.25","A","GD"
"32506","FL","Pensacola","Escambia","12","33","30.4","-87.32","A","GD"
"32507","FL","Pensacola","Escambia","12","33","30.36","-87.33","A","GD"
"32508","FL","Pensacola","Escambia","12","33","30.35","-87.29","A","GD"
"32509","FL","Pensacola","Escambia","12","33","30.47","-87.34","A","PVT"
"32511","FL","Pensacola","Escambia","12","33","30.41","-87.29","A","PVT"
"32512","FL","Pensacola","Escambia","12","33","30.4","-87.3","A","PVT"
"32513","FL","Pensacola","Escambia","12","33","30.46","-87.21","A","POB"
"32514","FL","Pensacola","Escambia","12","33","30.53","-87.22","A","GD"
"32516","FL","Pensacola","Escambia","12","33","30.42","-87.3","A","POB"
"32520","FL","Pensacola","Escambia","12","33","30.46","-87.26","A","PVT"
"32521","FL","Pensacola","Escambia","12","33","30.37","-87.28","A","PVT"
"32522","FL","Pensacola","Escambia","12","33","30.42","-87.22","A","POB"
"32523","FL","Pensacola","Escambia","12","33","30.52","-87.22","A","POB"
"32524","FL","Pensacola","Escambia","12","33","30.48","-87.19","A","POB"
"32526","FL","Pensacola","Escambia","12","33","30.49","-87.33","A","GD"
"32530","FL","Bagdad","Santa Rosa","12","113","30.6","-87.03","A","POB"
"32531","FL","Baker","Okaloosa","12","91","30.85","-86.69","A","GD"
"32533","FL","Cantonment","Escambia","12","33","30.6","-87.32","A","GD"
"32534","FL","Pensacola","Escambia","12","33","30.53","-87.28","A","GD"
"32535","FL","Century","Escambia","12","33","30.97","-87.33","A","GD"
"32536","FL","Crestview","Okaloosa","12","91","30.76","-86.59","A","GD"
"32537","FL","Milligan","Okaloosa","12","91","30.76","-86.6","A","POB"
"32538","FL","Paxton","Walton","12","131","30.98","-86.31","A","POB"
"32539","FL","Crestview","Okaloosa","12","91","30.76","-86.51","A","GD"
"32540","FL","Destin","Okaloosa","12","91","30.39","-86.48","A","POB"
"32541","FL","Destin","Okaloosa","12","91","30.39","-86.46","A","GD"
"32542","FL","Eglin Afb","Okaloosa","12","91","30.47","-86.54","A","GD"
"32544","FL","Hurlburt Field","Okaloosa","12","91","30.42","-86.69","A","GD"
"32547","FL","Fort Walton Beach","Okaloosa","12","91","30.45","-86.63","A","GD"
"32548","FL","Fort Walton Beach","Okaloosa","12","91","30.41","-86.62","A","GD"
"32549","FL","Fort Walton Beach","Okaloosa","12","91","30.41","-86.62","A","POB"
"32550","FL","Miramar Beach","Walton","12","131","30.38","-86.35","A","GD"
"32559","FL","Pensacola","Escambia","12","33","30.46","-87.34","A","PVT"
"32560","FL","Gonzalez","Escambia","12","33","30.58","-87.29","A","POB"
"32561","FL","Gulf Breeze","Santa Rosa","12","113","30.35","-87.16","A","GD"
"32562","FL","Gulf Breeze","Santa Rosa","12","113","30.37","-87.18","A","POB"
"32563","FL","Gulf Breeze","Santa Rosa","12","113","30.39","-87.05","A","GD"
"32564","FL","Holt","Okaloosa","12","91","30.72","-86.79","A","GD"
"32565","FL","Jay","Santa Rosa","12","113","30.9","-87.13","A","GD"
"32566","FL","Navarre","Santa Rosa","12","113","30.43","-86.89","A","GD"
"32567","FL","Laurel Hill","Okaloosa","12","91","30.93","-86.44","A","GD"
"32568","FL","Mc David","Escambia","12","33","30.89","-87.45","A","GD"
"32569","FL","Mary Esther","Okaloosa","12","91","30.41","-86.72","A","GD"
"32570","FL","Milton","Santa Rosa","12","113","30.72","-87.01","A","GD"
"32571","FL","Milton","Santa Rosa","12","113","30.63","-87.16","A","GD"
"32572","FL","Milton","Santa Rosa","12","113","30.63","-87.05","A","POB"
"32577","FL","Molino","Escambia","12","33","30.74","-87.37","A","GD"
"32578","FL","Niceville","Okaloosa","12","91","30.5","-86.44","A","GD"
"32579","FL","Shalimar","Okaloosa","12","91","30.45","-86.57","A","GD"
"32580","FL","Valparaiso","Okaloosa","12","91","30.51","-86.5","A","GD"
"32583","FL","Milton","Santa Rosa","12","113","30.6","-87.01","A","GD"
"32588","FL","Niceville","Okaloosa","12","91","30.53","-86.47","A","POB"
"32591","FL","Pensacola","Escambia","12","33","30.42","-87.22","A","POB"
"32601","FL","Gainesville","Alachua","12","1","29.65","-82.32","A","GD"
"32602","FL","Gainesville","Alachua","12","1","29.66","-82.45","A","POB"
"32603","FL","Gainesville","Alachua","12","1","29.65","-82.35","A","GD"
"32604","FL","Gainesville","Alachua","12","1","29.65","-82.34","A","POB"
"32605","FL","Gainesville","Alachua","12","1","29.68","-82.37","A","GD"
"32606","FL","Gainesville","Alachua","12","1","29.68","-82.43","A","GD"
"32607","FL","Gainesville","Alachua","12","1","29.65","-82.4","A","GD"
"32608","FL","Gainesville","Alachua","12","1","29.61","-82.4","A","GD"
"32609","FL","Gainesville","Alachua","12","1","29.72","-82.29","A","GD"
"32610","FL","Gainesville","Alachua","12","1","29.64","-82.34","A","PVT"
"32611","FL","Gainesville","Alachua","12","1","29.65","-82.35","A","PVT"
"32612","FL","Gainesville","Alachua","12","1","29.65","-82.35","A","PVT"
"32614","FL","Gainesville","Alachua","12","1","29.61","-82.37","A","POB"
"32615","FL","Alachua","Alachua","12","1","29.8","-82.49","A","GD"
"32616","FL","Alachua","Alachua","12","1","29.79","-82.49","A","POB"
"32617","FL","Anthony","Marion","12","83","29.31","-82.09","A","GD"
"32618","FL","Archer","Alachua","12","1","29.52","-82.54","A","GD"
"32619","FL","Bell","Gilchrist","12","41","29.76","-82.87","A","GD"
"32621","FL","Bronson","Levy","12","75","29.45","-82.61","A","GD"
"32622","FL","Brooker","Bradford","12","7","29.9","-82.31","A","GD"
"32625","FL","Cedar Key","Levy","12","75","29.18","-83.01","A","GD"
"32626","FL","Chiefland","Levy","12","75","29.47","-82.89","A","GD"
"32627","FL","Gainesville","Alachua","12","1","29.65","-82.33","A","POB"
"32628","FL","Cross City","Dixie","12","29","29.63","-83.16","A","GD"
"32631","FL","Earleton","Alachua","12","1","29.74","-82.11","A","GD"
"32633","FL","Evinston","Alachua","12","1","29.49","-82.23","A","POB"
"32634","FL","Fairfield","Marion","12","83","29.37","-82.28","A","POB"
"32635","FL","Gainesville","Alachua","12","1","29.71","-82.4","A","POB"
"32639","FL","Gulf Hammock","Levy","12","75","29.24","-82.73","A","POB"
"32640","FL","Hawthorne","Alachua","12","1","29.59","-82.07","A","GD"
"32641","FL","Gainesville","Alachua","12","1","29.64","-82.27","A","GD"
"32643","FL","High Springs","Alachua","12","1","29.82","-82.62","A","GD"
"32644","FL","Chiefland","Levy","12","75","29.48","-82.86","A","POB"
"32648","FL","Horseshoe Beach","Dixie","12","29","29.48","-83.27","A","GD"
"32653","FL","Gainesville","Alachua","12","1","29.73","-82.39","A","GD"
"32654","FL","Island Grove","Alachua","12","1","29.59","-82.13","A","POB"
"32655","FL","High Springs","Alachua","12","1","29.82","-82.59","A","POB"
"32656","FL","Keystone Heights","Clay","12","19","29.79","-82","A","GD"
"32658","FL","La Crosse","Alachua","12","1","29.85","-82.4","A","POB"
"32662","FL","Lochloosa","Alachua","12","1","29.51","-82.1","A","POB"
"32663","FL","Lowell","Marion","12","83","29.33","-82.2","A","POB"
"32664","FL","Mc Intosh","Marion","12","83","29.45","-82.22","A","POB"
"32666","FL","Melrose","Putnam","12","107","29.73","-82","A","GD"
"32667","FL","Micanopy","Alachua","12","1","29.51","-82.3","A","GD"
"32668","FL","Morriston","Levy","12","75","29.28","-82.49","A","GD"
"32669","FL","Newberry","Alachua","12","1","29.64","-82.6","A","GD"
"32680","FL","Old Town","Dixie","12","29","29.62","-83.04","A","GD"
"32681","FL","Orange Lake","Marion","12","83","29.42","-82.21","A","POB"
"32683","FL","Otter Creek","Levy","12","75","29.32","-82.78","A","POB"
"32686","FL","Reddick","Marion","12","83","29.36","-82.23","A","GD"
"32692","FL","Suwannee","Dixie","12","29","29.33","-83.14","A","POB"
"32693","FL","Trenton","Gilchrist","12","41","29.62","-82.82","A","GD"
"32694","FL","Waldo","Alachua","12","1","29.79","-82.16","A","GD"
"32696","FL","Williston","Levy","12","75","29.38","-82.49","A","GD"
"32697","FL","Worthington Springs","Union","12","125","29.93","-82.43","A","POB"
"32701","FL","Altamonte Springs","Seminole","12","117","28.66","-81.37","A","GD"
"32702","FL","Altoona","Lake","12","69","29.03","-81.64","A","GD"
"32703","FL","Apopka","Orange","12","95","28.66","-81.5","A","GD"
"32704","FL","Apopka","Orange","12","95","28.61","-81.5","A","POB"
"32706","FL","Cassadaga","Volusia","12","127","28.97","-81.24","A","POB"
"32707","FL","Casselberry","Seminole","12","117","28.66","-81.32","A","GD"
"32708","FL","Winter Springs","Seminole","12","117","28.68","-81.28","A","GD"
"32709","FL","Christmas","Orange","12","95","28.53","-80.99","A","GD"
"32710","FL","Clarcona","Orange","12","95","28.61","-81.48","A","POB"
"32712","FL","Apopka","Orange","12","95","28.72","-81.52","A","GD"
"32713","FL","Debary","Volusia","12","127","28.89","-81.31","A","GD"
"32714","FL","Altamonte Springs","Seminole","12","117","28.66","-81.41","A","GD"
"32715","FL","Altamonte Springs","Seminole","12","117","28.67","-81.36","A","POB"
"32716","FL","Altamonte Springs","Seminole","12","117","28.67","-81.4","A","POB"
"32718","FL","Casselberry","Seminole","12","117","28.66","-81.32","A","POB"
"32719","FL","Winter Springs","Seminole","12","117","28.68","-81.27","A","POB"
"32720","FL","Deland","Volusia","12","127","29.02","-81.33","A","GD"
"32721","FL","Deland","Volusia","12","127","29.03","-81.29","A","POB"
"32722","FL","Glenwood","Volusia","12","127","29.08","-81.35","A","POB"
"32723","FL","Deland","Volusia","12","127","29.01","-81.31","A","PVT"
"32724","FL","Deland","Volusia","12","127","29.04","-81.28","A","GD"
"32725","FL","Deltona","Volusia","12","127","28.9","-81.24","A","GD"
"32726","FL","Eustis","Lake","12","69","28.85","-81.68","A","GD"
"32727","FL","Eustis","Lake","12","69","28.83","-81.66","A","POB"
"32728","FL","Deltona","Volusia","12","127","28.87","-81.24","A","POB"
"32730","FL","Casselberry","Seminole","12","117","28.65","-81.34","A","GD"
"32732","FL","Geneva","Seminole","12","117","28.74","-81.12","A","GD"
"32733","FL","Goldenrod","Seminole","12","117","28.63","-81.26","A","POB"
"32735","FL","Grand Island","Lake","12","69","28.89","-81.74","A","GD"
"32736","FL","Eustis","Lake","12","69","28.89","-81.55","A","GD"
"32738","FL","Deltona","Volusia","12","127","28.91","-81.19","A","GD"
"32739","FL","Deltona","Volusia","12","127","28.91","-81.21","A","POB"
"32744","FL","Lake Helen","Volusia","12","127","28.98","-81.23","A","GD"
"32745","FL","Mid Florida","Seminole","12","117","28.79","-81.35","A","POB"
"32746","FL","Lake Mary","Seminole","12","117","28.76","-81.34","A","GD"
"32747","FL","Lake Monroe","Seminole","12","117","28.82","-81.32","A","POB"
"32750","FL","Longwood","Seminole","12","117","28.7","-81.35","A","GD"
"32751","FL","Maitland","Orange","12","95","28.63","-81.36","A","GD"
"32752","FL","Longwood","Seminole","12","117","28.71","-81.39","A","POB"
"32753","FL","Debary","Volusia","12","127","28.88","-81.31","A","POB"
"32754","FL","Mims","Brevard","12","9","28.68","-80.9","A","GD"
"32756","FL","Mount Dora","Lake","12","69","28.81","-81.64","A","POB"
"32757","FL","Mount Dora","Lake","12","69","28.8","-81.65","A","GD"
"32759","FL","Oak Hill","Volusia","12","127","28.87","-80.86","A","GD"
"32762","FL","Oviedo","Seminole","12","117","28.66","-81.18","A","POB"
"32763","FL","Orange City","Volusia","12","127","28.94","-81.3","A","GD"
"32764","FL","Osteen","Volusia","12","127","28.84","-81.11","A","GD"
"32765","FL","Oviedo","Seminole","12","117","28.65","-81.21","A","GD"
"32766","FL","Oviedo","Seminole","12","117","28.64","-81.12","A","GD"
"32767","FL","Paisley","Lake","12","69","29.01","-81.5","A","GD"
"32768","FL","Plymouth","Orange","12","95","28.7","-81.56","A","POB"
"32771","FL","Sanford","Seminole","12","117","28.8","-81.29","A","GD"
"32772","FL","Sanford","Seminole","12","117","28.77","-81.25","A","POB"
"32773","FL","Sanford","Seminole","12","117","28.77","-81.27","A","GD"
"32774","FL","Orange City","Volusia","12","127","28.95","-81.3","A","POB"
"32775","FL","Scottsmoor","Brevard","12","9","28.77","-80.87","A","POB"
"32776","FL","Sorrento","Lake","12","69","28.8","-81.53","A","GD"
"32777","FL","Tangerine","Orange","12","95","28.76","-81.63","A","POB"
"32778","FL","Tavares","Lake","12","69","28.8","-81.73","A","GD"
"32779","FL","Longwood","Seminole","12","117","28.7","-81.42","A","GD"
"32780","FL","Titusville","Brevard","12","9","28.56","-80.81","A","GD"
"32781","FL","Titusville","Brevard","12","9","28.53","-80.81","A","POB"
"32783","FL","Titusville","Brevard","12","9","28.54","-80.86","A","POB"
"32784","FL","Umatilla","Lake","12","69","28.95","-81.7","A","GD"
"32789","FL","Winter Park","Orange","12","95","28.6","-81.36","A","GD"
"32790","FL","Winter Park","Orange","12","95","28.59","-81.33","A","POB"
"32791","FL","Longwood","Seminole","12","117","28.7","-81.42","A","POB"
"32792","FL","Winter Park","Orange","12","95","28.61","-81.3","A","GD"
"32793","FL","Winter Park","Orange","12","95","28.6","-81.32","A","POB"
"32794","FL","Maitland","Orange","12","95","28.63","-81.37","A","POB"
"32795","FL","Lake Mary","Seminole","12","117","28.76","-81.33","A","POB"
"32796","FL","Titusville","Brevard","12","9","28.62","-80.84","A","GD"
"32798","FL","Zellwood","Orange","12","95","28.72","-81.59","A","GD"
"32799","FL","Mid Florida","Seminole","12","117","28.63","-81.36","A","POB"
"32801","FL","Orlando","Orange","12","95","28.54","-81.37","A","GD"
"32802","FL","Orlando","Orange","12","95","28.54","-81.37","A","POB"
"32803","FL","Orlando","Orange","12","95","28.56","-81.35","A","GD"
"32804","FL","Orlando","Orange","12","95","28.58","-81.39","A","GD"
"32805","FL","Orlando","Orange","12","95","28.53","-81.4","A","GD"
"32806","FL","Orlando","Orange","12","95","28.51","-81.36","A","GD"
"32807","FL","Orlando","Orange","12","95","28.55","-81.3","A","GD"
"32808","FL","Orlando","Orange","12","95","28.58","-81.44","A","GD"
"32809","FL","Orlando","Orange","12","95","28.46","-81.39","A","GD"
"32810","FL","Orlando","Orange","12","95","28.62","-81.43","A","GD"
"32811","FL","Orlando","Orange","12","95","28.52","-81.45","A","GD"
"32812","FL","Orlando","Orange","12","95","28.5","-81.33","A","GD"
"32814","FL","Orlando","Orange","12","95","28.57","-81.33","A","GD"
"32815","FL","Orlando","Brevard","12","9","28.59","-80.65","A","POB"
"32816","FL","Orlando","Orange","12","95","28.6","-81.2","A","PVT"
"32817","FL","Orlando","Orange","12","95","28.59","-81.25","A","GD"
"32818","FL","Orlando","Orange","12","95","28.58","-81.49","A","GD"
"32819","FL","Orlando","Orange","12","95","28.46","-81.47","A","GD"
"32820","FL","Orlando","Orange","12","95","28.56","-81.11","A","GD"
"32821","FL","Orlando","Orange","12","95","28.39","-81.47","A","GD"
"32822","FL","Orlando","Orange","12","95","28.5","-81.29","A","GD"
"32824","FL","Orlando","Orange","12","95","28.4","-81.36","A","GD"
"32825","FL","Orlando","Orange","12","95","28.54","-81.25","A","GD"
"32826","FL","Orlando","Orange","12","95","28.59","-81.19","A","GD"
"32827","FL","Orlando","Orange","12","95","28.43","-81.3","A","GD"
"32828","FL","Orlando","Orange","12","95","28.53","-81.17","A","GD"
"32829","FL","Orlando","Orange","12","95","28.48","-81.25","A","GD"
"32830","FL","Orlando","Orange","12","95","28.38","-81.56","A","POB"
"32831","FL","Orlando","Orange","12","95","28.47","-81.16","A","GD"
"32832","FL","Orlando","Orange","12","95","28.41","-81.21","A","GD"
"32833","FL","Orlando","Orange","12","95","28.51","-81.09","A","GD"
"32834","FL","Orlando","Orange","12","95","28.56","-81.21","A","GD"
"32835","FL","Orlando","Orange","12","95","28.52","-81.48","A","GD"
"32836","FL","Orlando","Orange","12","95","28.41","-81.51","A","GD"
"32837","FL","Orlando","Orange","12","95","28.38","-81.42","A","GD"
"32839","FL","Orlando","Orange","12","95","28.49","-81.41","A","GD"
"32853","FL","Orlando","Orange","12","95","28.56","-81.35","A","POB"
"32854","FL","Orlando","Orange","12","95","28.57","-81.39","A","POB"
"32855","FL","Orlando","Orange","12","95","28.51","-81.39","A","POB"
"32856","FL","Orlando","Orange","12","95","28.51","-81.37","A","POB"
"32857","FL","Orlando","Orange","12","95","28.56","-81.3","A","POB"
"32858","FL","Orlando","Orange","12","95","28.55","-81.45","A","POB"
"32859","FL","Orlando","Orange","12","95","28.46","-81.38","A","POB"
"32860","FL","Orlando","Orange","12","95","28.62","-81.43","A","POB"
"32861","FL","Orlando","Orange","12","95","28.52","-81.45","A","POB"
"32862","FL","Orlando","Orange","12","95","28.54","-81.38","A","POB"
"32867","FL","Orlando","Orange","12","95","28.57","-81.25","A","POB"
"32868","FL","Orlando","Orange","12","95","28.59","-81.49","A","POB"
"32869","FL","Orlando","Orange","12","95","28.46","-81.36","A","POB"
"32872","FL","Orlando","Orange","12","95","28.54","-81.37","A","POB"
"32877","FL","Orlando","Orange","12","95","28.39","-81.4","A","POB"
"32878","FL","Orlando","Orange","12","95","28.53","-81.17","A","POB"
"32885","FL","Orlando","Orange","12","95","28.54","-81.38","A","PVT"
"32886","FL","Orlando","Orange","12","95","28.54","-81.38","A","PVT"
"32887","FL","Orlando","Orange","12","95","28.38","-81.47","A","PVT"
"32891","FL","Orlando","Orange","12","95","28.56","-81.35","A","PVT"
"32896","FL","Orlando","Orange","12","95","28.54","-81.38","A","PVT"
"32897","FL","Orlando","Orange","12","95","28.54","-81.38","A","PVT"
"32899","FL","Orlando","Brevard","12","9","28.52","-80.65","A","PVT"
"32901","FL","Melbourne","Brevard","12","9","28.08","-80.62","A","GD"
"32902","FL","Melbourne","Brevard","12","9","28","-80.65","A","POB"
"32903","FL","Indialantic","Brevard","12","9","28.11","-80.58","A","GD"
"32904","FL","Melbourne","Brevard","12","9","28.07","-80.67","A","GD"
"32905","FL","Palm Bay","Brevard","12","9","28.03","-80.6","A","GD"
"32906","FL","Palm Bay","Brevard","12","9","28.01","-80.63","A","POB"
"32907","FL","Palm Bay","Brevard","12","9","28.01","-80.68","A","GD"
"32908","FL","Palm Bay","Brevard","12","9","27.95","-80.69","A","GD"
"32909","FL","Palm Bay","Brevard","12","9","27.95","-80.65","A","GD"
"32910","FL","Palm Bay","Brevard","12","9","28","-80.69","A","POB"
"32911","FL","Palm Bay","Brevard","12","9","28.02","-80.69","A","POB"
"32912","FL","Melbourne","Brevard","12","9","28.08","-80.61","A","POB"
"32919","FL","Melbourne","Brevard","12","9","28.08","-80.63","A","PVT"
"32920","FL","Cape Canaveral","Brevard","12","9","28.39","-80.6","A","GD"
"32922","FL","Cocoa","Brevard","12","9","28.37","-80.74","A","GD"
"32923","FL","Cocoa","Brevard","12","9","28.26","-80.71","A","POB"
"32924","FL","Cocoa","Brevard","12","9","28.26","-80.71","A","POB"
"32925","FL","Patrick Afb","Brevard","12","9","28.25","-80.61","A","GD"
"32926","FL","Cocoa","Brevard","12","9","28.39","-80.8","A","GD"
"32927","FL","Cocoa","Brevard","12","9","28.47","-80.8","A","GD"
"32931","FL","Cocoa Beach","Brevard","12","9","28.33","-80.61","A","GD"
"32932","FL","Cocoa Beach","Brevard","12","9","28.32","-80.61","A","POB"
"32934","FL","Melbourne","Brevard","12","9","28.14","-80.7","A","GD"
"32935","FL","Melbourne","Brevard","12","9","28.14","-80.65","A","GD"
"32936","FL","Melbourne","Brevard","12","9","28.14","-80.65","A","POB"
"32937","FL","Satellite Beach","Brevard","12","9","28.17","-80.6","A","GD"
"32940","FL","Melbourne","Brevard","12","9","28.23","-80.71","A","GD"
"32941","FL","Melbourne","Brevard","12","9","28.08","-80.63","A","POB"
"32948","FL","Fellsmere","Indian River","12","61","27.78","-80.61","A","GD"
"32949","FL","Grant","Brevard","12","9","27.93","-80.53","A","GD"
"32950","FL","Malabar","Brevard","12","9","27.99","-80.58","A","GD"
"32951","FL","Melbourne Beach","Brevard","12","9","28.02","-80.54","A","GD"
"32952","FL","Merritt Island","Brevard","12","9","28.35","-80.69","A","GD"
"32953","FL","Merritt Island","Brevard","12","9","28.4","-80.7","A","GD"
"32954","FL","Merritt Island","Brevard","12","9","28.31","-80.68","A","POB"
"32955","FL","Rockledge","Brevard","12","9","28.31","-80.73","A","GD"
"32956","FL","Rockledge","Brevard","12","9","28.32","-80.73","A","POB"
"32957","FL","Roseland","Indian River","12","61","27.83","-80.49","A","POB"
"32958","FL","Sebastian","Indian River","12","61","27.79","-80.48","A","GD"
"32959","FL","Sharpes","Brevard","12","9","28.46","-80.83","A","POB"
"32960","FL","Vero Beach","Indian River","12","61","27.64","-80.4","A","GD"
"32961","FL","Vero Beach","Indian River","12","61","27.63","-80.38","A","POB"
"32962","FL","Vero Beach","Indian River","12","61","27.58","-80.39","A","GD"
"32963","FL","Vero Beach","Indian River","12","61","27.69","-80.37","A","GD"
"32964","FL","Vero Beach","Indian River","12","61","27.64","-80.4","A","POB"
"32965","FL","Vero Beach","Indian River","12","61","27.65","-80.39","A","POB"
"32966","FL","Vero Beach","Indian River","12","61","27.64","-80.51","A","GD"
"32967","FL","Vero Beach","Indian River","12","61","27.72","-80.46","A","GD"
"32968","FL","Vero Beach","Indian River","12","61","27.59","-80.44","A","GD"
"32969","FL","Vero Beach","Indian River","12","61","27.64","-80.42","A","POB"
"32970","FL","Wabasso","Indian River","12","61","27.75","-80.46","A","POB"
"32971","FL","Winter Beach","Indian River","12","61","27.71","-80.42","A","POB"
"32976","FL","Sebastian","Brevard","12","9","27.88","-80.52","A","GD"
"32978","FL","Sebastian","Indian River","12","61","27.79","-80.48","A","POB"
"33001","FL","Long Key","Monroe","12","87","24.82","-80.82","A","POB"
"33002","FL","Hialeah","Miami-Dade","12","86","25.9","-80.3","A","POB"
"33004","FL","Dania","Broward","12","11","26.05","-80.14","A","GD"
"33008","FL","Hallandale","Broward","12","11","25.99","-80.14","A","POB"
"33009","FL","Hallandale","Broward","12","11","25.99","-80.15","A","GD"
"33010","FL","Hialeah","Miami-Dade","12","86","25.83","-80.28","A","GD"
"33011","FL","Hialeah","Miami-Dade","12","86","25.82","-80.28","A","POB"
"33012","FL","Hialeah","Miami-Dade","12","86","25.86","-80.3","A","GD"
"33013","FL","Hialeah","Miami-Dade","12","86","25.86","-80.27","A","GD"
"33014","FL","Hialeah","Miami-Dade","12","86","25.9","-80.3","A","GD"
"33015","FL","Hialeah","Miami-Dade","12","86","25.94","-80.32","A","GD"
"33016","FL","Hialeah","Miami-Dade","12","86","25.89","-80.33","A","GD"
"33017","FL","Hialeah","Miami-Dade","12","86","25.94","-80.31","A","POB"
"33018","FL","Hialeah","Miami-Dade","12","86","25.91","-80.36","A","GD"
"33019","FL","Hollywood","Broward","12","11","26.02","-80.12","A","GD"
"33020","FL","Hollywood","Broward","12","11","26.02","-80.15","A","GD"
"33021","FL","Hollywood","Broward","12","11","26.02","-80.19","A","GD"
"33022","FL","Hollywood","Broward","12","11","26.01","-80.14","A","POB"
"33023","FL","Hollywood","Broward","12","11","25.99","-80.21","A","GD"
"33024","FL","Hollywood","Broward","12","11","26.02","-80.24","A","GD"
"33025","FL","Hollywood","Broward","12","11","25.99","-80.28","A","GD"
"33026","FL","Hollywood","Broward","12","11","26.03","-80.3","A","GD"
"33027","FL","Hollywood","Broward","12","11","25.98","-80.34","A","GD"
"33028","FL","Pembroke Pines","Broward","12","11","26.02","-80.35","A","GD"
"33029","FL","Hollywood","Broward","12","11","26","-80.4","A","GD"
"33030","FL","Homestead","Miami-Dade","12","86","25.48","-80.49","A","GD"
"33031","FL","Homestead","Miami-Dade","12","86","25.53","-80.5","A","GD"
"33032","FL","Homestead","Miami-Dade","12","86","25.53","-80.4","A","GD"
"33033","FL","Homestead","Miami-Dade","12","86","25.49","-80.43","A","GD"
"33034","FL","Homestead","Miami-Dade","12","86","25.39","-80.54","A","GD"
"33035","FL","Homestead","Miami-Dade","12","86","25.45","-80.44","A","GD"
"33036","FL","Islamorada","Monroe","12","87","24.92","-80.63","A","GD"
"33037","FL","Key Largo","Monroe","12","87","25.14","-80.4","A","GD"
"33039","FL","Homestead","Miami-Dade","12","86","25.5","-80.4","A","PVT"
"33040","FL","Key West","Monroe","12","87","24.57","-81.76","A","GD"
"33041","FL","Key West","Monroe","12","87","24.56","-81.81","A","POB"
"33042","FL","Summerland Key","Monroe","12","87","24.66","-81.49","A","GD"
"33043","FL","Big Pine Key","Monroe","12","87","24.68","-81.35","A","GD"
"33045","FL","Key West","Monroe","12","87","24.56","-81.8","A","POB"
"33050","FL","Marathon","Monroe","12","87","24.73","-81.03","A","GD"
"33051","FL","Key Colony Beach","Monroe","12","87","24.72","-81.02","A","POB"
"33052","FL","Marathon Shores","Monroe","12","87","24.73","-81.06","A","POB"
"33054","FL","Opa Locka","Miami-Dade","12","86","25.91","-80.25","A","GD"
"33055","FL","Opa Locka","Miami-Dade","12","86","25.94","-80.28","A","GD"
"33056","FL","Miami Gardens","Miami-Dade","12","86","25.95","-80.25","A","GD"
"33060","FL","Pompano Beach","Broward","12","11","26.23","-80.12","A","GD"
"33061","FL","Pompano Beach","Broward","12","11","26.24","-80.12","A","POB"
"33062","FL","Pompano Beach","Broward","12","11","26.24","-80.1","A","GD"
"33063","FL","Pompano Beach","Broward","12","11","26.25","-80.21","A","GD"
"33064","FL","Pompano Beach","Broward","12","11","26.28","-80.11","A","GD"
"33065","FL","Pompano Beach","Broward","12","11","26.27","-80.26","A","GD"
"33066","FL","Pompano Beach","Broward","12","11","26.25","-80.18","A","GD"
"33067","FL","Pompano Beach","Broward","12","11","26.3","-80.22","A","GD"
"33068","FL","Pompano Beach","Broward","12","11","26.22","-80.22","A","GD"
"33069","FL","Pompano Beach","Broward","12","11","26.23","-80.16","A","GD"
"33070","FL","Tavernier","Monroe","12","87","25","-80.53","A","GD"
"33071","FL","Pompano Beach","Broward","12","11","26.24","-80.27","A","GD"
"33072","FL","Pompano Beach","Broward","12","11","26.23","-80.09","A","POB"
"33073","FL","Pompano Beach","Broward","12","11","26.3","-80.19","A","GD"
"33074","FL","Pompano Beach","Broward","12","11","26.24","-80.13","A","POB"
"33075","FL","Coral Springs","Broward","12","11","26.25","-80.26","A","POB"
"33076","FL","Pompano Beach","Broward","12","11","26.3","-80.28","A","GD"
"33077","FL","Pompano Beach","Broward","12","11","26.25","-80.26","A","POB"
"33081","FL","Hollywood","Broward","12","11","26.02","-80.2","A","POB"
"33082","FL","Pembroke Pines","Broward","12","11","26.02","-80.2","A","POB"
"33083","FL","Hollywood","Broward","12","11","25.99","-80.21","A","POB"
"33084","FL","Hollywood","Broward","12","11","26.03","-80.25","A","POB"
"33090","FL","Homestead","Miami-Dade","12","86","25.48","-80.54","A","POB"
"33092","FL","Homestead","Miami-Dade","12","86","25.54","-80.42","A","POB"
"33093","FL","Margate","Broward","12","11","26.25","-80.21","A","POB"
"33097","FL","Coconut Creek","Broward","12","11","26.24","-80.13","A","POB"
"33101","FL","Miami","Miami-Dade","12","86","25.78","-80.2","A","POB"
"33102","FL","Miami","Miami-Dade","12","86","25.8","-80.3","A","POB"
"33106","FL","Miami","Miami-Dade","12","86","25.85","-80.3","A","PVT"
"33109","FL","Miami Beach","Miami-Dade","12","86","25.76","-80.14","A","GD"
"33111","FL","Miami","Miami-Dade","12","86","25.77","-80.19","A","POB"
"33112","FL","Miami","Miami-Dade","12","86","25.79","-80.34","A","PVT"
"33114","FL","Coral Gables","Miami-Dade","12","86","25.75","-80.27","A","POB"
"33116","FL","Miami","Miami-Dade","12","86","25.67","-80.37","A","POB"
"33119","FL","Miami Beach","Miami-Dade","12","86","25.78","-80.13","A","POB"
"33122","FL","Miami","Miami-Dade","12","86","25.8","-80.3","A","GD"
"33124","FL","Miami","Miami-Dade","12","86","25.91","-80.15","A","POB"
"33125","FL","Miami","Miami-Dade","12","86","25.78","-80.24","A","GD"
"33126","FL","Miami","Miami-Dade","12","86","25.78","-80.3","A","GD"
"33127","FL","Miami","Miami-Dade","12","86","25.81","-80.21","A","GD"
"33128","FL","Miami","Miami-Dade","12","86","25.78","-80.2","A","GD"
"33129","FL","Miami","Miami-Dade","12","86","25.76","-80.21","A","GD"
"33130","FL","Miami","Miami-Dade","12","86","25.77","-80.2","A","GD"
"33131","FL","Miami","Miami-Dade","12","86","25.77","-80.19","A","GD"
"33132","FL","Miami","Miami-Dade","12","86","25.78","-80.19","A","GD"
"33133","FL","Miami","Miami-Dade","12","86","25.73","-80.24","A","GD"
"33134","FL","Miami","Miami-Dade","12","86","25.75","-80.27","A","GD"
"33135","FL","Miami","Miami-Dade","12","86","25.77","-80.24","A","GD"
"33136","FL","Miami","Miami-Dade","12","86","25.79","-80.2","A","GD"
"33137","FL","Miami","Miami-Dade","12","86","25.82","-80.19","A","GD"
"33138","FL","Miami","Miami-Dade","12","86","25.85","-80.19","A","GD"
"33139","FL","Miami Beach","Miami-Dade","12","86","25.78","-80.14","A","GD"
"33140","FL","Miami Beach","Miami-Dade","12","86","25.82","-80.13","A","GD"
"33141","FL","Miami Beach","Miami-Dade","12","86","25.86","-80.13","A","GD"
"33142","FL","Miami","Miami-Dade","12","86","25.81","-80.24","A","GD"
"33143","FL","Miami","Miami-Dade","12","86","25.7","-80.3","A","GD"
"33144","FL","Miami","Miami-Dade","12","86","25.76","-80.31","A","GD"
"33145","FL","Miami","Miami-Dade","12","86","25.75","-80.23","A","GD"
"33146","FL","Miami","Miami-Dade","12","86","25.72","-80.27","A","GD"
"33147","FL","Miami","Miami-Dade","12","86","25.85","-80.24","A","GD"
"33149","FL","Key Biscayne","Miami-Dade","12","86","25.71","-80.16","A","GD"
"33150","FL","Miami","Miami-Dade","12","86","25.85","-80.21","A","GD"
"33151","FL","Miami","Miami-Dade","12","86","25.83","-80.21","A","POB"
"33152","FL","Miami","Miami-Dade","12","86","25.8","-80.31","A","POB"
"33153","FL","Miami","Miami-Dade","12","86","25.86","-80.19","A","POB"
"33154","FL","Miami Beach","Miami-Dade","12","86","25.88","-80.13","A","GD"
"33155","FL","Miami","Miami-Dade","12","86","25.74","-80.31","A","GD"
"33156","FL","Miami","Miami-Dade","12","86","25.67","-80.31","A","GD"
"33157","FL","Miami","Miami-Dade","12","86","25.61","-80.35","A","GD"
"33158","FL","Miami","Miami-Dade","12","86","25.64","-80.31","A","GD"
"33160","FL","North Miami Beach","Miami-Dade","12","86","25.94","-80.14","A","GD"
"33161","FL","Miami","Miami-Dade","12","86","25.89","-80.18","A","GD"
"33162","FL","Miami","Miami-Dade","12","86","25.93","-80.18","A","GD"
"33163","FL","Miami","Miami-Dade","12","86","25.96","-80.14","A","POB"
"33164","FL","Miami","Miami-Dade","12","86","25.93","-80.18","A","POB"
"33165","FL","Miami","Miami-Dade","12","86","25.73","-80.36","A","GD"
"33166","FL","Miami","Miami-Dade","12","86","25.82","-80.3","A","GD"
"33167","FL","Miami","Miami-Dade","12","86","25.89","-80.23","A","GD"
"33168","FL","Miami","Miami-Dade","12","86","25.89","-80.21","A","GD"
"33169","FL","Miami","Miami-Dade","12","86","25.94","-80.21","A","GD"
"33170","FL","Miami","Miami-Dade","12","86","25.56","-80.41","A","GD"
"33172","FL","Miami","Miami-Dade","12","86","25.78","-80.36","A","GD"
"33173","FL","Miami","Miami-Dade","12","86","25.7","-80.36","A","GD"
"33174","FL","Miami","Miami-Dade","12","86","25.76","-80.36","A","GD"
"33175","FL","Miami","Miami-Dade","12","86","25.73","-80.41","A","GD"
"33176","FL","Miami","Miami-Dade","12","86","25.66","-80.36","A","GD"
"33177","FL","Miami","Miami-Dade","12","86","25.6","-80.4","A","GD"
"33178","FL","Miami","Miami-Dade","12","86","25.84","-80.38","A","GD"
"33179","FL","Miami","Miami-Dade","12","86","25.96","-80.18","A","GD"
"33180","FL","Miami","Miami-Dade","12","86","25.96","-80.14","A","GD"
"33181","FL","Miami","Miami-Dade","12","86","25.9","-80.16","A","GD"
"33182","FL","Miami","Miami-Dade","12","86","25.78","-80.41","A","GD"
"33183","FL","Miami","Miami-Dade","12","86","25.7","-80.41","A","GD"
"33184","FL","Miami","Miami-Dade","12","86","25.76","-80.41","A","GD"
"33185","FL","Miami","Miami-Dade","12","86","25.73","-80.44","A","GD"
"33186","FL","Miami","Miami-Dade","12","86","25.66","-80.41","A","GD"
"33187","FL","Miami","Miami-Dade","12","86","25.6","-80.47","A","GD"
"33188","FL","Miami","Miami-Dade","12","86","25.81","-80.24","A","PVT"
"33189","FL","Miami","Miami-Dade","12","86","25.58","-80.35","A","GD"
"33190","FL","Miami","Miami-Dade","12","86","25.56","-80.35","A","GD"
"33191","FL","Miami","Miami-Dade","12","86","25.79","-80.33","A","GD"
"33192","FL","Miami","Miami-Dade","12","86","25.8","-80.36","A","GD"
"33193","FL","Miami","Miami-Dade","12","86","25.7","-80.45","A","GD"
"33194","FL","Miami","Miami-Dade","12","86","25.75","-80.5","A","GD"
"33195","FL","Miami","Miami-Dade","12","86","25.82","-80.31","A","GD"
"33196","FL","Miami","Miami-Dade","12","86","25.66","-80.45","A","GD"
"33197","FL","Miami","Miami-Dade","12","86","25.6","-80.36","A","POB"
"33198","FL","Miami","Miami-Dade","12","86","25.81","-80.31","A","GD"
"33199","FL","Miami","Miami-Dade","12","86","25.76","-80.37","A","PVT"
"33206","FL","Miami","Miami-Dade","12","86","25.77","-80.19","A","GD"
"33222","FL","Miami","Miami-Dade","12","86","25.77","-80.34","A","POB"
"33231","FL","Miami","Miami-Dade","12","86","25.76","-80.19","A","POB"
"33233","FL","Miami","Miami-Dade","12","86","25.73","-80.24","A","POB"
"33234","FL","Miami","Miami-Dade","12","86","25.75","-80.27","A","POB"
"33238","FL","Miami","Miami-Dade","12","86","25.86","-80.18","A","POB"
"33239","FL","Miami Beach","Miami-Dade","12","86","25.79","-80.14","A","POB"
"33242","FL","Miami","Miami-Dade","12","86","25.81","-80.24","A","POB"
"33243","FL","Miami","Miami-Dade","12","86","25.7","-80.3","A","POB"
"33245","FL","Miami","Miami-Dade","12","86","25.75","-80.29","A","POB"
"33247","FL","Miami","Miami-Dade","12","86","25.85","-80.24","A","POB"
"33255","FL","Miami","Miami-Dade","12","86","25.77","-80.19","A","POB"
"33256","FL","Miami","Miami-Dade","12","86","25.66","-80.33","A","POB"
"33257","FL","Miami","Miami-Dade","12","86","25.61","-80.35","A","POB"
"33261","FL","Miami","Miami-Dade","12","86","25.89","-80.18","A","POB"
"33265","FL","Miami","Miami-Dade","12","86","25.73","-80.38","A","POB"
"33266","FL","Miami","Miami-Dade","12","86","25.83","-80.31","A","POB"
"33269","FL","Miami","Miami-Dade","12","86","25.94","-80.22","A","POB"
"33280","FL","Miami","Miami-Dade","12","86","25.93","-80.14","A","POB"
"33283","FL","Miami","Miami-Dade","12","86","25.7","-80.38","A","POB"
"33296","FL","Miami","Miami-Dade","12","86","25.66","-80.36","A","POB"
"33299","FL","Miami","Miami-Dade","12","86","25.78","-80.21","A","POB"
"33301","FL","Fort Lauderdale","Broward","12","11","26.12","-80.13","A","GD"
"33302","FL","Fort Lauderdale","Broward","12","11","26.04","-80.2","A","POB"
"33303","FL","Fort Lauderdale","Broward","12","11","26.2","-80.1","A","POB"
"33304","FL","Fort Lauderdale","Broward","12","11","26.14","-80.13","A","GD"
"33305","FL","Fort Lauderdale","Broward","12","11","26.15","-80.13","A","GD"
"33306","FL","Fort Lauderdale","Broward","12","11","26.17","-80.11","A","GD"
"33307","FL","Fort Lauderdale","Broward","12","11","26.18","-80.28","A","POB"
"33308","FL","Fort Lauderdale","Broward","12","11","26.19","-80.11","A","GD"
"33309","FL","Fort Lauderdale","Broward","12","11","26.19","-80.17","A","GD"
"33310","FL","Fort Lauderdale","Broward","12","11","26.16","-80.17","A","POB"
"33311","FL","Fort Lauderdale","Broward","12","11","26.14","-80.17","A","GD"
"33312","FL","Fort Lauderdale","Broward","12","11","26.09","-80.18","A","GD"
"33313","FL","Fort Lauderdale","Broward","12","11","26.15","-80.23","A","GD"
"33314","FL","Fort Lauderdale","Broward","12","11","26.07","-80.22","A","GD"
"33315","FL","Fort Lauderdale","Broward","12","11","26.09","-80.15","A","GD"
"33316","FL","Fort Lauderdale","Broward","12","11","26.1","-80.13","A","GD"
"33317","FL","Fort Lauderdale","Broward","12","11","26.11","-80.22","A","GD"
"33318","FL","Fort Lauderdale","Broward","12","11","26.12","-80.25","A","POB"
"33319","FL","Fort Lauderdale","Broward","12","11","26.18","-80.22","A","GD"
"33320","FL","Fort Lauderdale","Broward","12","11","26.14","-80.14","A","POB"
"33321","FL","Fort Lauderdale","Broward","12","11","26.21","-80.27","A","GD"
"33322","FL","Fort Lauderdale","Broward","12","11","26.15","-80.27","A","GD"
"33323","FL","Fort Lauderdale","Broward","12","11","26.16","-80.31","A","GD"
"33324","FL","Fort Lauderdale","Broward","12","11","26.11","-80.27","A","GD"
"33325","FL","Fort Lauderdale","Broward","12","11","26.11","-80.32","A","GD"
"33326","FL","Fort Lauderdale","Broward","12","11","26.11","-80.37","A","GD"
"33327","FL","Fort Lauderdale","Broward","12","11","26.12","-80.41","A","GD"
"33328","FL","Fort Lauderdale","Broward","12","11","26.06","-80.27","A","GD"
"33329","FL","Fort Lauderdale","Broward","12","11","26.11","-80.28","A","POB"
"33330","FL","Fort Lauderdale","Broward","12","11","26.06","-80.31","A","GD"
"33331","FL","Fort Lauderdale","Broward","12","11","26.05","-80.36","A","GD"
"33332","FL","Fort Lauderdale","Broward","12","11","26.05","-80.41","A","GD"
"33334","FL","Fort Lauderdale","Broward","12","11","26.18","-80.13","A","GD"
"33335","FL","Fort Lauderdale","Broward","12","11","26.18","-80.13","A","POB"
"33336","FL","Fort Lauderdale","Broward","12","11","26.14","-80.14","A","PVT"
"33337","FL","Fort Lauderdale","Broward","12","11","26.11","-80.28","A","PVT"
"33338","FL","Fort Lauderdale","Broward","12","11","26.14","-80.13","A","POB"
"33339","FL","Fort Lauderdale","Broward","12","11","26.17","-80.11","A","POB"
"33340","FL","Fort Lauderdale","Broward","12","11","26.14","-80.17","A","POB"
"33345","FL","Fort Lauderdale","Broward","12","11","26.18","-80.28","A","POB"
"33346","FL","Fort Lauderdale","Broward","12","11","26.1","-80.13","A","POB"
"33348","FL","Fort Lauderdale","Broward","12","11","26.19","-80.11","A","POB"
"33349","FL","Fort Lauderdale","Broward","12","11","26.18","-80.23","A","POB"
"33351","FL","Fort Lauderdale","Broward","12","11","26.18","-80.28","A","GD"
"33355","FL","Fort Lauderdale","Broward","12","11","26.11","-80.3","A","POB"
"33359","FL","Fort Lauderdale","Broward","12","11","26.18","-80.23","A","POB"
"33388","FL","Plantation","Broward","12","11","26.12","-80.25","A","GD"
"33394","FL","Fort Lauderdale","Broward","12","11","26.12","-80.14","A","GD"
"33401","FL","West Palm Beach","Palm Beach","12","99","26.71","-80.06","A","GD"
"33402","FL","West Palm Beach","Palm Beach","12","99","26.72","-80.05","A","POB"
"33403","FL","West Palm Beach","Palm Beach","12","99","26.8","-80.07","A","GD"
"33404","FL","West Palm Beach","Palm Beach","12","99","26.78","-80.07","A","GD"
"33405","FL","West Palm Beach","Palm Beach","12","99","26.67","-80.06","A","GD"
"33406","FL","West Palm Beach","Palm Beach","12","99","26.66","-80.09","A","GD"
"33407","FL","West Palm Beach","Palm Beach","12","99","26.75","-80.07","A","GD"
"33408","FL","North Palm Beach","Palm Beach","12","99","26.84","-80.06","A","GD"
"33409","FL","West Palm Beach","Palm Beach","12","99","26.71","-80.1","A","GD"
"33410","FL","Palm Beach Gardens","Palm Beach","12","99","26.84","-80.09","A","GD"
"33411","FL","West Palm Beach","Palm Beach","12","99","26.72","-80.22","A","GD"
"33412","FL","West Palm Beach","Palm Beach","12","99","26.8","-80.24","A","GD"
"33413","FL","West Palm Beach","Palm Beach","12","99","26.67","-80.15","A","GD"
"33414","FL","Wellington","Palm Beach","12","99","26.66","-80.25","A","GD"
"33415","FL","West Palm Beach","Palm Beach","12","99","26.66","-80.13","A","GD"
"33416","FL","West Palm Beach","Palm Beach","12","99","26.67","-80.09","A","POB"
"33417","FL","West Palm Beach","Palm Beach","12","99","26.72","-80.13","A","GD"
"33418","FL","Palm Beach Gardens","Palm Beach","12","99","26.85","-80.14","A","GD"
"33419","FL","West Palm Beach","Palm Beach","12","99","26.78","-80.09","A","POB"
"33420","FL","West Palm Beach","Palm Beach","12","99","26.86","-80.09","A","POB"
"33421","FL","Royal Palm Beach","Palm Beach","12","99","26.68","-80.21","A","POB"
"33422","FL","West Palm Beach","Palm Beach","12","99","26.75","-80.13","A","POB"
"33424","FL","Boynton Beach","Palm Beach","12","99","26.52","-80.11","A","POB"
"33425","FL","Boynton Beach","Palm Beach","12","99","26.52","-80.13","A","POB"
"33426","FL","Boynton Beach","Palm Beach","12","99","26.53","-80.08","A","GD"
"33427","FL","Boca Raton","Palm Beach","12","99","26.35","-80.08","A","POB"
"33428","FL","Boca Raton","Palm Beach","12","99","26.35","-80.21","A","GD"
"33429","FL","Boca Raton","Palm Beach","12","99","26.35","-80.08","A","POB"
"33430","FL","Belle Glade","Palm Beach","12","99","26.68","-80.66","A","GD"
"33431","FL","Boca Raton","Palm Beach","12","99","26.38","-80.1","A","GD"
"33432","FL","Boca Raton","Palm Beach","12","99","26.35","-80.08","A","GD"
"33433","FL","Boca Raton","Palm Beach","12","99","26.35","-80.16","A","GD"
"33434","FL","Boca Raton","Palm Beach","12","99","26.38","-80.17","A","GD"
"33435","FL","Boynton Beach","Palm Beach","12","99","26.52","-80.06","A","GD"
"33436","FL","Boynton Beach","Palm Beach","12","99","26.53","-80.11","A","GD"
"33437","FL","Boynton Beach","Palm Beach","12","99","26.51","-80.15","A","GD"
"33438","FL","Canal Point","Palm Beach","12","99","26.92","-80.6","A","GD"
"33440","FL","Clewiston","Hendry","12","51","26.65","-81.01","A","GD"
"33441","FL","Deerfield Beach","Broward","12","11","26.31","-80.1","A","GD"
"33442","FL","Deerfield Beach","Broward","12","11","26.31","-80.14","A","GD"
"33443","FL","Deerfield Beach","Broward","12","11","26.32","-80.12","A","POB"
"33444","FL","Delray Beach","Palm Beach","12","99","26.46","-80.08","A","GD"
"33445","FL","Delray Beach","Palm Beach","12","99","26.46","-80.11","A","GD"
"33446","FL","Delray Beach","Palm Beach","12","99","26.45","-80.16","A","GD"
"33448","FL","Delray Beach","Palm Beach","12","99","26.45","-80.21","A","POB"
"33449","FL","Lake Worth","Palm Beach","12","99","26.61","-80.22","A","GD"
"33454","FL","Greenacres","Palm Beach","12","99","26.6","-80.2","A","POB"
"33455","FL","Hobe Sound","Martin","12","85","27.08","-80.15","A","GD"
"33458","FL","Jupiter","Palm Beach","12","99","26.92","-80.12","A","GD"
"33459","FL","Lake Harbor","Palm Beach","12","99","26.69","-80.81","A","POB"
"33460","FL","Lake Worth","Palm Beach","12","99","26.62","-80.06","A","GD"
"33461","FL","Lake Worth","Palm Beach","12","99","26.62","-80.09","A","GD"
"33462","FL","Lake Worth","Palm Beach","12","99","26.58","-80.07","A","GD"
"33463","FL","Lake Worth","Palm Beach","12","99","26.61","-80.13","A","GD"
"33464","FL","Boca Raton","Palm Beach","12","99","26.58","-80.05","A","PVT"
"33465","FL","Lake Worth","Palm Beach","12","99","26.58","-80.09","A","POB"
"33466","FL","Lake Worth","Palm Beach","12","99","26.62","-80.06","A","POB"
"33467","FL","Lake Worth","Palm Beach","12","99","26.6","-80.17","A","GD"
"33468","FL","Jupiter","Palm Beach","12","99","26.94","-80.11","A","POB"
"33469","FL","Jupiter","Palm Beach","12","99","26.97","-80.1","A","GD"
"33470","FL","Loxahatchee","Palm Beach","12","99","26.76","-80.3","A","GD"
"33471","FL","Moore Haven","Glades","12","43","26.84","-81.12","A","GD"
"33472","FL","Boynton Beach","Palm Beach","12","99","26.54","-80.17","A","GD"
"33473","FL","Boynton Beach","Palm Beach","12","99","26.51","-80.19","A","GD"
"33474","FL","Boynton Beach","Palm Beach","12","99","26.53","-80.08","A","POB"
"33475","FL","Hobe Sound","Martin","12","85","27.04","-80.12","A","POB"
"33476","FL","Pahokee","Palm Beach","12","99","26.82","-80.65","A","GD"
"33477","FL","Jupiter","Palm Beach","12","99","26.92","-80.08","A","GD"
"33478","FL","Jupiter","Palm Beach","12","99","26.93","-80.23","A","GD"
"33480","FL","Palm Beach","Palm Beach","12","99","26.71","-80.04","A","GD"
"33481","FL","Boca Raton","Palm Beach","12","99","26.38","-80.1","A","POB"
"33482","FL","Delray Beach","Palm Beach","12","99","26.45","-80.09","A","POB"
"33483","FL","Delray Beach","Palm Beach","12","99","26.46","-80.07","A","GD"
"33484","FL","Delray Beach","Palm Beach","12","99","26.45","-80.13","A","GD"
"33486","FL","Boca Raton","Palm Beach","12","99","26.34","-80.11","A","GD"
"33487","FL","Boca Raton","Palm Beach","12","99","26.41","-80.09","A","GD"
"33488","FL","Boca Raton","Palm Beach","12","99","26.36","-80.17","A","POB"
"33493","FL","South Bay","Palm Beach","12","99","26.63","-80.71","A","GD"
"33496","FL","Boca Raton","Palm Beach","12","99","26.4","-80.16","A","GD"
"33497","FL","Boca Raton","Palm Beach","12","99","26.35","-80.23","A","POB"
"33498","FL","Boca Raton","Palm Beach","12","99","26.39","-80.22","A","GD"
"33499","FL","Boca Raton","Palm Beach","12","99","26.41","-80.11","A","PVT"
"33503","FL","Balm","Hillsborough","12","57","27.76","-82.28","A","POB"
"33508","FL","Brandon","Hillsborough","12","57","27.93","-82.29","A","POB"
"33509","FL","Brandon","Hillsborough","12","57","27.89","-82.33","A","POB"
"33510","FL","Brandon","Hillsborough","12","57","27.96","-82.3","A","GD"
"33511","FL","Brandon","Hillsborough","12","57","27.91","-82.3","A","GD"
"33513","FL","Bushnell","Sumter","12","119","28.66","-82.15","A","GD"
"33514","FL","Center Hill","Sumter","12","119","28.66","-81.99","A","GD"
"33521","FL","Coleman","Sumter","12","119","28.8","-82.07","A","POB"
"33523","FL","Dade City","Pasco","12","101","28.43","-82.21","A","GD"
"33524","FL","Crystal Springs","Pasco","12","101","28.18","-82.16","A","POB"
"33525","FL","Dade City","Pasco","12","101","28.34","-82.2","A","GD"
"33526","FL","Dade City","Pasco","12","101","28.41","-82.19","A","POB"
"33527","FL","Dover","Hillsborough","12","57","27.98","-82.22","A","GD"
"33530","FL","Durant","Hillsborough","12","57","27.9","-82.16","A","POB"
"33534","FL","Gibsonton","Hillsborough","12","57","27.83","-82.38","A","GD"
"33537","FL","Lacoochee","Pasco","12","101","28.46","-82.18","A","POB"
"33538","FL","Lake Panasoffkee","Sumter","12","119","28.84","-82.15","A","GD"
"33539","FL","Zephyrhills","Pasco","12","101","28.25","-82.3","A","POB"
"33540","FL","Zephyrhills","Pasco","12","101","28.24","-82.15","A","GD"
"33541","FL","Zephyrhills","Pasco","12","101","28.23","-82.21","A","GD"
"33542","FL","Zephyrhills","Pasco","12","101","28.24","-82.18","A","GD"
"33543","FL","Wesley Chapel","Pasco","12","101","28.2","-82.3","A","GD"
"33544","FL","Wesley Chapel","Pasco","12","101","28.23","-82.37","A","GD"
"33545","FL","Wesley Chapel","Pasco","12","101","28.26","-82.3","A","GD"
"33547","FL","Lithia","Hillsborough","12","57","27.81","-82.15","A","GD"
"33548","FL","Lutz","Hillsborough","12","57","28.14","-82.47","A","GD"
"33549","FL","Lutz","Hillsborough","12","57","28.13","-82.45","A","GD"
"33550","FL","Mango","Hillsborough","12","57","27.98","-82.31","A","POB"
"33556","FL","Odessa","Hillsborough","12","57","28.13","-82.58","A","GD"
"33558","FL","Lutz","Hillsborough","12","57","28.15","-82.52","A","GD"
"33559","FL","Lutz","Hillsborough","12","57","28.15","-82.41","A","GD"
"33563","FL","Plant City","Hillsborough","12","57","28.02","-82.13","A","GD"
"33564","FL","Plant City","Hillsborough","12","57","28.02","-82.1","A","POB"
"33565","FL","Plant City","Hillsborough","12","57","28.07","-82.14","A","GD"
"33566","FL","Plant City","Hillsborough","12","57","27.98","-82.13","A","GD"
"33567","FL","Plant City","Hillsborough","12","57","27.92","-82.14","A","GD"
"33568","FL","Riverview","Hillsborough","12","57","27.87","-82.32","A","POB"
"33569","FL","Riverview","Hillsborough","12","57","27.85","-82.31","A","GD"
"33570","FL","Ruskin","Hillsborough","12","57","27.7","-82.45","A","GD"
"33571","FL","Sun City Center","Hillsborough","12","57","27.68","-82.34","A","POB"
"33572","FL","Apollo Beach","Hillsborough","12","57","27.76","-82.41","A","GD"
"33573","FL","Sun City Center","Hillsborough","12","57","27.71","-82.36","A","GD"
"33574","FL","Saint Leo","Pasco","12","101","28.33","-82.27","A","POB"
"33575","FL","Ruskin","Hillsborough","12","57","27.71","-82.42","A","POB"
"33576","FL","San Antonio","Pasco","12","101","28.33","-82.3","A","GD"
"33578","FL","Riverview","Hillsborough","12","57","27.86","-82.34","A","GD"
"33579","FL","Riverview","Hillsborough","12","57","27.8","-82.3","A","GD"
"33583","FL","Seffner","Hillsborough","12","57","28","-82.27","A","POB"
"33584","FL","Seffner","Hillsborough","12","57","28","-82.29","A","GD"
"33585","FL","Sumterville","Sumter","12","119","28.75","-82.07","A","GD"
"33586","FL","Sun City","Hillsborough","12","57","27.68","-82.48","A","POB"
"33587","FL","Sydney","Hillsborough","12","57","27.98","-82.2","A","POB"
"33592","FL","Thonotosassa","Hillsborough","12","57","28.08","-82.3","A","GD"
"33593","FL","Trilby","Pasco","12","101","28.46","-82.2","A","POB"
"33594","FL","Valrico","Hillsborough","12","57","27.93","-82.24","A","GD"
"33595","FL","Valrico","Hillsborough","12","57","27.94","-82.25","A","POB"
"33596","FL","Valrico","Hillsborough","12","57","27.89","-82.24","A","GD"
"33597","FL","Webster","Sumter","12","119","28.56","-82.12","A","GD"
"33598","FL","Wimauma","Hillsborough","12","57","27.69","-82.33","A","GD"
"33601","FL","Tampa","Hillsborough","12","57","27.98","-82.34","A","POB"
"33602","FL","Tampa","Hillsborough","12","57","27.95","-82.46","A","GD"
"33603","FL","Tampa","Hillsborough","12","57","27.98","-82.46","A","GD"
"33604","FL","Tampa","Hillsborough","12","57","28.02","-82.46","A","GD"
"33605","FL","Tampa","Hillsborough","12","57","27.96","-82.43","A","GD"
"33606","FL","Tampa","Hillsborough","12","57","27.94","-82.47","A","GD"
"33607","FL","Tampa","Hillsborough","12","57","27.96","-82.5","A","GD"
"33608","FL","Tampa","Hillsborough","12","57","27.84","-82.51","A","POB"
"33609","FL","Tampa","Hillsborough","12","57","27.94","-82.51","A","GD"
"33610","FL","Tampa","Hillsborough","12","57","27.99","-82.4","A","GD"
"33611","FL","Tampa","Hillsborough","12","57","27.89","-82.51","A","GD"
"33612","FL","Tampa","Hillsborough","12","57","28.05","-82.45","A","GD"
"33613","FL","Tampa","Hillsborough","12","57","28.08","-82.45","A","GD"
"33614","FL","Tampa","Hillsborough","12","57","28.01","-82.5","A","GD"
"33615","FL","Tampa","Hillsborough","12","57","28.01","-82.58","A","GD"
"33616","FL","Tampa","Hillsborough","12","57","27.87","-82.52","A","GD"
"33617","FL","Tampa","Hillsborough","12","57","28.04","-82.39","A","GD"
"33618","FL","Tampa","Hillsborough","12","57","28.07","-82.5","A","GD"
"33619","FL","Tampa","Hillsborough","12","57","27.94","-82.38","A","GD"
"33620","FL","Tampa","Hillsborough","12","57","28.06","-82.41","A","PVT"
"33621","FL","Tampa","Hillsborough","12","57","27.85","-82.49","A","GD"
"33622","FL","Tampa","Hillsborough","12","57","27.96","-82.46","A","POB"
"33623","FL","Tampa","Hillsborough","12","57","27.96","-82.46","A","POB"
"33624","FL","Tampa","Hillsborough","12","57","28.08","-82.53","A","GD"
"33625","FL","Tampa","Hillsborough","12","57","28.07","-82.56","A","GD"
"33626","FL","Tampa","Hillsborough","12","57","28.06","-82.62","A","GD"
"33629","FL","Tampa","Hillsborough","12","57","27.92","-82.51","A","GD"
"33630","FL","Tampa","Hillsborough","12","57","27.97","-82.52","A","POB"
"33631","FL","Tampa","Hillsborough","12","57","27.96","-82.53","A","POB"
"33633","FL","Tampa","Hillsborough","12","57","27.97","-82.49","A","PVT"
"33634","FL","Tampa","Hillsborough","12","57","28","-82.55","A","GD"
"33635","FL","Tampa","Hillsborough","12","57","28.03","-82.61","A","GD"
"33637","FL","Tampa","Hillsborough","12","57","28.04","-82.36","A","GD"
"33646","FL","Tampa","Hillsborough","12","57","28.12","-82.36","A","POB"
"33647","FL","Tampa","Hillsborough","12","57","28.13","-82.36","A","GD"
"33650","FL","Tampa","Hillsborough","12","57","27.97","-82.52","A","PVT"
"33655","FL","Tampa","Hillsborough","12","57","27.95","-82.46","A","PVT"
"33660","FL","Tampa","Hillsborough","12","57","27.93","-82.37","A","PVT"
"33661","FL","Tampa","Hillsborough","12","57","27.97","-82.35","A","PVT"
"33662","FL","Tampa","Hillsborough","12","57","27.97","-82.35","A","PVT"
"33663","FL","Tampa","Hillsborough","12","57","27.96","-82.53","A","PVT"
"33664","FL","Tampa","Hillsborough","12","57","27.96","-82.53","A","PVT"
"33672","FL","Tampa","Hillsborough","12","57","27.96","-82.46","A","POB"
"33673","FL","Tampa","Hillsborough","12","57","27.99","-82.46","A","POB"
"33674","FL","Tampa","Hillsborough","12","57","28.02","-82.46","A","POB"
"33675","FL","Tampa","Hillsborough","12","57","27.96","-82.44","A","POB"
"33677","FL","Tampa","Hillsborough","12","57","27.97","-82.52","A","POB"
"33679","FL","Tampa","Hillsborough","12","57","27.95","-82.51","A","POB"
"33680","FL","Tampa","Hillsborough","12","57","28","-82.4","A","POB"
"33681","FL","Tampa","Hillsborough","12","57","27.9","-82.52","A","POB"
"33682","FL","Tampa","Hillsborough","12","57","28.06","-82.46","A","POB"
"33684","FL","Tampa","Hillsborough","12","57","28","-82.5","A","POB"
"33685","FL","Tampa","Hillsborough","12","57","28","-82.58","A","POB"
"33686","FL","Tampa","Hillsborough","12","57","27.87","-82.53","A","POB"
"33687","FL","Tampa","Hillsborough","12","57","28.04","-82.39","A","POB"
"33688","FL","Tampa","Hillsborough","12","57","28.06","-82.5","A","POB"
"33689","FL","Tampa","Hillsborough","12","57","27.95","-82.46","A","POB"
"33694","FL","Tampa","Hillsborough","12","57","28.07","-82.5","A","POB"
"33701","FL","Saint Petersburg","Pinellas","12","103","27.77","-82.64","A","GD"
"33702","FL","Saint Petersburg","Pinellas","12","103","27.85","-82.64","A","GD"
"33703","FL","Saint Petersburg","Pinellas","12","103","27.82","-82.63","A","GD"
"33704","FL","Saint Petersburg","Pinellas","12","103","27.8","-82.64","A","GD"
"33705","FL","Saint Petersburg","Pinellas","12","103","27.74","-82.64","A","GD"
"33706","FL","Saint Petersburg","Pinellas","12","103","27.74","-82.75","A","GD"
"33707","FL","Saint Petersburg","Pinellas","12","103","27.76","-82.72","A","GD"
"33708","FL","Saint Petersburg","Pinellas","12","103","27.81","-82.79","A","GD"
"33709","FL","Saint Petersburg","Pinellas","12","103","27.82","-82.73","A","GD"
"33710","FL","Saint Petersburg","Pinellas","12","103","27.79","-82.72","A","GD"
"33711","FL","Saint Petersburg","Pinellas","12","103","27.75","-82.69","A","GD"
"33712","FL","Saint Petersburg","Pinellas","12","103","27.75","-82.67","A","GD"
"33713","FL","Saint Petersburg","Pinellas","12","103","27.79","-82.68","A","GD"
"33714","FL","Saint Petersburg","Pinellas","12","103","27.82","-82.68","A","GD"
"33715","FL","Saint Petersburg","Pinellas","12","103","27.68","-82.72","A","GD"
"33716","FL","Saint Petersburg","Pinellas","12","103","27.88","-82.65","A","GD"
"33729","FL","Saint Petersburg","Pinellas","12","103","27.88","-82.67","A","PVT"
"33730","FL","Saint Petersburg","Pinellas","12","103","27.77","-82.68","A","GD"
"33731","FL","Saint Petersburg","Pinellas","12","103","27.71","-82.68","A","POB"
"33732","FL","Saint Petersburg","Pinellas","12","103","27.76","-82.64","A","POB"
"33733","FL","Saint Petersburg","Pinellas","12","103","27.77","-82.68","A","POB"
"33734","FL","Saint Petersburg","Pinellas","12","103","27.8","-82.65","A","POB"
"33736","FL","Saint Petersburg","Pinellas","12","103","27.74","-82.75","A","POB"
"33737","FL","Saint Petersburg","Pinellas","12","103","27.74","-82.71","A","POB"
"33738","FL","Saint Petersburg","Pinellas","12","103","27.8","-82.8","A","POB"
"33740","FL","Saint Petersburg","Pinellas","12","103","27.77","-82.77","A","POB"
"33741","FL","Saint Petersburg","Pinellas","12","103","27.69","-82.74","A","POB"
"33742","FL","Saint Petersburg","Pinellas","12","103","27.85","-82.65","A","POB"
"33743","FL","Saint Petersburg","Pinellas","12","103","27.78","-82.73","A","POB"
"33744","FL","Bay Pines","Pinellas","12","103","27.81","-82.78","A","POB"
"33747","FL","Saint Petersburg","Pinellas","12","103","27.78","-82.66","A","POB"
"33755","FL","Clearwater","Pinellas","12","103","27.98","-82.78","A","GD"
"33756","FL","Clearwater","Pinellas","12","103","27.94","-82.79","A","GD"
"33757","FL","Clearwater","Pinellas","12","103","27.98","-82.78","A","POB"
"33758","FL","Clearwater","Pinellas","12","103","27.98","-82.75","A","POB"
"33759","FL","Clearwater","Pinellas","12","103","27.98","-82.72","A","GD"
"33760","FL","Clearwater","Pinellas","12","103","27.91","-82.71","A","GD"
"33761","FL","Clearwater","Pinellas","12","103","28.03","-82.73","A","GD"
"33762","FL","Clearwater","Pinellas","12","103","27.89","-82.69","A","GD"
"33763","FL","Clearwater","Pinellas","12","103","28","-82.74","A","GD"
"33764","FL","Clearwater","Pinellas","12","103","27.93","-82.74","A","GD"
"33765","FL","Clearwater","Pinellas","12","103","27.97","-82.75","A","GD"
"33766","FL","Clearwater","Pinellas","12","103","28.03","-82.72","A","POB"
"33767","FL","Clearwater Beach","Pinellas","12","103","27.98","-82.83","A","GD"
"33769","FL","Clearwater","Pinellas","12","103","27.99","-82.75","A","PVT"
"33770","FL","Largo","Pinellas","12","103","27.92","-82.8","A","GD"
"33771","FL","Largo","Pinellas","12","103","27.91","-82.76","A","GD"
"33772","FL","Seminole","Pinellas","12","103","27.84","-82.79","A","GD"
"33773","FL","Largo","Pinellas","12","103","27.88","-82.76","A","GD"
"33774","FL","Largo","Pinellas","12","103","27.88","-82.83","A","GD"
"33775","FL","Seminole","Pinellas","12","103","27.84","-82.8","A","POB"
"33776","FL","Seminole","Pinellas","12","103","27.85","-82.83","A","GD"
"33777","FL","Seminole","Pinellas","12","103","27.85","-82.76","A","GD"
"33778","FL","Largo","Pinellas","12","103","27.88","-82.79","A","GD"
"33779","FL","Largo","Pinellas","12","103","27.91","-82.76","A","POB"
"33780","FL","Pinellas Park","Pinellas","12","103","27.84","-82.72","A","POB"
"33781","FL","Pinellas Park","Pinellas","12","103","27.84","-82.71","A","GD"
"33782","FL","Pinellas Park","Pinellas","12","103","27.86","-82.71","A","GD"
"33784","FL","Saint Petersburg","Pinellas","12","103","27.82","-82.68","A","POB"
"33785","FL","Indian Rocks Beach","Pinellas","12","103","27.88","-82.85","A","GD"
"33786","FL","Belleair Beach","Pinellas","12","103","27.92","-82.84","A","GD"
"33801","FL","Lakeland","Polk","12","105","28.04","-81.92","A","GD"
"33802","FL","Lakeland","Polk","12","105","28.06","-81.94","A","POB"
"33803","FL","Lakeland","Polk","12","105","28.01","-81.95","A","GD"
"33804","FL","Lakeland","Polk","12","105","28.08","-81.95","A","POB"
"33805","FL","Lakeland","Polk","12","105","28.08","-81.95","A","GD"
"33806","FL","Lakeland","Polk","12","105","28.03","-81.96","A","POB"
"33807","FL","Lakeland","Polk","12","105","27.95","-81.99","A","POB"
"33809","FL","Lakeland","Polk","12","105","28.14","-81.95","A","GD"
"33810","FL","Lakeland","Polk","12","105","28.12","-82.01","A","GD"
"33811","FL","Lakeland","Polk","12","105","27.98","-82.01","A","GD"
"33812","FL","Lakeland","Polk","12","105","27.97","-81.89","A","GD"
"33813","FL","Lakeland","Polk","12","105","27.96","-81.94","A","GD"
"33815","FL","Lakeland","Polk","12","105","28.04","-81.99","A","GD"
"33820","FL","Alturas","Polk","12","105","27.86","-81.71","A","POB"
"33823","FL","Auburndale","Polk","12","105","28.07","-81.81","A","GD"
"33825","FL","Avon Park","Highlands","12","55","27.6","-81.51","A","GD"
"33826","FL","Avon Park","Highlands","12","55","27.59","-81.5","A","POB"
"33827","FL","Babson Park","Polk","12","105","27.82","-81.53","A","GD"
"33830","FL","Bartow","Polk","12","105","27.89","-81.83","A","GD"
"33831","FL","Bartow","Polk","12","105","27.9","-81.84","A","POB"
"33834","FL","Bowling Green","Hardee","12","49","27.63","-81.88","A","GD"
"33835","FL","Bradley","Polk","12","105","27.78","-81.92","A","POB"
"33836","FL","Davenport","Polk","12","105","28.16","-81.6","A","POB"
"33837","FL","Davenport","Polk","12","105","28.19","-81.62","A","GD"
"33838","FL","Dundee","Polk","12","105","28.02","-81.62","A","GD"
"33839","FL","Eagle Lake","Polk","12","105","27.98","-81.75","A","GD"
"33840","FL","Eaton Park","Polk","12","105","28.01","-81.9","A","POB"
"33841","FL","Fort Meade","Polk","12","105","27.75","-81.79","A","GD"
"33843","FL","Frostproof","Polk","12","105","27.74","-81.54","A","GD"
"33844","FL","Haines City","Polk","12","105","28.11","-81.62","A","GD"
"33845","FL","Haines City","Polk","12","105","28.11","-81.63","A","POB"
"33846","FL","Highland City","Polk","12","105","27.96","-81.88","A","POB"
"33847","FL","Homeland","Polk","12","105","27.81","-81.83","A","POB"
"33848","FL","Intercession City","Osceola","12","97","28.26","-81.51","A","POB"
"33849","FL","Kathleen","Polk","12","105","28.23","-82.07","A","GD"
"33850","FL","Lake Alfred","Polk","12","105","28.1","-81.73","A","GD"
"33851","FL","Lake Hamilton","Polk","12","105","28.04","-81.62","A","POB"
"33852","FL","Lake Placid","Highlands","12","55","27.29","-81.37","A","GD"
"33853","FL","Lake Wales","Polk","12","105","27.9","-81.58","A","GD"
"33854","FL","Lakeshore","Polk","12","105","27.86","-81.41","A","POB"
"33855","FL","Indian Lake Estates","Polk","12","105","27.8","-81.35","A","POB"
"33856","FL","Nalcrest","Polk","12","105","27.86","-81.43","A","POB"
"33857","FL","Lorida","Highlands","12","55","27.39","-81.16","A","GD"
"33858","FL","Loughman","Polk","12","105","28.24","-81.57","A","POB"
"33859","FL","Lake Wales","Polk","12","105","27.9","-81.61","A","GD"
"33860","FL","Mulberry","Polk","12","105","27.84","-81.99","A","GD"
"33862","FL","Lake Placid","Highlands","12","55","27.29","-81.36","A","POB"
"33863","FL","Nichols","Polk","12","105","27.89","-82.02","A","POB"
"33865","FL","Ona","Hardee","12","49","27.41","-81.94","A","GD"
"33867","FL","River Ranch","Polk","12","105","27.77","-81.19","A","GD"
"33868","FL","Polk City","Polk","12","105","28.19","-81.82","A","GD"
"33870","FL","Sebring","Highlands","12","55","27.5","-81.45","A","GD"
"33871","FL","Sebring","Highlands","12","55","27.5","-81.45","A","POB"
"33872","FL","Sebring","Highlands","12","55","27.51","-81.51","A","GD"
"33873","FL","Wauchula","Hardee","12","49","27.55","-81.8","A","GD"
"33875","FL","Sebring","Highlands","12","55","27.43","-81.46","A","GD"
"33876","FL","Sebring","Highlands","12","55","27.44","-81.36","A","GD"
"33877","FL","Waverly","Polk","12","105","27.99","-81.62","A","POB"
"33880","FL","Winter Haven","Polk","12","105","28","-81.75","A","GD"
"33881","FL","Winter Haven","Polk","12","105","28.05","-81.72","A","GD"
"33882","FL","Winter Haven","Polk","12","105","28","-81.67","A","POB"
"33883","FL","Winter Haven","Polk","12","105","28.02","-81.73","A","POB"
"33884","FL","Winter Haven","Polk","12","105","27.99","-81.67","A","GD"
"33885","FL","Winter Haven","Polk","12","105","28.06","-81.71","A","POB"
"33888","FL","Winter Haven","Polk","12","105","28.04","-81.72","A","PVT"
"33890","FL","Zolfo Springs","Hardee","12","49","27.49","-81.72","A","GD"
"33896","FL","Davenport","Polk","12","105","28.25","-81.6","A","GD"
"33897","FL","Davenport","Polk","12","105","28.3","-81.67","A","GD"
"33898","FL","Lake Wales","Polk","12","105","27.87","-81.43","A","GD"
"33901","FL","Fort Myers","Lee","12","71","26.62","-81.87","A","GD"
"33902","FL","Fort Myers","Lee","12","71","26.6","-81.87","A","POB"
"33903","FL","North Fort Myers","Lee","12","71","26.69","-81.91","A","GD"
"33904","FL","Cape Coral","Lee","12","71","26.58","-81.95","A","GD"
"33905","FL","Fort Myers","Lee","12","71","26.68","-81.78","A","GD"
"33906","FL","Fort Myers","Lee","12","71","26.59","-81.86","A","POB"
"33907","FL","Fort Myers","Lee","12","71","26.57","-81.87","A","GD"
"33908","FL","Fort Myers","Lee","12","71","26.5","-81.93","A","GD"
"33909","FL","Cape Coral","Lee","12","71","26.69","-81.95","A","GD"
"33910","FL","Cape Coral","Lee","12","71","26.55","-82.02","A","POB"
"33911","FL","Fort Myers","Lee","12","71","26.63","-81.99","A","POB"
"33912","FL","Fort Myers","Lee","12","71","26.54","-81.83","A","GD"
"33913","FL","Fort Myers","Lee","12","71","26.55","-81.75","A","GD"
"33914","FL","Cape Coral","Lee","12","71","26.57","-82","A","GD"
"33915","FL","Cape Coral","Lee","12","71","26.67","-82","A","POB"
"33916","FL","Fort Myers","Lee","12","71","26.64","-81.84","A","GD"
"33917","FL","North Fort Myers","Lee","12","71","26.71","-81.86","A","GD"
"33918","FL","North Fort Myers","Lee","12","71","26.68","-81.89","A","POB"
"33919","FL","Fort Myers","Lee","12","71","26.56","-81.9","A","GD"
"33920","FL","Alva","Lee","12","71","26.71","-81.64","A","GD"
"33921","FL","Boca Grande","Lee","12","71","26.76","-82.26","A","POB"
"33922","FL","Bokeelia","Lee","12","71","26.66","-82.14","A","GD"
"33924","FL","Captiva","Lee","12","71","26.58","-82.21","A","POB"
"33927","FL","El Jobean","Charlotte","12","15","26.98","-82.2","A","POB"
"33928","FL","Estero","Lee","12","71","26.43","-81.8","A","GD"
"33929","FL","Estero","Lee","12","71","26.44","-81.81","A","POB"
"33930","FL","Felda","Hendry","12","51","26.55","-81.45","A","POB"
"33931","FL","Fort Myers Beach","Lee","12","71","26.45","-81.92","A","GD"
"33932","FL","Fort Myers Beach","Lee","12","71","26.45","-81.94","A","POB"
"33935","FL","Labelle","Hendry","12","51","26.76","-81.43","A","GD"
"33936","FL","Lehigh Acres","Lee","12","71","26.61","-81.62","A","GD"
"33938","FL","Murdock","Charlotte","12","15","27.01","-82.16","A","POB"
"33944","FL","Palmdale","Glades","12","43","26.97","-81.31","A","POB"
"33945","FL","Pineland","Lee","12","71","26.6","-82.22","A","POB"
"33946","FL","Placida","Charlotte","12","15","26.85","-82.27","A","GD"
"33947","FL","Rotonda West","Charlotte","12","15","26.9","-82.27","A","GD"
"33948","FL","Port Charlotte","Charlotte","12","15","26.98","-82.15","A","GD"
"33949","FL","Port Charlotte","Charlotte","12","15","26.98","-82.08","A","POB"
"33950","FL","Punta Gorda","Charlotte","12","15","26.91","-82.04","A","GD"
"33951","FL","Punta Gorda","Charlotte","12","15","26.93","-81.99","A","POB"
"33952","FL","Port Charlotte","Charlotte","12","15","26.99","-82.1","A","GD"
"33953","FL","Port Charlotte","Charlotte","12","15","27.01","-82.21","A","GD"
"33954","FL","Port Charlotte","Charlotte","12","15","27.02","-82.12","A","GD"
"33955","FL","Punta Gorda","Charlotte","12","15","26.83","-81.99","A","GD"
"33956","FL","Saint James City","Lee","12","71","26.53","-82.09","A","GD"
"33957","FL","Sanibel","Lee","12","71","26.44","-82.08","A","GD"
"33960","FL","Venus","Highlands","12","55","27.05","-81.43","A","GD"
"33965","FL","Fort Myers","Lee","12","71","26.46","-81.78","A","PVT"
"33966","FL","Fort Myers","Lee","12","71","26.58","-81.84","A","GD"
"33967","FL","Fort Myers","Lee","12","71","26.47","-81.81","A","GD"
"33970","FL","Lehigh Acres","Lee","12","71","26.6","-81.67","A","POB"
"33971","FL","Lehigh Acres","Lee","12","71","26.64","-81.7","A","GD"
"33972","FL","Lehigh Acres","Lee","12","71","26.65","-81.62","A","GD"
"33973","FL","Lehigh Acres","Lee","12","71","26.6","-81.73","A","GD"
"33974","FL","Lehigh Acres","Lee","12","71","26.56","-81.6","A","GD"
"33975","FL","Labelle","Hendry","12","51","26.76","-81.44","A","POB"
"33976","FL","Lehigh Acres","Lee","12","71","26.59","-81.68","A","GD"
"33980","FL","Punta Gorda","Charlotte","12","15","26.98","-82.06","A","GD"
"33981","FL","Port Charlotte","Charlotte","12","15","26.93","-82.23","A","GD"
"33982","FL","Punta Gorda","Charlotte","12","15","26.96","-81.97","A","GD"
"33983","FL","Punta Gorda","Charlotte","12","15","27","-82.01","A","GD"
"33990","FL","Cape Coral","Lee","12","71","26.63","-81.95","A","GD"
"33991","FL","Cape Coral","Lee","12","71","26.63","-82.01","A","GD"
"33993","FL","Cape Coral","Lee","12","71","26.69","-82.02","A","GD"
"33994","FL","Fort Myers","Lee","12","71","26.63","-81.85","A","POB"
"34101","FL","Naples","Collier","12","21","26.05","-81.77","A","POB"
"34102","FL","Naples","Collier","12","21","26.14","-81.8","A","GD"
"34103","FL","Naples","Collier","12","21","26.19","-81.8","A","GD"
"34104","FL","Naples","Collier","12","21","26.15","-81.74","A","GD"
"34105","FL","Naples","Collier","12","21","26.19","-81.76","A","GD"
"34106","FL","Naples","Collier","12","21","26.14","-81.8","A","POB"
"34107","FL","Naples","Collier","12","21","26.27","-81.79","A","POB"
"34108","FL","Naples","Collier","12","21","26.25","-81.81","A","GD"
"34109","FL","Naples","Collier","12","21","26.24","-81.77","A","GD"
"34110","FL","Naples","Collier","12","21","26.29","-81.78","A","GD"
"34112","FL","Naples","Collier","12","21","26.12","-81.75","A","GD"
"34113","FL","Naples","Collier","12","21","26.07","-81.72","A","GD"
"34114","FL","Naples","Collier","12","21","26","-81.62","A","GD"
"34116","FL","Naples","Collier","12","21","26.18","-81.71","A","GD"
"34117","FL","Naples","Collier","12","21","26.18","-81.61","A","GD"
"34119","FL","Naples","Collier","12","21","26.26","-81.72","A","GD"
"34120","FL","Naples","Collier","12","21","26.28","-81.58","A","GD"
"34133","FL","Bonita Springs","Lee","12","71","26.38","-81.71","A","POB"
"34134","FL","Bonita Springs","Lee","12","71","26.35","-81.82","A","GD"
"34135","FL","Bonita Springs","Lee","12","71","26.35","-81.77","A","GD"
"34136","FL","Bonita Springs","Lee","12","71","26.38","-81.71","A","POB"
"34137","FL","Copeland","Collier","12","21","25.94","-81.36","A","POB"
"34138","FL","Chokoloskee","Collier","12","21","25.81","-81.36","A","POB"
"34139","FL","Everglades City","Collier","12","21","25.85","-81.39","A","POB"
"34140","FL","Goodland","Collier","12","21","25.93","-81.65","A","POB"
"34141","FL","Ochopee","Collier","12","21","25.95","-81.26","A","GD"
"34142","FL","Immokalee","Collier","12","21","26.37","-81.39","A","GD"
"34143","FL","Immokalee","Collier","12","21","26.43","-81.43","A","POB"
"34145","FL","Marco Island","Collier","12","21","25.93","-81.71","A","GD"
"34146","FL","Marco Island","Collier","12","21","25.94","-81.72","A","POB"
"34201","FL","Bradenton","Manatee","12","81","27.4","-82.47","A","GD"
"34202","FL","Bradenton","Manatee","12","81","27.41","-82.42","A","GD"
"34203","FL","Bradenton","Manatee","12","81","27.45","-82.52","A","GD"
"34204","FL","Bradenton","Manatee","12","81","27.44","-82.51","A","POB"
"34205","FL","Bradenton","Manatee","12","81","27.48","-82.58","A","GD"
"34206","FL","Bradenton","Manatee","12","81","27.5","-82.57","A","POB"
"34207","FL","Bradenton","Manatee","12","81","27.44","-82.58","A","GD"
"34208","FL","Bradenton","Manatee","12","81","27.49","-82.53","A","GD"
"34209","FL","Bradenton","Manatee","12","81","27.49","-82.63","A","GD"
"34210","FL","Bradenton","Manatee","12","81","27.45","-82.63","A","GD"
"34211","FL","Bradenton","Manatee","12","81","27.45","-82.41","A","GD"
"34212","FL","Bradenton","Manatee","12","81","27.5","-82.42","A","GD"
"34215","FL","Cortez","Manatee","12","81","27.47","-82.69","A","GD"
"34216","FL","Anna Maria","Manatee","12","81","27.53","-82.73","A","POB"
"34217","FL","Bradenton Beach","Manatee","12","81","27.5","-82.71","A","GD"
"34218","FL","Holmes Beach","Manatee","12","81","27.5","-82.71","A","POB"
"34219","FL","Parrish","Manatee","12","81","27.57","-82.4","A","GD"
"34220","FL","Palmetto","Manatee","12","81","27.52","-82.58","A","POB"
"34221","FL","Palmetto","Manatee","12","81","27.56","-82.56","A","GD"
"34222","FL","Ellenton","Manatee","12","81","27.53","-82.5","A","GD"
"34223","FL","Englewood","Sarasota","12","115","26.97","-82.37","A","GD"
"34224","FL","Englewood","Charlotte","12","15","26.93","-82.3","A","GD"
"34228","FL","Longboat Key","Manatee","12","81","27.4","-82.64","A","GD"
"34229","FL","Osprey","Sarasota","12","115","27.19","-82.49","A","GD"
"34230","FL","Sarasota","Sarasota","12","115","27.35","-82.49","A","POB"
"34231","FL","Sarasota","Sarasota","12","115","27.27","-82.52","A","GD"
"34232","FL","Sarasota","Sarasota","12","115","27.32","-82.47","A","GD"
"34233","FL","Sarasota","Sarasota","12","115","27.28","-82.47","A","GD"
"34234","FL","Sarasota","Sarasota","12","115","27.37","-82.53","A","GD"
"34235","FL","Sarasota","Sarasota","12","115","27.37","-82.48","A","GD"
"34236","FL","Sarasota","Sarasota","12","115","27.33","-82.55","A","GD"
"34237","FL","Sarasota","Sarasota","12","115","27.34","-82.51","A","GD"
"34238","FL","Sarasota","Sarasota","12","115","27.23","-82.48","A","GD"
"34239","FL","Sarasota","Sarasota","12","115","27.31","-82.52","A","GD"
"34240","FL","Sarasota","Sarasota","12","115","27.33","-82.4","A","GD"
"34241","FL","Sarasota","Sarasota","12","115","27.27","-82.4","A","GD"
"34242","FL","Sarasota","Sarasota","12","115","27.27","-82.55","A","GD"
"34243","FL","Sarasota","Manatee","12","81","27.4","-82.52","A","GD"
"34250","FL","Terra Ceia","Manatee","12","81","27.57","-82.58","A","POB"
"34251","FL","Myakka City","Manatee","12","81","27.4","-82.21","A","GD"
"34260","FL","Sarasota","Manatee","12","81","27.42","-82.54","A","POB"
"34264","FL","Oneco","Manatee","12","81","27.45","-82.54","A","POB"
"34265","FL","Arcadia","De Soto","12","27","27.19","-81.81","A","POB"
"34266","FL","Arcadia","De Soto","12","27","27.21","-81.85","A","GD"
"34267","FL","Fort Ogden","De Soto","12","27","27.22","-81.86","A","POB"
"34268","FL","Nocatee","De Soto","12","27","27.16","-81.89","A","POB"
"34269","FL","Arcadia","De Soto","12","27","27.06","-81.99","A","GD"
"34270","FL","Tallevast","Manatee","12","81","27.4","-82.54","A","POB"
"34272","FL","Laurel","Sarasota","12","115","27.14","-82.45","A","POB"
"34274","FL","Nokomis","Sarasota","12","115","27.14","-82.46","A","POB"
"34275","FL","Nokomis","Sarasota","12","115","27.14","-82.44","A","GD"
"34276","FL","Sarasota","Sarasota","12","115","27.34","-82.55","A","POB"
"34277","FL","Sarasota","Sarasota","12","115","27.28","-82.51","A","POB"
"34278","FL","Sarasota","Sarasota","12","115","27.33","-82.53","A","POB"
"34280","FL","Bradenton","Manatee","12","81","27.5","-82.64","A","POB"
"34281","FL","Bradenton","Manatee","12","81","27.49","-82.58","A","POB"
"34282","FL","Bradenton","Manatee","12","81","27.44","-82.58","A","POB"
"34284","FL","Venice","Sarasota","12","115","27.05","-82.41","A","POB"
"34285","FL","Venice","Sarasota","12","115","27.09","-82.44","A","GD"
"34286","FL","North Port","Sarasota","12","115","27.07","-82.18","A","GD"
"34287","FL","North Port","Sarasota","12","115","27.05","-82.24","A","GD"
"34288","FL","North Port","Sarasota","12","115","27.05","-82.11","A","GD"
"34289","FL","North Port","Sarasota","12","115","27.09","-82.14","A","GD"
"34290","FL","North Port","Sarasota","12","115","27.06","-82.23","A","POB"
"34291","FL","North Port","Sarasota","12","115","27.09","-82.23","A","GD"
"34292","FL","Venice","Sarasota","12","115","27.1","-82.36","A","GD"
"34293","FL","Venice","Sarasota","12","115","27.05","-82.39","A","GD"
"34295","FL","Englewood","Sarasota","12","115","26.93","-82.28","A","POB"
"34420","FL","Belleview","Marion","12","83","29.05","-82.04","A","GD"
"34421","FL","Belleview","Marion","12","83","29.05","-82.04","A","POB"
"34423","FL","Crystal River","Citrus","12","17","28.86","-82.57","A","POB"
"34428","FL","Crystal River","Citrus","12","17","28.95","-82.61","A","GD"
"34429","FL","Crystal River","Citrus","12","17","28.88","-82.62","A","GD"
"34430","FL","Dunnellon","Marion","12","83","29.06","-82.38","A","POB"
"34431","FL","Dunnellon","Marion","12","83","29.13","-82.51","A","GD"
"34432","FL","Dunnellon","Marion","12","83","29.07","-82.37","A","GD"
"34433","FL","Dunnellon","Citrus","12","17","28.99","-82.51","A","GD"
"34434","FL","Dunnellon","Citrus","12","17","28.99","-82.45","A","GD"
"34436","FL","Floral City","Citrus","12","17","28.75","-82.29","A","GD"
"34441","FL","Hernando","Citrus","12","17","28.93","-82.37","A","POB"
"34442","FL","Hernando","Citrus","12","17","28.92","-82.4","A","GD"
"34445","FL","Holder","Citrus","12","17","28.97","-82.42","A","POB"
"34446","FL","Homosassa","Citrus","12","17","28.75","-82.53","A","GD"
"34447","FL","Homosassa Springs","Citrus","12","17","28.8","-82.55","A","POB"
"34448","FL","Homosassa","Citrus","12","17","28.79","-82.6","A","GD"
"34449","FL","Inglis","Levy","12","75","29.05","-82.67","A","GD"
"34450","FL","Inverness","Citrus","12","17","28.83","-82.31","A","GD"
"34451","FL","Inverness","Citrus","12","17","28.84","-82.33","A","POB"
"34452","FL","Inverness","Citrus","12","17","28.81","-82.34","A","GD"
"34453","FL","Inverness","Citrus","12","17","28.87","-82.36","A","GD"
"34460","FL","Lecanto","Citrus","12","17","28.93","-82.49","A","POB"
"34461","FL","Lecanto","Citrus","12","17","28.85","-82.48","A","GD"
"34464","FL","Beverly Hills","Citrus","12","17","28.91","-82.46","A","POB"
"34465","FL","Beverly Hills","Citrus","12","17","28.93","-82.47","A","GD"
"34470","FL","Ocala","Marion","12","83","29.2","-82.1","A","GD"
"34471","FL","Ocala","Marion","12","83","29.17","-82.12","A","GD"
"34472","FL","Ocala","Marion","12","83","29.12","-82.02","A","GD"
"34473","FL","Ocala","Marion","12","83","29.01","-82.2","A","GD"
"34474","FL","Ocala","Marion","12","83","29.16","-82.2","A","GD"
"34475","FL","Ocala","Marion","12","83","29.21","-82.15","A","GD"
"34476","FL","Ocala","Marion","12","83","29.08","-82.21","A","GD"
"34477","FL","Ocala","Marion","12","83","29.19","-82.13","A","POB"
"34478","FL","Ocala","Marion","12","83","29.19","-82.14","A","POB"
"34479","FL","Ocala","Marion","12","83","29.24","-82.11","A","GD"
"34480","FL","Ocala","Marion","12","83","29.13","-82.08","A","GD"
"34481","FL","Ocala","Marion","12","83","29.12","-82.32","A","GD"
"34482","FL","Ocala","Marion","12","83","29.23","-82.24","A","GD"
"34483","FL","Ocala","Marion","12","83","29.13","-82.05","A","POB"
"34484","FL","Oxford","Sumter","12","119","28.93","-82.04","A","GD"
"34487","FL","Homosassa","Citrus","12","17","28.78","-82.62","A","POB"
"34488","FL","Silver Springs","Marion","12","83","29.21","-81.91","A","GD"
"34489","FL","Silver Springs","Marion","12","83","29.23","-81.95","A","POB"
"34491","FL","Summerfield","Marion","12","83","29","-82.02","A","GD"
"34492","FL","Summerfield","Marion","12","83","28.99","-82.05","A","POB"
"34498","FL","Yankeetown","Levy","12","75","29.03","-82.74","A","GD"
"34601","FL","Brooksville","Hernando","12","53","28.56","-82.38","A","GD"
"34602","FL","Brooksville","Hernando","12","53","28.51","-82.29","A","GD"
"34603","FL","Brooksville","Hernando","12","53","28.55","-82.39","A","POB"
"34604","FL","Brooksville","Hernando","12","53","28.47","-82.46","A","GD"
"34605","FL","Brooksville","Hernando","12","53","28.5","-82.45","A","POB"
"34606","FL","Spring Hill","Hernando","12","53","28.47","-82.6","A","GD"
"34607","FL","Spring Hill","Hernando","12","53","28.51","-82.65","A","GD"
"34608","FL","Spring Hill","Hernando","12","53","28.48","-82.55","A","GD"
"34609","FL","Spring Hill","Hernando","12","53","28.48","-82.51","A","GD"
"34610","FL","Spring Hill","Pasco","12","101","28.39","-82.53","A","GD"
"34611","FL","Spring Hill","Hernando","12","53","28.48","-82.56","A","POB"
"34613","FL","Brooksville","Hernando","12","53","28.55","-82.53","A","GD"
"34614","FL","Brooksville","Hernando","12","53","28.64","-82.54","A","GD"
"34636","FL","Istachatta","Hernando","12","53","28.66","-82.27","A","POB"
"34637","FL","Land O Lakes","Pasco","12","101","28.27","-82.47","A","GD"
"34638","FL","Land O Lakes","Pasco","12","101","28.26","-82.5","A","GD"
"34639","FL","Land O Lakes","Pasco","12","101","28.22","-82.43","A","GD"
"34652","FL","New Port Richey","Pasco","12","101","28.24","-82.73","A","GD"
"34653","FL","New Port Richey","Pasco","12","101","28.25","-82.7","A","GD"
"34654","FL","New Port Richey","Pasco","12","101","28.3","-82.63","A","GD"
"34655","FL","New Port Richey","Pasco","12","101","28.21","-82.66","A","GD"
"34656","FL","New Port Richey","Pasco","12","101","28.24","-82.71","A","POB"
"34660","FL","Ozona","Pinellas","12","103","28.07","-82.78","A","POB"
"34661","FL","Nobleton","Hernando","12","53","28.64","-82.26","A","POB"
"34667","FL","Hudson","Pasco","12","101","28.37","-82.67","A","GD"
"34668","FL","Port Richey","Pasco","12","101","28.3","-82.7","A","GD"
"34669","FL","Hudson","Pasco","12","101","28.35","-82.62","A","GD"
"34673","FL","Port Richey","Pasco","12","101","28.27","-82.72","A","POB"
"34674","FL","Hudson","Pasco","12","101","28.36","-82.7","A","POB"
"34677","FL","Oldsmar","Pinellas","12","103","28.05","-82.68","A","GD"
"34679","FL","Aripeka","Pasco","12","101","28.43","-82.66","A","POB"
"34680","FL","Elfers","Pasco","12","101","28.21","-82.71","A","POB"
"34681","FL","Crystal Beach","Pinellas","12","103","28.09","-82.78","A","POB"
"34682","FL","Palm Harbor","Pinellas","12","103","28.08","-82.76","A","POB"
"34683","FL","Palm Harbor","Pinellas","12","103","28.08","-82.76","A","GD"
"34684","FL","Palm Harbor","Pinellas","12","103","28.08","-82.73","A","GD"
"34685","FL","Palm Harbor","Pinellas","12","103","28.1","-82.7","A","GD"
"34688","FL","Tarpon Springs","Pinellas","12","103","28.15","-82.7","A","GD"
"34689","FL","Tarpon Springs","Pinellas","12","103","28.15","-82.76","A","GD"
"34690","FL","Holiday","Pasco","12","101","28.19","-82.73","A","GD"
"34691","FL","Holiday","Pasco","12","101","28.19","-82.76","A","GD"
"34692","FL","Holiday","Pasco","12","101","28.19","-82.73","A","POB"
"34695","FL","Safety Harbor","Pinellas","12","103","28","-82.7","A","GD"
"34697","FL","Dunedin","Pinellas","12","103","28.03","-82.76","A","POB"
"34698","FL","Dunedin","Pinellas","12","103","28.03","-82.77","A","GD"
"34705","FL","Astatula","Lake","12","69","28.71","-81.73","A","GD"
"34711","FL","Clermont","Lake","12","69","28.54","-81.74","A","GD"
"34712","FL","Clermont","Lake","12","69","28.55","-81.76","A","POB"
"34713","FL","Clermont","Lake","12","69","28.37","-81.68","A","POB"
"34714","FL","Clermont","Lake","12","69","28.39","-81.7","A","GD"
"34715","FL","Clermont","Lake","12","69","28.61","-81.76","A","GD"
"34729","FL","Ferndale","Lake","12","69","28.62","-81.71","A","POB"
"34731","FL","Fruitland Park","Lake","12","69","28.86","-81.9","A","GD"
"34734","FL","Gotha","Orange","12","95","28.54","-81.52","A","GD"
"34736","FL","Groveland","Lake","12","69","28.6","-81.87","A","GD"
"34737","FL","Howey In The Hills","Lake","12","69","28.7","-81.79","A","GD"
"34739","FL","Kenansville","Osceola","12","97","27.95","-81.09","A","GD"
"34740","FL","Killarney","Orange","12","95","28.55","-81.65","A","POB"
"34741","FL","Kissimmee","Osceola","12","97","28.3","-81.42","A","GD"
"34742","FL","Kissimmee","Osceola","12","97","28.3","-81.35","A","POB"
"34743","FL","Kissimmee","Osceola","12","97","28.33","-81.35","A","GD"
"34744","FL","Kissimmee","Osceola","12","97","28.31","-81.36","A","GD"
"34745","FL","Kissimmee","Osceola","12","97","28.3","-81.41","A","POB"
"34746","FL","Kissimmee","Osceola","12","97","28.29","-81.47","A","GD"
"34747","FL","Kissimmee","Osceola","12","97","28.32","-81.58","A","GD"
"34748","FL","Leesburg","Lake","12","69","28.78","-81.88","A","GD"
"34749","FL","Leesburg","Lake","12","69","28.81","-81.88","A","POB"
"34753","FL","Mascotte","Lake","12","69","28.58","-81.89","A","GD"
"34755","FL","Minneola","Lake","12","69","28.58","-81.75","A","POB"
"34756","FL","Montverde","Lake","12","69","28.59","-81.68","A","GD"
"34758","FL","Kissimmee","Osceola","12","97","28.19","-81.49","A","GD"
"34759","FL","Kissimmee","Polk","12","105","28.1","-81.48","A","GD"
"34760","FL","Oakland","Orange","12","95","28.56","-81.63","A","POB"
"34761","FL","Ocoee","Orange","12","95","28.58","-81.53","A","GD"
"34762","FL","Okahumpka","Lake","12","69","28.75","-81.9","A","GD"
"34769","FL","Saint Cloud","Osceola","12","97","28.25","-81.29","A","GD"
"34770","FL","Saint Cloud","Osceola","12","97","28.17","-81.29","A","POB"
"34771","FL","Saint Cloud","Osceola","12","97","28.27","-81.21","A","GD"
"34772","FL","Saint Cloud","Osceola","12","97","28.19","-81.27","A","GD"
"34773","FL","Saint Cloud","Osceola","12","97","28.13","-81.01","A","GD"
"34777","FL","Winter Garden","Orange","12","95","28.49","-81.61","A","POB"
"34778","FL","Winter Garden","Orange","12","95","28.5","-81.62","A","POB"
"34785","FL","Wildwood","Sumter","12","119","28.85","-82.03","A","GD"
"34786","FL","Windermere","Orange","12","95","28.47","-81.55","A","GD"
"34787","FL","Winter Garden","Orange","12","95","28.52","-81.6","A","GD"
"34788","FL","Leesburg","Lake","12","69","28.86","-81.78","A","GD"
"34789","FL","Leesburg","Lake","12","69","28.81","-81.88","A","POB"
"34797","FL","Yalaha","Lake","12","69","28.74","-81.82","A","GD"
"34945","FL","Fort Pierce","Saint Lucie","12","111","27.44","-80.48","A","GD"
"34946","FL","Fort Pierce","Saint Lucie","12","111","27.49","-80.35","A","GD"
"34947","FL","Fort Pierce","Saint Lucie","12","111","27.45","-80.36","A","GD"
"34948","FL","Fort Pierce","Saint Lucie","12","111","27.45","-80.34","A","POB"
"34949","FL","Fort Pierce","Saint Lucie","12","111","27.47","-80.3","A","GD"
"34950","FL","Fort Pierce","Saint Lucie","12","111","27.45","-80.34","A","GD"
"34951","FL","Fort Pierce","Saint Lucie","12","111","27.53","-80.41","A","GD"
"34952","FL","Port Saint Lucie","Saint Lucie","12","111","27.29","-80.3","A","GD"
"34953","FL","Port Saint Lucie","Saint Lucie","12","111","27.25","-80.38","A","GD"
"34954","FL","Fort Pierce","Saint Lucie","12","111","27.45","-80.34","A","POB"
"34956","FL","Indiantown","Martin","12","85","27.05","-80.48","A","GD"
"34957","FL","Jensen Beach","Martin","12","85","27.26","-80.23","A","GD"
"34958","FL","Jensen Beach","Martin","12","85","27.19","-80.2","A","POB"
"34972","FL","Okeechobee","Okeechobee","12","93","27.4","-80.9","A","GD"
"34973","FL","Okeechobee","Okeechobee","12","93","27.25","-80.83","A","POB"
"34974","FL","Okeechobee","Okeechobee","12","93","27.19","-80.85","A","GD"
"34979","FL","Fort Pierce","Saint Lucie","12","111","27.45","-80.34","A","POB"
"34981","FL","Fort Pierce","Saint Lucie","12","111","27.4","-80.36","A","GD"
"34982","FL","Fort Pierce","Saint Lucie","12","111","27.39","-80.33","A","GD"
"34983","FL","Port Saint Lucie","Saint Lucie","12","111","27.32","-80.35","A","GD"
"34984","FL","Port Saint Lucie","Saint Lucie","12","111","27.27","-80.34","A","GD"
"34985","FL","Port Saint Lucie","Saint Lucie","12","111","27.29","-80.35","A","POB"
"34986","FL","Port Saint Lucie","Saint Lucie","12","111","27.32","-80.4","A","GD"
"34987","FL","Port Saint Lucie","Saint Lucie","12","111","27.28","-80.46","A","GD"
"34988","FL","Port Saint Lucie","Saint Lucie","12","111","27.34","-80.52","A","POB"
"34990","FL","Palm City","Martin","12","85","27.17","-80.31","A","GD"
"34991","FL","Palm City","Martin","12","85","27.16","-80.27","A","POB"
"34992","FL","Port Salerno","Martin","12","85","27.14","-80.21","A","POB"
"34994","FL","Stuart","Martin","12","85","27.2","-80.25","A","GD"
"34995","FL","Stuart","Martin","12","85","27.16","-80.23","A","POB"
"34996","FL","Stuart","Martin","12","85","27.19","-80.21","A","GD"
"34997","FL","Stuart","Martin","12","85","27.12","-80.24","A","GD"
