"ZIPCode","State","City","County","StateFIPS","CountyFIPS","Latitude","Longitude","Preference","Type"
"7001","NJ","Avenel","Middlesex","34","23","40.58","-74.28","A","GD"
"7002","NJ","Bayonne","Hudson","34","17","40.67","-74.12","A","GD"
"7003","NJ","Bloomfield","Essex","34","13","40.8","-74.19","A","GD"
"7004","NJ","Fairfield","Essex","34","13","40.88","-74.3","A","GD"
"7005","NJ","Boonton","Morris","34","27","40.91","-74.42","A","GD"
"7006","NJ","Caldwell","Essex","34","13","40.85","-74.28","A","GD"
"7007","NJ","Caldwell","Essex","34","13","40.84","-74.28","A","POB"
"7008","NJ","Carteret","Middlesex","34","23","40.58","-74.23","A","GD"
"7009","NJ","Cedar Grove","Essex","34","13","40.86","-74.23","A","GD"
"7010","NJ","Cliffside Park","Bergen","34","3","40.82","-73.99","A","GD"
"7011","NJ","Clifton","Passaic","34","31","40.88","-74.14","A","GD"
"7012","NJ","Clifton","Passaic","34","31","40.85","-74.16","A","GD"
"7013","NJ","Clifton","Passaic","34","31","40.87","-74.17","A","GD"
"7014","NJ","Clifton","Passaic","34","31","40.83","-74.14","A","GD"
"7015","NJ","Clifton","Passaic","34","31","40.89","-74.13","A","POB"
"7016","NJ","Cranford","Union","34","39","40.66","-74.3","A","GD"
"7017","NJ","East Orange","Essex","34","13","40.77","-74.21","A","GD"
"7018","NJ","East Orange","Essex","34","13","40.76","-74.22","A","GD"
"7019","NJ","East Orange","Essex","34","13","40.76","-74.21","A","POB"
"7020","NJ","Edgewater","Bergen","34","3","40.83","-73.98","A","GD"
"7021","NJ","Essex Fells","Essex","34","13","40.83","-74.28","A","GD"
"7022","NJ","Fairview","Bergen","34","3","40.82","-74","A","GD"
"7023","NJ","Fanwood","Union","34","39","40.64","-74.39","A","GD"
"7024","NJ","Fort Lee","Bergen","34","3","40.85","-73.98","A","GD"
"7026","NJ","Garfield","Bergen","34","3","40.88","-74.11","A","GD"
"7027","NJ","Garwood","Union","34","39","40.65","-74.32","A","GD"
"7028","NJ","Glen Ridge","Essex","34","13","40.8","-74.2","A","GD"
"7029","NJ","Harrison","Hudson","34","17","40.75","-74.16","A","GD"
"7030","NJ","Hoboken","Hudson","34","17","40.74","-74.03","A","GD"
"7031","NJ","North Arlington","Bergen","34","3","40.79","-74.13","A","GD"
"7032","NJ","Kearny","Hudson","34","17","40.76","-74.14","A","GD"
"7033","NJ","Kenilworth","Union","34","39","40.68","-74.29","A","GD"
"7034","NJ","Lake Hiawatha","Morris","34","27","40.88","-74.38","A","GD"
"7035","NJ","Lincoln Park","Morris","34","27","40.92","-74.3","A","GD"
"7036","NJ","Linden","Union","34","39","40.63","-74.25","A","GD"
"7039","NJ","Livingston","Essex","34","13","40.79","-74.32","A","GD"
"7040","NJ","Maplewood","Essex","34","13","40.73","-74.27","A","GD"
"7041","NJ","Millburn","Essex","34","13","40.72","-74.3","A","GD"
"7042","NJ","Montclair","Essex","34","13","40.81","-74.22","A","GD"
"7043","NJ","Montclair","Essex","34","13","40.84","-74.2","A","GD"
"7044","NJ","Verona","Essex","34","13","40.83","-74.24","A","GD"
"7045","NJ","Montville","Morris","34","27","40.91","-74.37","A","GD"
"7046","NJ","Mountain Lakes","Morris","34","27","40.89","-74.44","A","GD"
"7047","NJ","North Bergen","Hudson","34","17","40.79","-74.02","A","GD"
"7050","NJ","Orange","Essex","34","13","40.77","-74.24","A","GD"
"7051","NJ","Orange","Essex","34","13","40.77","-74.24","A","POB"
"7052","NJ","West Orange","Essex","34","13","40.79","-74.26","A","GD"
"7054","NJ","Parsippany","Morris","34","27","40.86","-74.41","A","GD"
"7055","NJ","Passaic","Passaic","34","31","40.86","-74.13","A","GD"
"7057","NJ","Wallington","Bergen","34","3","40.85","-74.11","A","GD"
"7058","NJ","Pine Brook","Morris","34","27","40.87","-74.34","A","GD"
"7059","NJ","Warren","Somerset","34","35","40.64","-74.51","A","GD"
"7060","NJ","Plainfield","Union","34","39","40.62","-74.42","A","GD"
"7061","NJ","Plainfield","Union","34","39","40.62","-74.42","A","POB"
"7062","NJ","Plainfield","Union","34","39","40.63","-74.4","A","GD"
"7063","NJ","Plainfield","Union","34","39","40.6","-74.45","A","GD"
"7064","NJ","Port Reading","Middlesex","34","23","40.57","-74.25","A","GD"
"7065","NJ","Rahway","Union","34","39","40.61","-74.28","A","GD"
"7066","NJ","Clark","Union","34","39","40.62","-74.31","A","GD"
"7067","NJ","Colonia","Middlesex","34","23","40.59","-74.31","A","GD"
"7068","NJ","Roseland","Essex","34","13","40.82","-74.3","A","GD"
"7069","NJ","Watchung","Somerset","34","35","40.64","-74.44","A","GD"
"7070","NJ","Rutherford","Bergen","34","3","40.83","-74.11","A","GD"
"7071","NJ","Lyndhurst","Bergen","34","3","40.81","-74.12","A","GD"
"7072","NJ","Carlstadt","Bergen","34","3","40.83","-74.08","A","GD"
"7073","NJ","East Rutherford","Bergen","34","3","40.83","-74.09","A","GD"
"7074","NJ","Moonachie","Bergen","34","3","40.84","-74.06","A","GD"
"7075","NJ","Wood Ridge","Bergen","34","3","40.85","-74.09","A","GD"
"7076","NJ","Scotch Plains","Union","34","39","40.64","-74.37","A","GD"
"7077","NJ","Sewaren","Middlesex","34","23","40.55","-74.26","A","GD"
"7078","NJ","Short Hills","Essex","34","13","40.74","-74.33","A","GD"
"7079","NJ","South Orange","Essex","34","13","40.75","-74.26","A","GD"
"7080","NJ","South Plainfield","Middlesex","34","23","40.58","-74.41","A","GD"
"7081","NJ","Springfield","Union","34","39","40.7","-74.32","A","GD"
"7082","NJ","Towaco","Morris","34","27","40.93","-74.35","A","GD"
"7083","NJ","Union","Union","34","39","40.7","-74.27","A","GD"
"7086","NJ","Weehawken","Hudson","34","17","40.77","-74.02","A","GD"
"7087","NJ","Union City","Hudson","34","17","40.77","-74.03","A","GD"
"7088","NJ","Vauxhall","Union","34","39","40.72","-74.28","A","GD"
"7090","NJ","Westfield","Union","34","39","40.65","-74.34","A","GD"
"7091","NJ","Westfield","Union","34","39","40.7","-74.38","A","POB"
"7092","NJ","Mountainside","Union","34","39","40.68","-74.36","A","GD"
"7093","NJ","West New York","Hudson","34","17","40.79","-74.01","A","GD"
"7094","NJ","Secaucus","Hudson","34","17","40.78","-74.06","A","GD"
"7095","NJ","Woodbridge","Middlesex","34","23","40.56","-74.29","A","GD"
"7096","NJ","Secaucus","Hudson","34","17","40.78","-74.06","A","POB"
"7097","NJ","Jersey City","Hudson","34","17","40.75","-74.05","A","PVT"
"7099","NJ","Kearny","Hudson","34","17","40.75","-74.12","A","PVT"
"7101","NJ","Newark","Essex","34","13","40.72","-74.17","A","POB"
"7102","NJ","Newark","Essex","34","13","40.74","-74.17","A","GD"
"7103","NJ","Newark","Essex","34","13","40.74","-74.19","A","GD"
"7104","NJ","Newark","Essex","34","13","40.77","-74.17","A","GD"
"7105","NJ","Newark","Essex","34","13","40.73","-74.15","A","GD"
"7106","NJ","Newark","Essex","34","13","40.74","-74.23","A","GD"
"7107","NJ","Newark","Essex","34","13","40.76","-74.19","A","GD"
"7108","NJ","Newark","Essex","34","13","40.72","-74.2","A","GD"
"7109","NJ","Belleville","Essex","34","13","40.79","-74.16","A","GD"
"7110","NJ","Nutley","Essex","34","13","40.82","-74.16","A","GD"
"7111","NJ","Irvington","Essex","34","13","40.73","-74.23","A","GD"
"7112","NJ","Newark","Essex","34","13","40.71","-74.21","A","GD"
"7114","NJ","Newark","Essex","34","13","40.71","-74.17","A","GD"
"7175","NJ","Newark","Essex","34","13","40.74","-74.17","A","PVT"
"7184","NJ","Newark","Essex","34","13","40.72","-74.21","A","PVT"
"7188","NJ","Newark","Essex","34","13","40.73","-74.17","A","PVT"
"7189","NJ","Newark","Essex","34","13","40.8","-74.16","A","PVT"
"7191","NJ","Newark","Essex","34","13","40.7","-74.17","A","PVT"
"7192","NJ","Newark","Essex","34","13","40.73","-74.17","A","PVT"
"7193","NJ","Newark","Essex","34","13","40.73","-74.17","A","PVT"
"7195","NJ","Newark","Essex","34","13","40.73","-74.17","A","PVT"
"7198","NJ","Newark","Essex","34","13","40.73","-74.14","A","PVT"
"7199","NJ","Newark","Essex","34","13","40.73","-74.17","A","PVT"
"7201","NJ","Elizabeth","Union","34","39","40.67","-74.19","A","GD"
"7202","NJ","Elizabeth","Union","34","39","40.65","-74.22","A","GD"
"7203","NJ","Roselle","Union","34","39","40.65","-74.26","A","GD"
"7204","NJ","Roselle Park","Union","34","39","40.67","-74.27","A","GD"
"7205","NJ","Hillside","Union","34","39","40.7","-74.23","A","GD"
"7206","NJ","Elizabethport","Union","34","39","40.65","-74.19","A","GD"
"7207","NJ","Elizabeth","Union","34","39","40.67","-74.22","A","POB"
"7208","NJ","Elizabeth","Union","34","39","40.67","-74.23","A","GD"
"7302","NJ","Jersey City","Hudson","34","17","40.72","-74.05","A","GD"
"7303","NJ","Jersey City","Hudson","34","17","40.72","-74.05","A","POB"
"7304","NJ","Jersey City","Hudson","34","17","40.72","-74.07","A","GD"
"7305","NJ","Jersey City","Hudson","34","17","40.7","-74.09","A","GD"
"7306","NJ","Jersey City","Hudson","34","17","40.73","-74.07","A","GD"
"7307","NJ","Jersey City","Hudson","34","17","40.75","-74.05","A","GD"
"7308","NJ","Jersey City","Hudson","34","17","40.73","-74.06","A","POB"
"7310","NJ","Jersey City","Hudson","34","17","40.73","-74.04","A","GD"
"7311","NJ","Jersey City","Hudson","34","17","40.72","-74.03","A","GD"
"7395","NJ","Jersey City","Hudson","34","17","40.73","-74.08","A","PVT"
"7399","NJ","Jersey City","Hudson","34","17","40.73","-74.08","A","PVT"
"7401","NJ","Allendale","Bergen","34","3","41.03","-74.13","A","GD"
"7403","NJ","Bloomingdale","Passaic","34","31","41.01","-74.33","A","GD"
"7405","NJ","Butler","Morris","34","27","40.99","-74.36","A","GD"
"7407","NJ","Elmwood Park","Bergen","34","3","40.91","-74.12","A","GD"
"7410","NJ","Fair Lawn","Bergen","34","3","40.93","-74.12","A","GD"
"7416","NJ","Franklin","Sussex","34","37","41.11","-74.59","A","GD"
"7417","NJ","Franklin Lakes","Bergen","34","3","41.01","-74.21","A","GD"
"7418","NJ","Glenwood","Sussex","34","37","41.23","-74.49","A","GD"
"7419","NJ","Hamburg","Sussex","34","37","41.15","-74.58","A","GD"
"7420","NJ","Haskell","Passaic","34","31","41.03","-74.3","A","GD"
"7421","NJ","Hewitt","Passaic","34","31","41.17","-74.37","A","GD"
"7422","NJ","Highland Lakes","Sussex","34","37","41.18","-74.45","A","GD"
"7423","NJ","Ho Ho Kus","Bergen","34","3","41","-74.1","A","GD"
"7424","NJ","Little Falls","Passaic","34","31","40.89","-74.21","A","GD"
"7428","NJ","Mc Afee","Sussex","34","37","41.19","-74.55","A","POB"
"7430","NJ","Mahwah","Bergen","34","3","41.08","-74.16","A","GD"
"7432","NJ","Midland Park","Bergen","34","3","40.99","-74.14","A","GD"
"7435","NJ","Newfoundland","Passaic","34","31","41.03","-74.46","A","GD"
"7436","NJ","Oakland","Bergen","34","3","41.03","-74.24","A","GD"
"7438","NJ","Oak Ridge","Passaic","34","31","41.03","-74.51","A","GD"
"7439","NJ","Ogdensburg","Sussex","34","37","41.08","-74.6","A","GD"
"7440","NJ","Pequannock","Morris","34","27","40.95","-74.29","A","GD"
"7442","NJ","Pompton Lakes","Passaic","34","31","41","-74.29","A","GD"
"7444","NJ","Pompton Plains","Morris","34","27","40.97","-74.3","A","GD"
"7446","NJ","Ramsey","Bergen","34","3","41.06","-74.14","A","GD"
"7450","NJ","Ridgewood","Bergen","34","3","40.98","-74.11","A","GD"
"7451","NJ","Ridgewood","Bergen","34","3","40.98","-74.12","A","POB"
"7452","NJ","Glen Rock","Bergen","34","3","40.96","-74.13","A","GD"
"7456","NJ","Ringwood","Passaic","34","31","41.1","-74.26","A","GD"
"7457","NJ","Riverdale","Morris","34","27","40.99","-74.31","A","GD"
"7458","NJ","Saddle River","Bergen","34","3","41.05","-74.1","A","GD"
"7460","NJ","Stockholm","Sussex","34","37","41.1","-74.51","A","GD"
"7461","NJ","Sussex","Sussex","34","37","41.23","-74.59","A","GD"
"7462","NJ","Vernon","Sussex","34","37","41.19","-74.51","A","GD"
"7463","NJ","Waldwick","Bergen","34","3","41.01","-74.12","A","GD"
"7465","NJ","Wanaque","Passaic","34","31","41.05","-74.28","A","GD"
"7470","NJ","Wayne","Passaic","34","31","40.94","-74.25","A","GD"
"7474","NJ","Wayne","Passaic","34","31","40.95","-74.25","A","POB"
"7480","NJ","West Milford","Passaic","34","31","41.1","-74.37","A","GD"
"7481","NJ","Wyckoff","Bergen","34","3","41","-74.17","A","GD"
"7495","NJ","Mahwah","Bergen","34","3","41.1","-74.17","A","GD"
"7501","NJ","Paterson","Passaic","34","31","40.91","-74.17","A","GD"
"7502","NJ","Paterson","Passaic","34","31","40.92","-74.19","A","GD"
"7503","NJ","Paterson","Passaic","34","31","40.9","-74.16","A","GD"
"7504","NJ","Paterson","Passaic","34","31","40.91","-74.14","A","GD"
"7505","NJ","Paterson","Passaic","34","31","40.92","-74.17","A","GD"
"7506","NJ","Hawthorne","Passaic","34","31","40.96","-74.16","A","GD"
"7507","NJ","Hawthorne","Passaic","34","31","40.96","-74.16","A","POB"
"7508","NJ","Haledon","Passaic","34","31","40.95","-74.18","A","GD"
"7509","NJ","Paterson","Passaic","34","31","40.91","-74.17","A","POB"
"7510","NJ","Paterson","Passaic","34","31","40.91","-74.17","A","GD"
"7511","NJ","Totowa","Passaic","34","31","40.9","-74.22","A","POB"
"7512","NJ","Totowa","Passaic","34","31","40.9","-74.22","A","GD"
"7513","NJ","Paterson","Passaic","34","31","40.91","-74.15","A","GD"
"7514","NJ","Paterson","Passaic","34","31","40.92","-74.14","A","GD"
"7522","NJ","Paterson","Passaic","34","31","40.93","-74.18","A","GD"
"7524","NJ","Paterson","Passaic","34","31","40.93","-74.16","A","GD"
"7533","NJ","Paterson","Passaic","34","31","40.9","-74.15","A","POB"
"7538","NJ","Haledon","Passaic","34","31","40.94","-74.19","A","POB"
"7543","NJ","Paterson","Passaic","34","31","40.91","-74.15","A","POB"
"7544","NJ","Paterson","Passaic","34","31","40.93","-74.16","A","POB"
"7601","NJ","Hackensack","Bergen","34","3","40.89","-74.05","A","GD"
"7602","NJ","Hackensack","Bergen","34","3","40.89","-74.05","A","POB"
"7603","NJ","Bogota","Bergen","34","3","40.87","-74.03","A","GD"
"7604","NJ","Hasbrouck Heights","Bergen","34","3","40.86","-74.07","A","GD"
"7605","NJ","Leonia","Bergen","34","3","40.86","-73.99","A","GD"
"7606","NJ","South Hackensack","Bergen","34","3","40.86","-74.05","A","GD"
"7607","NJ","Maywood","Bergen","34","3","40.91","-74.06","A","GD"
"7608","NJ","Teterboro","Bergen","34","3","40.85","-74.06","A","GD"
"7620","NJ","Alpine","Bergen","34","3","40.95","-73.93","A","POB"
"7621","NJ","Bergenfield","Bergen","34","3","40.92","-74","A","GD"
"7624","NJ","Closter","Bergen","34","3","40.97","-73.96","A","GD"
"7626","NJ","Cresskill","Bergen","34","3","40.94","-73.96","A","GD"
"7627","NJ","Demarest","Bergen","34","3","40.96","-73.96","A","GD"
"7628","NJ","Dumont","Bergen","34","3","40.95","-73.99","A","GD"
"7630","NJ","Emerson","Bergen","34","3","40.98","-74.03","A","GD"
"7631","NJ","Englewood","Bergen","34","3","40.89","-73.98","A","GD"
"7632","NJ","Englewood Cliffs","Bergen","34","3","40.88","-73.95","A","GD"
"7640","NJ","Harrington Park","Bergen","34","3","40.99","-73.98","A","GD"
"7641","NJ","Haworth","Bergen","34","3","40.96","-73.99","A","GD"
"7642","NJ","Hillsdale","Bergen","34","3","41.01","-74.04","A","GD"
"7643","NJ","Little Ferry","Bergen","34","3","40.85","-74.04","A","GD"
"7644","NJ","Lodi","Bergen","34","3","40.88","-74.08","A","GD"
"7645","NJ","Montvale","Bergen","34","3","41.05","-74.04","A","GD"
"7646","NJ","New Milford","Bergen","34","3","40.94","-74.02","A","GD"
"7647","NJ","Northvale","Bergen","34","3","41.01","-73.95","A","GD"
"7648","NJ","Norwood","Bergen","34","3","40.99","-73.96","A","GD"
"7649","NJ","Oradell","Bergen","34","3","40.95","-74.03","A","GD"
"7650","NJ","Palisades Park","Bergen","34","3","40.85","-73.99","A","GD"
"7652","NJ","Paramus","Bergen","34","3","40.95","-74.07","A","GD"
"7653","NJ","Paramus","Bergen","34","3","40.95","-74.07","A","POB"
"7656","NJ","Park Ridge","Bergen","34","3","41.03","-74.04","A","GD"
"7657","NJ","Ridgefield","Bergen","34","3","40.83","-74","A","GD"
"7660","NJ","Ridgefield Park","Bergen","34","3","40.86","-74.02","A","GD"
"7661","NJ","River Edge","Bergen","34","3","40.93","-74.04","A","GD"
"7662","NJ","Rochelle Park","Bergen","34","3","40.91","-74.08","A","GD"
"7663","NJ","Saddle Brook","Bergen","34","3","40.9","-74.09","A","GD"
"7666","NJ","Teaneck","Bergen","34","3","40.89","-74.01","A","GD"
"7670","NJ","Tenafly","Bergen","34","3","40.92","-73.96","A","GD"
"7675","NJ","Westwood","Bergen","34","3","41","-74.01","A","GD"
"7676","NJ","Township Of Washington","Bergen","34","3","40.99","-74.06","A","GD"
"7677","NJ","Woodcliff Lake","Bergen","34","3","41.02","-74.06","A","GD"
"7699","NJ","Teterboro","Bergen","34","3","40.85","-74.07","A","PVT"
"7701","NJ","Red Bank","Monmouth","34","25","40.36","-74.08","A","GD"
"7702","NJ","Shrewsbury","Monmouth","34","25","40.33","-74.06","A","GD"
"7703","NJ","Fort Monmouth","Monmouth","34","25","40.31","-74.04","A","GD"
"7704","NJ","Fair Haven","Monmouth","34","25","40.36","-74.04","A","GD"
"7710","NJ","Adelphia","Monmouth","34","25","40.21","-74.26","A","POB"
"7711","NJ","Allenhurst","Monmouth","34","25","40.24","-74.01","A","GD"
"7712","NJ","Asbury Park","Monmouth","34","25","40.24","-74.04","A","GD"
"7715","NJ","Belmar","Monmouth","34","25","40.18","-74.03","A","PVT"
"7716","NJ","Atlantic Highlands","Monmouth","34","25","40.41","-74.03","A","GD"
"7717","NJ","Avon By The Sea","Monmouth","34","25","40.19","-74.02","A","GD"
"7718","NJ","Belford","Monmouth","34","25","40.42","-74.09","A","GD"
"7719","NJ","Belmar","Monmouth","34","25","40.17","-74.05","A","GD"
"7720","NJ","Bradley Beach","Monmouth","34","25","40.2","-74.01","A","GD"
"7721","NJ","Cliffwood","Monmouth","34","25","40.44","-74.24","A","GD"
"7722","NJ","Colts Neck","Monmouth","34","25","40.28","-74.17","A","GD"
"7723","NJ","Deal","Monmouth","34","25","40.25","-74","A","GD"
"7724","NJ","Eatontown","Monmouth","34","25","40.3","-74.07","A","GD"
"7726","NJ","Englishtown","Monmouth","34","25","40.3","-74.33","A","GD"
"7727","NJ","Farmingdale","Monmouth","34","25","40.21","-74.16","A","GD"
"7728","NJ","Freehold","Monmouth","34","25","40.24","-74.28","A","GD"
"7730","NJ","Hazlet","Monmouth","34","25","40.42","-74.18","A","GD"
"7731","NJ","Howell","Monmouth","34","25","40.15","-74.21","A","GD"
"7732","NJ","Highlands","Monmouth","34","25","40.42","-73.99","A","GD"
"7733","NJ","Holmdel","Monmouth","34","25","40.38","-74.17","A","GD"
"7734","NJ","Keansburg","Monmouth","34","25","40.44","-74.13","A","GD"
"7735","NJ","Keyport","Monmouth","34","25","40.44","-74.19","A","GD"
"7737","NJ","Leonardo","Monmouth","34","25","40.42","-74.06","A","GD"
"7738","NJ","Lincroft","Monmouth","34","25","40.34","-74.12","A","GD"
"7739","NJ","Little Silver","Monmouth","34","25","40.33","-74.04","A","GD"
"7740","NJ","Long Branch","Monmouth","34","25","40.3","-73.99","A","GD"
"7746","NJ","Marlboro","Monmouth","34","25","40.32","-74.26","A","GD"
"7747","NJ","Matawan","Monmouth","34","25","40.41","-74.24","A","GD"
"7748","NJ","Middletown","Monmouth","34","25","40.41","-74.11","A","GD"
"7750","NJ","Monmouth Beach","Monmouth","34","25","40.33","-73.98","A","GD"
"7751","NJ","Morganville","Monmouth","34","25","40.36","-74.27","A","GD"
"7752","NJ","Navesink","Monmouth","34","25","40.39","-74.09","A","POB"
"7753","NJ","Neptune","Monmouth","34","25","40.21","-74.06","A","GD"
"7754","NJ","Neptune","Monmouth","34","25","40.2","-74.03","A","POB"
"7755","NJ","Oakhurst","Monmouth","34","25","40.26","-74.02","A","GD"
"7756","NJ","Ocean Grove","Monmouth","34","25","40.21","-74.01","A","GD"
"7757","NJ","Oceanport","Monmouth","34","25","40.32","-74.02","A","GD"
"7758","NJ","Port Monmouth","Monmouth","34","25","40.43","-74.11","A","GD"
"7760","NJ","Rumson","Monmouth","34","25","40.37","-74","A","GD"
"7762","NJ","Spring Lake","Monmouth","34","25","40.15","-74.03","A","GD"
"7763","NJ","Tennent","Monmouth","34","25","40.28","-74.33","A","POB"
"7764","NJ","West Long Branch","Monmouth","34","25","40.29","-74.02","A","GD"
"7765","NJ","Wickatunk","Monmouth","34","25","40.35","-74.25","A","POB"
"7799","NJ","Eatontown","Monmouth","34","25","40.36","-74.08","A","GD"
"7801","NJ","Dover","Morris","34","27","40.9","-74.55","A","GD"
"7802","NJ","Dover","Morris","34","27","40.86","-74.57","A","POB"
"7803","NJ","Mine Hill","Morris","34","27","40.88","-74.6","A","GD"
"7806","NJ","Picatinny Arsenal","Morris","34","27","40.93","-74.58","A","GD"
"7820","NJ","Allamuchy","Warren","34","41","40.92","-74.81","A","POB"
"7821","NJ","Andover","Sussex","34","37","40.97","-74.74","A","GD"
"7822","NJ","Augusta","Sussex","34","37","41.14","-74.7","A","GD"
"7823","NJ","Belvidere","Warren","34","41","40.83","-75.05","A","GD"
"7825","NJ","Blairstown","Warren","34","41","40.97","-74.96","A","GD"
"7826","NJ","Branchville","Sussex","34","37","41.18","-74.76","A","GD"
"7827","NJ","Montague","Sussex","34","37","41.3","-74.76","A","GD"
"7828","NJ","Budd Lake","Morris","34","27","40.88","-74.74","A","GD"
"7829","NJ","Buttzville","Warren","34","41","40.83","-75.01","A","POB"
"7830","NJ","Califon","Hunterdon","34","19","40.72","-74.82","A","GD"
"7831","NJ","Changewater","Warren","34","41","40.74","-74.94","A","POB"
"7832","NJ","Columbia","Warren","34","41","40.94","-75.07","A","GD"
"7833","NJ","Delaware","Warren","34","41","40.9","-75.07","A","POB"
"7834","NJ","Denville","Morris","34","27","40.89","-74.49","A","GD"
"7836","NJ","Flanders","Morris","34","27","40.85","-74.7","A","GD"
"7837","NJ","Glasser","Sussex","34","37","40.97","-74.64","A","POB"
"7838","NJ","Great Meadows","Warren","34","41","40.89","-74.9","A","GD"
"7839","NJ","Greendell","Sussex","34","37","40.97","-74.82","A","POB"
"7840","NJ","Hackettstown","Warren","34","41","40.85","-74.83","A","GD"
"7842","NJ","Hibernia","Morris","34","27","40.94","-74.5","A","POB"
"7843","NJ","Hopatcong","Sussex","34","37","40.94","-74.66","A","GD"
"7844","NJ","Hope","Warren","34","41","40.91","-74.97","A","POB"
"7845","NJ","Ironia","Morris","34","27","40.83","-74.63","A","POB"
"7846","NJ","Johnsonburg","Warren","34","41","40.96","-74.88","A","POB"
"7847","NJ","Kenvil","Morris","34","27","40.88","-74.62","A","GD"
"7848","NJ","Lafayette","Sussex","34","37","41.1","-74.69","A","GD"
"7849","NJ","Lake Hopatcong","Morris","34","27","40.96","-74.61","A","GD"
"7850","NJ","Landing","Morris","34","27","40.91","-74.66","A","GD"
"7851","NJ","Layton","Sussex","34","37","41.23","-74.85","A","GD"
"7852","NJ","Ledgewood","Morris","34","27","40.89","-74.66","A","GD"
"7853","NJ","Long Valley","Morris","34","27","40.79","-74.78","A","GD"
"7855","NJ","Middleville","Sussex","34","37","41.05","-74.86","A","POB"
"7856","NJ","Mount Arlington","Morris","34","27","40.92","-74.64","A","GD"
"7857","NJ","Netcong","Morris","34","27","40.9","-74.7","A","GD"
"7860","NJ","Newton","Sussex","34","37","41.07","-74.8","A","GD"
"7863","NJ","Oxford","Warren","34","41","40.82","-74.97","A","GD"
"7865","NJ","Port Murray","Warren","34","41","40.78","-74.9","A","GD"
"7866","NJ","Rockaway","Morris","34","27","40.93","-74.51","A","GD"
"7869","NJ","Randolph","Morris","34","27","40.85","-74.58","A","GD"
"7870","NJ","Schooleys Mountain","Morris","34","27","40.8","-74.82","A","POB"
"7871","NJ","Sparta","Sussex","34","37","41.04","-74.64","A","GD"
"7874","NJ","Stanhope","Sussex","34","37","40.92","-74.72","A","GD"
"7875","NJ","Stillwater","Sussex","34","37","41.04","-74.88","A","POB"
"7876","NJ","Succasunna","Morris","34","27","40.86","-74.65","A","GD"
"7877","NJ","Swartswood","Sussex","34","37","41.09","-74.83","A","POB"
"7878","NJ","Mount Tabor","Morris","34","27","40.87","-74.48","A","POB"
"7879","NJ","Tranquility","Sussex","34","37","40.95","-74.8","A","POB"
"7880","NJ","Vienna","Warren","34","41","40.87","-74.89","A","POB"
"7881","NJ","Wallpack Center","Sussex","34","37","41.13","-74.91","A","GD"
"7882","NJ","Washington","Warren","34","41","40.75","-74.99","A","GD"
"7885","NJ","Wharton","Morris","34","27","40.92","-74.58","A","GD"
"7890","NJ","Branchville","Sussex","34","37","41.15","-74.75","A","PVT"
"7901","NJ","Summit","Union","34","39","40.71","-74.36","A","GD"
"7902","NJ","Summit","Union","34","39","40.71","-74.37","A","POB"
"7920","NJ","Basking Ridge","Somerset","34","35","40.68","-74.57","A","GD"
"7921","NJ","Bedminster","Somerset","34","35","40.65","-74.65","A","GD"
"7922","NJ","Berkeley Heights","Union","34","39","40.68","-74.43","A","GD"
"7924","NJ","Bernardsville","Somerset","34","35","40.72","-74.58","A","GD"
"7926","NJ","Brookside","Morris","34","27","40.8","-74.57","A","POB"
"7927","NJ","Cedar Knolls","Morris","34","27","40.82","-74.45","A","GD"
"7928","NJ","Chatham","Morris","34","27","40.73","-74.4","A","GD"
"7930","NJ","Chester","Morris","34","27","40.79","-74.69","A","GD"
"7931","NJ","Far Hills","Somerset","34","35","40.7","-74.65","A","GD"
"7932","NJ","Florham Park","Morris","34","27","40.78","-74.39","A","GD"
"7933","NJ","Gillette","Morris","34","27","40.68","-74.47","A","GD"
"7934","NJ","Gladstone","Somerset","34","35","40.72","-74.67","A","GD"
"7935","NJ","Green Village","Morris","34","27","40.74","-74.45","A","GD"
"7936","NJ","East Hanover","Morris","34","27","40.82","-74.36","A","GD"
"7938","NJ","Liberty Corner","Somerset","34","35","40.66","-74.59","A","POB"
"7939","NJ","Lyons","Somerset","34","35","40.67","-74.56","A","GD"
"7940","NJ","Madison","Morris","34","27","40.76","-74.42","A","GD"
"7945","NJ","Mendham","Morris","34","27","40.78","-74.59","A","GD"
"7946","NJ","Millington","Morris","34","27","40.68","-74.51","A","GD"
"7950","NJ","Morris Plains","Morris","34","27","40.85","-74.48","A","GD"
"7960","NJ","Morristown","Morris","34","27","40.79","-74.48","A","GD"
"7961","NJ","Convent Station","Morris","34","27","40.78","-74.43","A","POB"
"7962","NJ","Morristown","Morris","34","27","40.81","-74.5","A","POB"
"7963","NJ","Morristown","Morris","34","27","40.8","-74.48","A","POB"
"7970","NJ","Mount Freedom","Morris","34","27","40.81","-74.57","A","POB"
"7974","NJ","New Providence","Union","34","39","40.7","-74.4","A","GD"
"7976","NJ","New Vernon","Morris","34","27","40.72","-74.49","A","GD"
"7977","NJ","Peapack","Somerset","34","35","40.71","-74.66","A","POB"
"7978","NJ","Pluckemin","Somerset","34","35","40.64","-74.64","A","POB"
"7979","NJ","Pottersville","Hunterdon","34","19","40.7","-74.72","A","POB"
"7980","NJ","Stirling","Morris","34","27","40.67","-74.5","A","GD"
"7981","NJ","Whippany","Morris","34","27","40.82","-74.43","A","GD"
"7999","NJ","Whippany","Morris","34","27","40.82","-74.44","A","GD"
"8001","NJ","Alloway","Salem","34","33","39.56","-75.36","A","POB"
"8002","NJ","Cherry Hill","Camden","34","7","39.93","-75.02","A","GD"
"8003","NJ","Cherry Hill","Camden","34","7","39.88","-74.97","A","GD"
"8004","NJ","Atco","Camden","34","7","39.77","-74.88","A","GD"
"8005","NJ","Barnegat","Ocean","34","29","39.76","-74.28","A","GD"
"8006","NJ","Barnegat Light","Ocean","34","29","39.75","-74.11","A","POB"
"8007","NJ","Barrington","Camden","34","7","39.87","-75.05","A","GD"
"8008","NJ","Beach Haven","Ocean","34","29","39.62","-74.2","A","GD"
"8009","NJ","Berlin","Camden","34","7","39.78","-74.93","A","GD"
"8010","NJ","Beverly","Burlington","34","5","40.06","-74.91","A","GD"
"8011","NJ","Birmingham","Burlington","34","5","39.97","-74.71","A","POB"
"8012","NJ","Blackwood","Camden","34","7","39.78","-75.06","A","GD"
"8014","NJ","Bridgeport","Gloucester","34","15","39.8","-75.35","A","GD"
"8015","NJ","Browns Mills","Burlington","34","5","39.95","-74.55","A","GD"
"8016","NJ","Burlington","Burlington","34","5","40.07","-74.84","A","GD"
"8018","NJ","Cedar Brook","Camden","34","7","39.71","-74.9","A","POB"
"8019","NJ","Chatsworth","Burlington","34","5","39.78","-74.53","A","GD"
"8020","NJ","Clarksboro","Gloucester","34","15","39.8","-75.22","A","GD"
"8021","NJ","Clementon","Camden","34","7","39.81","-75","A","GD"
"8022","NJ","Columbus","Burlington","34","5","40.08","-74.71","A","GD"
"8023","NJ","Deepwater","Salem","34","33","39.69","-75.5","A","POB"
"8025","NJ","Ewan","Gloucester","34","15","39.7","-75.19","A","POB"
"8026","NJ","Gibbsboro","Camden","34","7","39.84","-74.97","A","GD"
"8027","NJ","Gibbstown","Gloucester","34","15","39.82","-75.28","A","GD"
"8028","NJ","Glassboro","Gloucester","34","15","39.7","-75.12","A","GD"
"8029","NJ","Glendora","Camden","34","7","39.84","-75.07","A","GD"
"8030","NJ","Gloucester City","Camden","34","7","39.89","-75.12","A","GD"
"8031","NJ","Bellmawr","Camden","34","7","39.87","-75.09","A","GD"
"8032","NJ","Grenloch","Gloucester","34","15","39.74","-75.08","A","GD"
"8033","NJ","Haddonfield","Camden","34","7","39.9","-75.04","A","GD"
"8034","NJ","Cherry Hill","Camden","34","7","39.91","-75","A","GD"
"8035","NJ","Haddon Heights","Camden","34","7","39.88","-75.07","A","GD"
"8036","NJ","Hainesport","Burlington","34","5","39.98","-74.83","A","GD"
"8037","NJ","Hammonton","Atlantic","34","1","39.63","-74.78","A","GD"
"8038","NJ","Hancocks Bridge","Salem","34","33","39.49","-75.49","A","POB"
"8039","NJ","Harrisonville","Gloucester","34","15","39.69","-75.27","A","POB"
"8041","NJ","Jobstown","Burlington","34","5","40.04","-74.69","A","GD"
"8042","NJ","Juliustown","Burlington","34","5","40.01","-74.66","A","POB"
"8043","NJ","Voorhees","Camden","34","7","39.85","-74.96","A","GD"
"8045","NJ","Lawnside","Camden","34","7","39.87","-75.03","A","GD"
"8046","NJ","Willingboro","Burlington","34","5","40.03","-74.88","A","GD"
"8048","NJ","Lumberton","Burlington","34","5","39.97","-74.8","A","GD"
"8049","NJ","Magnolia","Camden","34","7","39.85","-75.04","A","GD"
"8050","NJ","Manahawkin","Ocean","34","29","39.71","-74.26","A","GD"
"8051","NJ","Mantua","Gloucester","34","15","39.79","-75.18","A","GD"
"8052","NJ","Maple Shade","Burlington","34","5","39.95","-74.99","A","GD"
"8053","NJ","Marlton","Burlington","34","5","39.88","-74.9","A","GD"
"8054","NJ","Mount Laurel","Burlington","34","5","39.95","-74.9","A","GD"
"8055","NJ","Medford","Burlington","34","5","39.86","-74.82","A","GD"
"8056","NJ","Mickleton","Gloucester","34","15","39.79","-75.25","A","GD"
"8057","NJ","Moorestown","Burlington","34","5","39.97","-74.95","A","GD"
"8059","NJ","Mount Ephraim","Camden","34","7","39.88","-75.09","A","GD"
"8060","NJ","Mount Holly","Burlington","34","5","40","-74.79","A","GD"
"8061","NJ","Mount Royal","Gloucester","34","15","39.81","-75.21","A","GD"
"8062","NJ","Mullica Hill","Gloucester","34","15","39.72","-75.22","A","GD"
"8063","NJ","National Park","Gloucester","34","15","39.87","-75.18","A","GD"
"8064","NJ","New Lisbon","Burlington","34","5","39.96","-74.63","A","POB"
"8065","NJ","Palmyra","Burlington","34","5","40","-75.03","A","GD"
"8066","NJ","Paulsboro","Gloucester","34","15","39.83","-75.23","A","GD"
"8067","NJ","Pedricktown","Salem","34","33","39.74","-75.41","A","GD"
"8068","NJ","Pemberton","Burlington","34","5","39.96","-74.67","A","GD"
"8069","NJ","Penns Grove","Salem","34","33","39.71","-75.47","A","GD"
"8070","NJ","Pennsville","Salem","34","33","39.64","-75.52","A","GD"
"8071","NJ","Pitman","Gloucester","34","15","39.73","-75.13","A","GD"
"8072","NJ","Quinton","Salem","34","33","39.54","-75.42","A","POB"
"8073","NJ","Rancocas","Burlington","34","5","40.01","-74.87","A","POB"
"8074","NJ","Richwood","Gloucester","34","15","39.72","-75.16","A","POB"
"8075","NJ","Riverside","Burlington","34","5","40.03","-74.95","A","GD"
"8076","NJ","Riverton","Burlington","34","5","40.01","-75.01","A","POB"
"8077","NJ","Riverton","Burlington","34","5","40","-75","A","GD"
"8078","NJ","Runnemede","Camden","34","7","39.85","-75.08","A","GD"
"8079","NJ","Salem","Salem","34","33","39.55","-75.44","A","GD"
"8080","NJ","Sewell","Gloucester","34","15","39.75","-75.1","A","GD"
"8081","NJ","Sicklerville","Camden","34","7","39.74","-74.99","A","GD"
"8083","NJ","Somerdale","Camden","34","7","39.84","-75.02","A","GD"
"8084","NJ","Stratford","Camden","34","7","39.83","-75.01","A","GD"
"8085","NJ","Swedesboro","Gloucester","34","15","39.75","-75.33","A","GD"
"8086","NJ","Thorofare","Gloucester","34","15","39.84","-75.19","A","GD"
"8087","NJ","Tuckerton","Ocean","34","29","39.6","-74.36","A","GD"
"8088","NJ","Vincentown","Burlington","34","5","39.87","-74.7","A","GD"
"8089","NJ","Waterford Works","Camden","34","7","39.72","-74.85","A","GD"
"8090","NJ","Wenonah","Gloucester","34","15","39.8","-75.15","A","GD"
"8091","NJ","West Berlin","Camden","34","7","39.81","-74.93","A","GD"
"8092","NJ","West Creek","Ocean","34","29","39.66","-74.29","A","GD"
"8093","NJ","Westville","Gloucester","34","15","39.86","-75.13","A","GD"
"8094","NJ","Williamstown","Gloucester","34","15","39.66","-74.97","A","GD"
"8095","NJ","Winslow","Camden","34","7","39.65","-74.86","A","POB"
"8096","NJ","Woodbury","Gloucester","34","15","39.83","-75.13","A","GD"
"8097","NJ","Woodbury Heights","Gloucester","34","15","39.82","-75.15","A","GD"
"8098","NJ","Woodstown","Salem","34","33","39.64","-75.33","A","GD"
"8099","NJ","Bellmawr","Camden","34","7","39.87","-75.09","A","POB"
"8101","NJ","Camden","Camden","34","7","39.94","-75.12","A","POB"
"8102","NJ","Camden","Camden","34","7","39.95","-75.12","A","GD"
"8103","NJ","Camden","Camden","34","7","39.94","-75.11","A","GD"
"8104","NJ","Camden","Camden","34","7","39.92","-75.11","A","GD"
"8105","NJ","Camden","Camden","34","7","39.95","-75.09","A","GD"
"8106","NJ","Audubon","Camden","34","7","39.89","-75.07","A","GD"
"8107","NJ","Oaklyn","Camden","34","7","39.91","-75.09","A","GD"
"8108","NJ","Collingswood","Camden","34","7","39.92","-75.06","A","GD"
"8109","NJ","Merchantville","Camden","34","7","39.95","-75.05","A","GD"
"8110","NJ","Pennsauken","Camden","34","7","39.96","-75.06","A","GD"
"8201","NJ","Absecon","Atlantic","34","1","39.43","-74.5","A","GD"
"8202","NJ","Avalon","Cape May","34","9","39.09","-74.73","A","GD"
"8203","NJ","Brigantine","Atlantic","34","1","39.4","-74.38","A","GD"
"8204","NJ","Cape May","Cape May","34","9","38.96","-74.93","A","GD"
"8205","NJ","Absecon","Atlantic","34","1","39.48","-74.49","A","GD"
"8210","NJ","Cape May Court House","Cape May","34","9","39.09","-74.82","A","GD"
"8212","NJ","Cape May Point","Cape May","34","9","38.94","-74.96","A","POB"
"8213","NJ","Cologne","Atlantic","34","1","39.5","-74.61","A","POB"
"8214","NJ","Dennisville","Cape May","34","9","39.19","-74.82","A","POB"
"8215","NJ","Egg Harbor City","Atlantic","34","1","39.55","-74.61","A","GD"
"8217","NJ","Elwood","Atlantic","34","1","39.58","-74.72","A","POB"
"8218","NJ","Goshen","Cape May","34","9","39.14","-74.86","A","POB"
"8219","NJ","Green Creek","Cape May","34","9","39.04","-74.9","A","POB"
"8220","NJ","Leeds Point","Atlantic","34","1","39.5","-74.43","A","POB"
"8221","NJ","Linwood","Atlantic","34","1","39.35","-74.57","A","GD"
"8223","NJ","Marmora","Cape May","34","9","39.27","-74.65","A","GD"
"8224","NJ","New Gretna","Burlington","34","5","39.6","-74.47","A","POB"
"8225","NJ","Northfield","Atlantic","34","1","39.37","-74.55","A","GD"
"8226","NJ","Ocean City","Cape May","34","9","39.26","-74.6","A","GD"
"8230","NJ","Ocean View","Cape May","34","9","39.21","-74.71","A","GD"
"8231","NJ","Oceanville","Atlantic","34","1","39.47","-74.46","A","POB"
"8232","NJ","Pleasantville","Atlantic","34","1","39.39","-74.52","A","GD"
"8234","NJ","Egg Harbor Township","Atlantic","34","1","39.4","-74.6","A","GD"
"8240","NJ","Pomona","Atlantic","34","1","39.49","-74.53","A","POB"
"8241","NJ","Port Republic","Atlantic","34","1","39.53","-74.49","A","GD"
"8242","NJ","Rio Grande","Cape May","34","9","39.02","-74.88","A","GD"
"8243","NJ","Sea Isle City","Cape May","34","9","39.15","-74.7","A","GD"
"8244","NJ","Somers Point","Atlantic","34","1","39.32","-74.6","A","GD"
"8245","NJ","South Dennis","Cape May","34","9","39.17","-74.81","A","POB"
"8246","NJ","South Seaville","Cape May","34","9","39.18","-74.77","A","POB"
"8247","NJ","Stone Harbor","Cape May","34","9","39.05","-74.77","A","GD"
"8248","NJ","Strathmere","Cape May","34","9","39.2","-74.66","A","POB"
"8250","NJ","Tuckahoe","Cape May","34","9","39.29","-74.76","A","POB"
"8251","NJ","Villas","Cape May","34","9","39.02","-74.94","A","GD"
"8252","NJ","Whitesboro","Cape May","34","9","39.04","-74.86","A","POB"
"8260","NJ","Wildwood","Cape May","34","9","38.99","-74.82","A","GD"
"8270","NJ","Woodbine","Cape May","34","9","39.27","-74.8","A","GD"
"8302","NJ","Bridgeton","Cumberland","34","11","39.44","-75.25","A","GD"
"8310","NJ","Buena","Atlantic","34","1","39.52","-74.91","A","GD"
"8311","NJ","Cedarville","Cumberland","34","11","39.33","-75.21","A","GD"
"8312","NJ","Clayton","Gloucester","34","15","39.66","-75.09","A","GD"
"8313","NJ","Deerfield Street","Cumberland","34","11","39.53","-75.23","A","POB"
"8314","NJ","Delmont","Cumberland","34","11","39.24","-74.95","A","GD"
"8315","NJ","Dividing Creek","Cumberland","34","11","39.27","-75.11","A","POB"
"8316","NJ","Dorchester","Cumberland","34","11","39.27","-74.97","A","POB"
"8317","NJ","Dorothy","Atlantic","34","1","39.41","-74.83","A","GD"
"8318","NJ","Elmer","Salem","34","33","39.55","-75.17","A","GD"
"8319","NJ","Estell Manor","Atlantic","34","1","39.36","-74.83","A","GD"
"8320","NJ","Fairton","Cumberland","34","11","39.39","-75.16","A","POB"
"8321","NJ","Fortescue","Cumberland","34","11","39.24","-75.14","A","POB"
"8322","NJ","Franklinville","Gloucester","34","15","39.61","-75.05","A","GD"
"8323","NJ","Greenwich","Cumberland","34","11","39.4","-75.37","A","GD"
"8324","NJ","Heislerville","Cumberland","34","11","39.22","-75","A","GD"
"8326","NJ","Landisville","Atlantic","34","1","39.53","-74.94","A","GD"
"8327","NJ","Leesburg","Cumberland","34","11","39.26","-74.99","A","GD"
"8328","NJ","Malaga","Gloucester","34","15","39.57","-75.06","A","GD"
"8329","NJ","Mauricetown","Cumberland","34","11","39.28","-74.99","A","POB"
"8330","NJ","Mays Landing","Atlantic","34","1","39.47","-74.75","A","GD"
"8332","NJ","Millville","Cumberland","34","11","39.38","-75.03","A","GD"
"8340","NJ","Milmay","Atlantic","34","1","39.44","-74.88","A","GD"
"8341","NJ","Minotola","Atlantic","34","1","39.52","-74.95","A","GD"
"8342","NJ","Mizpah","Atlantic","34","1","39.49","-74.83","A","POB"
"8343","NJ","Monroeville","Salem","34","33","39.64","-75.15","A","GD"
"8344","NJ","Newfield","Gloucester","34","15","39.56","-75.02","A","GD"
"8345","NJ","Newport","Cumberland","34","11","39.27","-75.17","A","GD"
"8346","NJ","Newtonville","Atlantic","34","1","39.57","-74.86","A","GD"
"8347","NJ","Norma","Salem","34","33","39.5","-75.09","A","POB"
"8348","NJ","Port Elizabeth","Cumberland","34","11","39.31","-74.98","A","GD"
"8349","NJ","Port Norris","Cumberland","34","11","39.27","-75.07","A","GD"
"8350","NJ","Richland","Atlantic","34","1","39.49","-74.87","A","GD"
"8352","NJ","Rosenhayn","Cumberland","34","11","39.48","-75.13","A","POB"
"8353","NJ","Shiloh","Cumberland","34","11","39.46","-75.3","A","POB"
"8360","NJ","Vineland","Cumberland","34","11","39.49","-75.02","A","GD"
"8361","NJ","Vineland","Cumberland","34","11","39.46","-74.98","A","GD"
"8362","NJ","Vineland","Cumberland","34","11","39.46","-75","A","POB"
"8401","NJ","Atlantic City","Atlantic","34","1","39.37","-74.44","A","GD"
"8402","NJ","Margate City","Atlantic","34","1","39.33","-74.51","A","GD"
"8403","NJ","Longport","Atlantic","34","1","39.32","-74.53","A","GD"
"8404","NJ","Atlantic City","Atlantic","34","1","39.36","-74.43","A","POB"
"8405","NJ","Atlantic City","Atlantic","34","1","39.36","-74.42","A","PVT"
"8406","NJ","Ventnor City","Atlantic","34","1","39.34","-74.48","A","GD"
"8501","NJ","Allentown","Monmouth","34","25","40.16","-74.56","A","GD"
"8502","NJ","Belle Mead","Somerset","34","35","40.45","-74.65","A","GD"
"8504","NJ","Blawenburg","Somerset","34","35","40.4","-74.7","A","POB"
"8505","NJ","Bordentown","Burlington","34","5","40.13","-74.72","A","GD"
"8510","NJ","Millstone Township","Monmouth","34","25","40.19","-74.43","A","GD"
"8511","NJ","Cookstown","Burlington","34","5","40.04","-74.56","A","GD"
"8512","NJ","Cranbury","Middlesex","34","23","40.31","-74.53","A","GD"
"8514","NJ","Cream Ridge","Monmouth","34","25","40.12","-74.49","A","GD"
"8515","NJ","Chesterfield","Burlington","34","5","40.13","-74.65","A","GD"
"8518","NJ","Florence","Burlington","34","5","40.12","-74.8","A","GD"
"8520","NJ","Hightstown","Mercer","34","21","40.26","-74.53","A","GD"
"8525","NJ","Hopewell","Mercer","34","21","40.39","-74.78","A","GD"
"8526","NJ","Imlaystown","Monmouth","34","25","40.16","-74.5","A","POB"
"8527","NJ","Jackson","Ocean","34","29","40.11","-74.33","A","GD"
"8528","NJ","Kingston","Somerset","34","35","40.38","-74.62","A","GD"
"8530","NJ","Lambertville","Hunterdon","34","19","40.38","-74.93","A","GD"
"8533","NJ","New Egypt","Ocean","34","29","40.08","-74.5","A","GD"
"8534","NJ","Pennington","Mercer","34","21","40.32","-74.79","A","GD"
"8535","NJ","Millstone Township","Monmouth","34","25","40.23","-74.44","A","GD"
"8536","NJ","Plainsboro","Middlesex","34","23","40.33","-74.58","A","GD"
"8540","NJ","Princeton","Mercer","34","21","40.36","-74.64","A","GD"
"8541","NJ","Princeton","Mercer","34","21","40.35","-74.66","A","PVT"
"8542","NJ","Princeton","Mercer","34","21","40.35","-74.66","A","GD"
"8543","NJ","Princeton","Mercer","34","21","40.31","-74.65","A","POB"
"8544","NJ","Princeton","Mercer","34","21","40.35","-74.66","A","PVT"
"8550","NJ","Princeton Junction","Mercer","34","21","40.29","-74.61","A","GD"
"8551","NJ","Ringoes","Hunterdon","34","19","40.45","-74.85","A","GD"
"8553","NJ","Rocky Hill","Somerset","34","35","40.4","-74.64","A","GD"
"8554","NJ","Roebling","Burlington","34","5","40.12","-74.78","A","GD"
"8555","NJ","Roosevelt","Monmouth","34","25","40.22","-74.47","A","POB"
"8556","NJ","Rosemont","Hunterdon","34","19","40.42","-74.99","A","GD"
"8557","NJ","Sergeantsville","Hunterdon","34","19","40.45","-74.94","A","POB"
"8558","NJ","Skillman","Somerset","34","35","40.41","-74.7","A","GD"
"8559","NJ","Stockton","Hunterdon","34","19","40.43","-74.97","A","GD"
"8560","NJ","Titusville","Mercer","34","21","40.3","-74.86","A","GD"
"8561","NJ","Windsor","Mercer","34","21","40.24","-74.58","A","POB"
"8562","NJ","Wrightstown","Burlington","34","5","40.06","-74.59","A","GD"
"8601","NJ","Trenton","Mercer","34","21","40.22","-74.76","A","POB"
"8602","NJ","Trenton","Mercer","34","21","40.22","-74.58","A","POB"
"8603","NJ","Trenton","Mercer","34","21","40.22","-74.77","A","POB"
"8604","NJ","Trenton","Mercer","34","21","40.22","-74.77","A","POB"
"8605","NJ","Trenton","Mercer","34","21","40.22","-74.77","A","POB"
"8606","NJ","Trenton","Mercer","34","21","40.22","-74.58","A","POB"
"8607","NJ","Trenton","Mercer","34","21","40.22","-74.77","A","POB"
"8608","NJ","Trenton","Mercer","34","21","40.22","-74.77","A","GD"
"8609","NJ","Trenton","Mercer","34","21","40.22","-74.74","A","GD"
"8610","NJ","Trenton","Mercer","34","21","40.2","-74.72","A","GD"
"8611","NJ","Trenton","Mercer","34","21","40.21","-74.75","A","GD"
"8618","NJ","Trenton","Mercer","34","21","40.24","-74.78","A","GD"
"8619","NJ","Trenton","Mercer","34","21","40.24","-74.69","A","GD"
"8620","NJ","Trenton","Mercer","34","21","40.17","-74.67","A","GD"
"8625","NJ","Trenton","Mercer","34","21","40.21","-74.76","A","POB"
"8628","NJ","Trenton","Mercer","34","21","40.26","-74.83","A","GD"
"8629","NJ","Trenton","Mercer","34","21","40.22","-74.73","A","GD"
"8638","NJ","Trenton","Mercer","34","21","40.25","-74.76","A","GD"
"8640","NJ","Joint Base Mdl","Burlington","34","5","40.01","-74.62","A","GD"
"8641","NJ","Joint Base Mdl","Burlington","34","5","40.03","-74.59","A","GD"
"8644","NJ","Trenton","Mercer","34","21","40.23","-74.73","A","GD"
"8645","NJ","Trenton","Mercer","34","21","40.22","-74.77","A","PVT"
"8646","NJ","Trenton","Mercer","34","21","40.22","-74.77","A","PVT"
"8647","NJ","Trenton","Mercer","34","21","40.22","-74.77","A","PVT"
"8648","NJ","Lawrence Township","Mercer","34","21","40.28","-74.72","A","GD"
"8650","NJ","Trenton","Mercer","34","21","40.14","-74.63","A","POB"
"8666","NJ","Trenton","Mercer","34","21","40.22","-74.77","A","PVT"
"8690","NJ","Trenton","Mercer","34","21","40.22","-74.66","A","GD"
"8691","NJ","Trenton","Mercer","34","21","40.21","-74.61","A","GD"
"8695","NJ","Trenton","Mercer","34","21","40.22","-74.77","A","PVT"
"8701","NJ","Lakewood","Ocean","34","29","40.08","-74.21","A","GD"
"8720","NJ","Allenwood","Monmouth","34","25","40.14","-74.11","A","POB"
"8721","NJ","Bayville","Ocean","34","29","39.91","-74.16","A","GD"
"8722","NJ","Beachwood","Ocean","34","29","39.93","-74.2","A","GD"
"8723","NJ","Brick","Ocean","34","29","40.04","-74.12","A","GD"
"8724","NJ","Brick","Ocean","34","29","40.08","-74.12","A","GD"
"8730","NJ","Brielle","Monmouth","34","25","40.11","-74.06","A","GD"
"8731","NJ","Forked River","Ocean","34","29","39.85","-74.21","A","GD"
"8732","NJ","Island Heights","Ocean","34","29","39.94","-74.15","A","POB"
"8733","NJ","Lakehurst","Ocean","34","29","40.02","-74.32","A","GD"
"8734","NJ","Lanoka Harbor","Ocean","34","29","39.86","-74.17","A","GD"
"8735","NJ","Lavallette","Ocean","34","29","39.98","-74.07","A","GD"
"8736","NJ","Manasquan","Monmouth","34","25","40.12","-74.06","A","GD"
"8738","NJ","Mantoloking","Ocean","34","29","40.03","-74.05","A","GD"
"8739","NJ","Normandy Beach","Ocean","34","29","40","-74.06","A","POB"
"8740","NJ","Ocean Gate","Ocean","34","29","39.93","-74.13","A","POB"
"8741","NJ","Pine Beach","Ocean","34","29","39.93","-74.17","A","GD"
"8742","NJ","Point Pleasant Beach","Ocean","34","29","40.08","-74.06","A","GD"
"8750","NJ","Sea Girt","Monmouth","34","25","40.13","-74.04","A","GD"
"8751","NJ","Seaside Heights","Ocean","34","29","39.95","-74.08","A","GD"
"8752","NJ","Seaside Park","Ocean","34","29","39.91","-74.08","A","GD"
"8753","NJ","Toms River","Ocean","34","29","39.97","-74.16","A","GD"
"8754","NJ","Toms River","Ocean","34","29","39.98","-74.16","A","POB"
"8755","NJ","Toms River","Ocean","34","29","40","-74.23","A","GD"
"8756","NJ","Toms River","Ocean","34","29","39.94","-74.25","A","POB"
"8757","NJ","Toms River","Ocean","34","29","39.97","-74.25","A","GD"
"8758","NJ","Waretown","Ocean","34","29","39.79","-74.21","A","GD"
"8759","NJ","Manchester Township","Ocean","34","29","39.98","-74.35","A","GD"
"8801","NJ","Annandale","Hunterdon","34","19","40.63","-74.89","A","GD"
"8802","NJ","Asbury","Hunterdon","34","19","40.67","-75.02","A","GD"
"8803","NJ","Baptistown","Hunterdon","34","19","40.52","-75.01","A","POB"
"8804","NJ","Bloomsbury","Hunterdon","34","19","40.65","-75.09","A","GD"
"8805","NJ","Bound Brook","Somerset","34","35","40.57","-74.54","A","GD"
"8807","NJ","Bridgewater","Somerset","34","35","40.59","-74.62","A","GD"
"8808","NJ","Broadway","Warren","34","41","40.73","-75.05","A","POB"
"8809","NJ","Clinton","Hunterdon","34","19","40.64","-74.91","A","GD"
"8810","NJ","Dayton","Middlesex","34","23","40.38","-74.51","A","GD"
"8812","NJ","Dunellen","Middlesex","34","23","40.59","-74.48","A","GD"
"8816","NJ","East Brunswick","Middlesex","34","23","40.43","-74.41","A","GD"
"8817","NJ","Edison","Middlesex","34","23","40.52","-74.4","A","GD"
"8818","NJ","Edison","Middlesex","34","23","40.52","-74.4","A","POB"
"8820","NJ","Edison","Middlesex","34","23","40.58","-74.36","A","GD"
"8821","NJ","Flagtown","Somerset","34","35","40.52","-74.69","A","POB"
"8822","NJ","Flemington","Hunterdon","34","19","40.51","-74.85","A","GD"
"8823","NJ","Franklin Park","Somerset","34","35","40.44","-74.56","A","GD"
"8824","NJ","Kendall Park","Middlesex","34","23","40.42","-74.55","A","GD"
"8825","NJ","Frenchtown","Hunterdon","34","19","40.52","-75.04","A","GD"
"8826","NJ","Glen Gardner","Hunterdon","34","19","40.7","-74.92","A","GD"
"8827","NJ","Hampton","Hunterdon","34","19","40.67","-74.97","A","GD"
"8828","NJ","Helmetta","Middlesex","34","23","40.38","-74.42","A","GD"
"8829","NJ","High Bridge","Hunterdon","34","19","40.67","-74.89","A","GD"
"8830","NJ","Iselin","Middlesex","34","23","40.57","-74.32","A","GD"
"8831","NJ","Monroe Township","Middlesex","34","23","40.33","-74.44","A","GD"
"8832","NJ","Keasbey","Middlesex","34","23","40.52","-74.3","A","GD"
"8833","NJ","Lebanon","Hunterdon","34","19","40.64","-74.82","A","GD"
"8834","NJ","Little York","Hunterdon","34","19","40.61","-75.06","A","POB"
"8835","NJ","Manville","Somerset","34","35","40.54","-74.59","A","GD"
"8836","NJ","Martinsville","Somerset","34","35","40.59","-74.55","A","GD"
"8837","NJ","Edison","Middlesex","34","23","40.53","-74.34","A","GD"
"8840","NJ","Metuchen","Middlesex","34","23","40.54","-74.36","A","GD"
"8844","NJ","Hillsborough","Somerset","34","35","40.51","-74.65","A","GD"
"8846","NJ","Middlesex","Middlesex","34","23","40.57","-74.5","A","GD"
"8848","NJ","Milford","Hunterdon","34","19","40.59","-75.1","A","GD"
"8850","NJ","Milltown","Middlesex","34","23","40.45","-74.44","A","GD"
"8852","NJ","Monmouth Junction","Middlesex","34","23","40.39","-74.55","A","GD"
"8853","NJ","Neshanic Station","Somerset","34","35","40.53","-74.74","A","GD"
"8854","NJ","Piscataway","Middlesex","34","23","40.56","-74.46","A","GD"
"8855","NJ","Piscataway","Middlesex","34","23","40.54","-74.47","A","POB"
"8857","NJ","Old Bridge","Middlesex","34","23","40.4","-74.33","A","GD"
"8858","NJ","Oldwick","Hunterdon","34","19","40.67","-74.73","A","POB"
"8859","NJ","Parlin","Middlesex","34","23","40.46","-74.3","A","GD"
"8861","NJ","Perth Amboy","Middlesex","34","23","40.52","-74.28","A","GD"
"8862","NJ","Perth Amboy","Middlesex","34","23","40.52","-74.27","A","POB"
"8863","NJ","Fords","Middlesex","34","23","40.54","-74.31","A","GD"
"8865","NJ","Phillipsburg","Warren","34","41","40.69","-75.17","A","GD"
"8867","NJ","Pittstown","Hunterdon","34","19","40.58","-74.97","A","GD"
"8868","NJ","Quakertown","Hunterdon","34","19","40.57","-74.94","A","POB"
"8869","NJ","Raritan","Somerset","34","35","40.57","-74.64","A","GD"
"8870","NJ","Readington","Hunterdon","34","19","40.57","-74.74","A","POB"
"8871","NJ","Sayreville","Middlesex","34","23","40.47","-74.32","A","POB"
"8872","NJ","Sayreville","Middlesex","34","23","40.46","-74.35","A","GD"
"8873","NJ","Somerset","Somerset","34","35","40.51","-74.51","A","GD"
"8875","NJ","Somerset","Somerset","34","35","40.52","-74.54","A","POB"
"8876","NJ","Somerville","Somerset","34","35","40.57","-74.68","A","GD"
"8879","NJ","South Amboy","Middlesex","34","23","40.47","-74.28","A","GD"
"8880","NJ","South Bound Brook","Somerset","34","35","40.55","-74.53","A","GD"
"8882","NJ","South River","Middlesex","34","23","40.45","-74.38","A","GD"
"8884","NJ","Spotswood","Middlesex","34","23","40.39","-74.39","A","GD"
"8885","NJ","Stanton","Hunterdon","34","19","40.57","-74.83","A","POB"
"8886","NJ","Stewartsville","Warren","34","41","40.69","-75.11","A","GD"
"8887","NJ","Three Bridges","Hunterdon","34","19","40.53","-74.8","A","GD"
"8888","NJ","Whitehouse","Hunterdon","34","19","40.62","-74.74","A","POB"
"8889","NJ","Whitehouse Station","Hunterdon","34","19","40.61","-74.76","A","GD"
"8890","NJ","Zarephath","Somerset","34","35","40.54","-74.58","A","POB"
"8899","NJ","Edison","Middlesex","34","23","40.52","-74.4","A","GD"
"8901","NJ","New Brunswick","Middlesex","34","23","40.49","-74.45","A","GD"
"8902","NJ","North Brunswick","Middlesex","34","23","40.45","-74.48","A","GD"
"8903","NJ","New Brunswick","Middlesex","34","23","40.51","-74.45","A","POB"
"8904","NJ","Highland Park","Middlesex","34","23","40.5","-74.43","A","GD"
"8906","NJ","New Brunswick","Middlesex","34","23","40.49","-74.45","A","POB"
"8933","NJ","New Brunswick","Middlesex","34","23","40.49","-74.45","A","PVT"
"8989","NJ","New Brunswick","Middlesex","34","23","40.52","-74.42","A","PVT"
