"ZIPCode","State","City","County","StateFIPS","CountyFIPS","Latitude","Longitude","Preference","Type"
"70001","LA","Metairie","Jefferson","22","51","29.99","-90.17","A","GD"
"70002","LA","Metairie","Jefferson","22","51","30.01","-90.16","A","GD"
"70003","LA","Metairie","Jefferson","22","51","30","-90.21","A","GD"
"70004","LA","Metairie","Jefferson","22","51","30","-90.18","A","POB"
"70005","LA","Metairie","Jefferson","22","51","30","-90.13","A","GD"
"70006","LA","Metairie","Jefferson","22","51","30.01","-90.19","A","GD"
"70009","LA","Metairie","Jefferson","22","51","30.01","-90.16","A","POB"
"70010","LA","Metairie","Jefferson","22","51","30.01","-90.16","A","POB"
"70011","LA","Metairie","Jefferson","22","51","30.01","-90.16","A","POB"
"70030","LA","Des Allemands","Saint Charles","22","89","29.82","-90.45","A","GD"
"70031","LA","Ama","Saint Charles","22","89","29.95","-90.3","A","GD"
"70032","LA","Arabi","Saint Bernard","22","87","29.96","-90","A","GD"
"70033","LA","Metairie","Jefferson","22","51","30","-90.21","A","POB"
"70036","LA","Barataria","Jefferson","22","51","29.72","-90.12","A","GD"
"70037","LA","Belle Chasse","Plaquemines","22","75","29.81","-90.01","A","GD"
"70038","LA","Boothville","Plaquemines","22","75","29.32","-89.39","A","POB"
"70039","LA","Boutte","Saint Charles","22","89","29.89","-90.39","A","GD"
"70040","LA","Braithwaite","Plaquemines","22","75","29.8","-89.96","A","GD"
"70041","LA","Buras","Plaquemines","22","75","29.36","-89.53","A","GD"
"70043","LA","Chalmette","Saint Bernard","22","87","29.95","-89.96","A","GD"
"70044","LA","Chalmette","Saint Bernard","22","87","29.95","-89.96","A","POB"
"70047","LA","Destrehan","Saint Charles","22","89","29.97","-90.38","A","GD"
"70049","LA","Edgard","St John The Baptist","22","95","30.03","-90.57","A","GD"
"70050","LA","Empire","Plaquemines","22","75","29.39","-89.6","A","POB"
"70051","LA","Garyville","St John The Baptist","22","95","30.06","-90.62","A","GD"
"70052","LA","Gramercy","Saint James","22","93","30.06","-90.69","A","GD"
"70053","LA","Gretna","Jefferson","22","51","29.92","-90.05","A","GD"
"70054","LA","Gretna","Jefferson","22","51","29.91","-90.05","A","POB"
"70055","LA","Metairie","Jefferson","22","51","30","-90.13","A","POB"
"70056","LA","Gretna","Jefferson","22","51","29.89","-90.03","A","GD"
"70057","LA","Hahnville","Saint Charles","22","89","29.98","-90.45","A","GD"
"70058","LA","Harvey","Jefferson","22","51","29.88","-90.07","A","GD"
"70059","LA","Harvey","Jefferson","22","51","29.9","-90.08","A","POB"
"70060","LA","Metairie","Jefferson","22","51","30","-90.17","A","PVT"
"70062","LA","Kenner","Jefferson","22","51","29.99","-90.25","A","GD"
"70063","LA","Kenner","Jefferson","22","51","29.99","-90.26","A","POB"
"70064","LA","Kenner","Jefferson","22","51","30.02","-90.25","A","POB"
"70065","LA","Kenner","Jefferson","22","51","30.03","-90.25","A","GD"
"70067","LA","Lafitte","Jefferson","22","51","29.72","-90.11","A","GD"
"70068","LA","La Place","St John The Baptist","22","95","30.07","-90.48","A","GD"
"70069","LA","La Place","St John The Baptist","22","95","30.07","-90.5","A","POB"
"70070","LA","Luling","Saint Charles","22","89","29.9","-90.35","A","GD"
"70071","LA","Lutcher","Saint James","22","93","30.05","-90.7","A","GD"
"70072","LA","Marrero","Jefferson","22","51","29.87","-90.11","A","GD"
"70073","LA","Marrero","Jefferson","22","51","29.86","-90.12","A","POB"
"70075","LA","Meraux","Saint Bernard","22","87","29.93","-89.92","A","GD"
"70076","LA","Mount Airy","St John The Baptist","22","95","30.06","-90.65","A","GD"
"70078","LA","New Sarpy","Saint Charles","22","89","29.98","-90.39","A","POB"
"70079","LA","Norco","Saint Charles","22","89","30","-90.41","A","GD"
"70080","LA","Paradis","Saint Charles","22","89","29.87","-90.44","A","GD"
"70081","LA","Pilottown","Plaquemines","22","75","29.18","-89.26","A","POB"
"70082","LA","Pointe A La Hache","Plaquemines","22","75","29.57","-89.78","A","POB"
"70083","LA","Port Sulphur","Plaquemines","22","75","29.49","-89.81","A","GD"
"70084","LA","Reserve","St John The Baptist","22","95","30.06","-90.56","A","GD"
"70085","LA","Saint Bernard","Saint Bernard","22","87","29.86","-89.8","A","GD"
"70086","LA","Saint James","Saint James","22","93","30.03","-90.86","A","GD"
"70087","LA","Saint Rose","Saint Charles","22","89","29.96","-90.31","A","GD"
"70090","LA","Vacherie","Saint James","22","93","29.99","-90.71","A","GD"
"70091","LA","Venice","Plaquemines","22","75","29.19","-89.26","A","GD"
"70092","LA","Violet","Saint Bernard","22","87","29.9","-89.9","A","GD"
"70093","LA","Belle Chasse","Plaquemines","22","75","29.85","-89.99","A","GD"
"70094","LA","Westwego","Jefferson","22","51","29.92","-90.19","A","GD"
"70096","LA","Westwego","Jefferson","22","51","29.9","-90.14","A","POB"
"70097","LA","Kenner","Jefferson","22","51","30.03","-90.24","A","POB"
"70112","LA","New Orleans","Orleans","22","71","29.96","-90.08","A","GD"
"70113","LA","New Orleans","Orleans","22","71","29.94","-90.08","A","GD"
"70114","LA","New Orleans","Orleans","22","71","29.94","-90.03","A","GD"
"70115","LA","New Orleans","Orleans","22","71","29.93","-90.1","A","GD"
"70116","LA","New Orleans","Orleans","22","71","29.97","-90.07","A","GD"
"70117","LA","New Orleans","Orleans","22","71","29.97","-90.03","A","GD"
"70118","LA","New Orleans","Orleans","22","71","29.95","-90.12","A","GD"
"70119","LA","New Orleans","Orleans","22","71","29.98","-90.09","A","GD"
"70121","LA","New Orleans","Jefferson","22","51","29.96","-90.16","A","GD"
"70122","LA","New Orleans","Orleans","22","71","30.01","-90.06","A","GD"
"70123","LA","New Orleans","Jefferson","22","51","29.95","-90.21","A","GD"
"70124","LA","New Orleans","Orleans","22","71","30","-90.11","A","GD"
"70125","LA","New Orleans","Orleans","22","71","29.95","-90.1","A","GD"
"70126","LA","New Orleans","Orleans","22","71","30.01","-90.02","A","GD"
"70127","LA","New Orleans","Orleans","22","71","30.03","-89.98","A","GD"
"70128","LA","New Orleans","Orleans","22","71","30.05","-89.96","A","GD"
"70129","LA","New Orleans","Orleans","22","71","30.05","-89.87","A","GD"
"70130","LA","New Orleans","Orleans","22","71","29.94","-90.07","A","GD"
"70131","LA","New Orleans","Orleans","22","71","29.92","-89.99","A","GD"
"70139","LA","New Orleans","Orleans","22","71","29.95","-90.07","A","GD"
"70141","LA","New Orleans","Jefferson","22","51","30.03","-90.03","A","POB"
"70142","LA","New Orleans","Orleans","22","71","29.94","-90.03","A","PVT"
"70143","LA","New Orleans","Orleans","22","71","29.83","-90.02","A","PVT"
"70145","LA","New Orleans","Orleans","22","71","29.96","-90.03","A","GD"
"70146","LA","New Orleans","Orleans","22","71","30.03","-90.04","A","GD"
"70148","LA","New Orleans","Orleans","22","71","30.03","-90.07","A","PVT"
"70150","LA","New Orleans","Orleans","22","71","29.94","-90.08","A","POB"
"70151","LA","New Orleans","Orleans","22","71","29.94","-90.08","A","POB"
"70152","LA","New Orleans","Orleans","22","71","29.94","-90.08","A","POB"
"70153","LA","New Orleans","Orleans","22","71","29.94","-90.08","A","POB"
"70154","LA","New Orleans","Orleans","22","71","29.92","-90.1","A","PVT"
"70156","LA","New Orleans","Orleans","22","71","29.94","-90.08","A","POB"
"70157","LA","New Orleans","Orleans","22","71","29.94","-90.08","A","POB"
"70158","LA","New Orleans","Orleans","22","71","29.92","-90.07","A","POB"
"70159","LA","New Orleans","Orleans","22","71","29.96","-90.03","A","PVT"
"70160","LA","New Orleans","Orleans","22","71","29.94","-90.08","A","POB"
"70161","LA","New Orleans","Orleans","22","71","29.94","-90.08","A","POB"
"70162","LA","New Orleans","Orleans","22","71","29.95","-90.07","A","PVT"
"70163","LA","New Orleans","Orleans","22","71","29.95","-90.08","A","GD"
"70164","LA","New Orleans","Orleans","22","71","29.98","-90.08","A","PVT"
"70165","LA","New Orleans","Orleans","22","71","29.94","-90.07","A","PVT"
"70166","LA","New Orleans","Orleans","22","71","29.95","-90.07","A","PVT"
"70167","LA","New Orleans","Orleans","22","71","29.96","-90.09","A","PVT"
"70170","LA","New Orleans","Orleans","22","71","29.95","-90.07","A","GD"
"70172","LA","New Orleans","Orleans","22","71","29.96","-90.07","A","POB"
"70174","LA","New Orleans","Orleans","22","71","29.93","-90.01","A","POB"
"70175","LA","New Orleans","Orleans","22","71","29.93","-90.1","A","POB"
"70176","LA","New Orleans","Orleans","22","71","29.94","-90.07","A","POB"
"70177","LA","New Orleans","Orleans","22","71","29.98","-90","A","POB"
"70178","LA","New Orleans","Orleans","22","71","29.95","-90.13","A","POB"
"70179","LA","New Orleans","Orleans","22","71","29.98","-90.09","A","POB"
"70181","LA","New Orleans","Jefferson","22","51","29.96","-90.07","A","POB"
"70182","LA","New Orleans","Orleans","22","71","30.01","-90.07","A","POB"
"70183","LA","New Orleans","Jefferson","22","51","29.96","-90.2","A","POB"
"70184","LA","New Orleans","Orleans","22","71","30","-90.1","A","POB"
"70185","LA","New Orleans","Orleans","22","71","29.95","-90.1","A","POB"
"70186","LA","New Orleans","Orleans","22","71","30.01","-90","A","POB"
"70187","LA","New Orleans","Orleans","22","71","30.02","-89.98","A","POB"
"70189","LA","New Orleans","Orleans","22","71","30.08","-89.82","A","POB"
"70190","LA","New Orleans","Orleans","22","71","29.94","-90.07","A","POB"
"70195","LA","New Orleans","Orleans","22","71","29.95","-90.07","A","PVT"
"70301","LA","Thibodaux","Lafourche","22","57","29.8","-90.8","A","GD"
"70302","LA","Thibodaux","Lafourche","22","57","29.8","-90.83","A","POB"
"70310","LA","Thibodaux","Lafourche","22","57","29.79","-90.82","A","PVT"
"70339","LA","Pierre Part","Assumption","22","7","29.93","-91.2","A","GD"
"70340","LA","Amelia","Saint Mary","22","101","29.67","-91.1","A","POB"
"70341","LA","Belle Rose","Assumption","22","7","30.03","-91.08","A","GD"
"70342","LA","Berwick","Saint Mary","22","101","29.7","-91.23","A","GD"
"70343","LA","Bourg","Terrebonne","22","109","29.56","-90.59","A","GD"
"70344","LA","Chauvin","Terrebonne","22","109","29.26","-90.62","A","GD"
"70345","LA","Cut Off","Lafourche","22","57","29.51","-90.32","A","GD"
"70346","LA","Donaldsonville","Ascension","22","5","30.1","-91","A","GD"
"70352","LA","Donner","Terrebonne","22","109","29.7","-90.95","A","GD"
"70353","LA","Dulac","Terrebonne","22","109","29.37","-90.71","A","GD"
"70354","LA","Galliano","Lafourche","22","57","29.42","-90.29","A","GD"
"70355","LA","Gheens","Lafourche","22","57","29.69","-90.44","A","GD"
"70356","LA","Gibson","Terrebonne","22","109","29.66","-90.97","A","GD"
"70357","LA","Golden Meadow","Lafourche","22","57","29.26","-90.23","A","GD"
"70358","LA","Grand Isle","Jefferson","22","51","29.23","-90.01","A","GD"
"70359","LA","Gray","Terrebonne","22","109","29.69","-90.78","A","GD"
"70360","LA","Houma","Terrebonne","22","109","29.59","-90.75","A","GD"
"70361","LA","Houma","Terrebonne","22","109","29.6","-90.72","A","POB"
"70363","LA","Houma","Terrebonne","22","109","29.56","-90.69","A","GD"
"70364","LA","Houma","Terrebonne","22","109","29.63","-90.72","A","GD"
"70371","LA","Kraemer","Lafourche","22","57","29.87","-90.6","A","POB"
"70372","LA","Labadieville","Assumption","22","7","29.82","-90.97","A","GD"
"70373","LA","Larose","Lafourche","22","57","29.57","-90.38","A","GD"
"70374","LA","Lockport","Lafourche","22","57","29.63","-90.51","A","GD"
"70375","LA","Mathews","Lafourche","22","57","29.69","-90.54","A","GD"
"70377","LA","Montegut","Terrebonne","22","109","29.35","-90.52","A","GD"
"70380","LA","Morgan City","Saint Mary","22","101","29.69","-91.18","A","GD"
"70381","LA","Morgan City","Saint Mary","22","101","29.7","-91.19","A","POB"
"70390","LA","Napoleonville","Assumption","22","7","29.92","-91.02","A","GD"
"70391","LA","Paincourtville","Assumption","22","7","29.99","-91.06","A","POB"
"70392","LA","Patterson","Saint Mary","22","101","29.7","-91.31","A","GD"
"70393","LA","Plattenville","Assumption","22","7","29.99","-91.02","A","GD"
"70394","LA","Raceland","Lafourche","22","57","29.71","-90.59","A","GD"
"70395","LA","Schriever","Terrebonne","22","109","29.71","-90.83","A","GD"
"70397","LA","Theriot","Terrebonne","22","109","29.41","-90.79","A","GD"
"70401","LA","Hammond","Tangipahoa","22","105","30.52","-90.47","A","GD"
"70402","LA","Hammond","Tangipahoa","22","105","30.52","-90.47","A","PVT"
"70403","LA","Hammond","Tangipahoa","22","105","30.48","-90.48","A","GD"
"70404","LA","Hammond","Tangipahoa","22","105","30.51","-90.46","A","POB"
"70420","LA","Abita Springs","Saint Tammany","22","103","30.48","-90.01","A","GD"
"70421","LA","Akers","Tangipahoa","22","105","30.4","-90.37","A","GD"
"70422","LA","Amite","Tangipahoa","22","105","30.73","-90.51","A","GD"
"70426","LA","Angie","Washington","22","117","30.94","-89.83","A","GD"
"70427","LA","Bogalusa","Washington","22","117","30.76","-89.88","A","GD"
"70429","LA","Bogalusa","Washington","22","117","30.79","-89.85","A","POB"
"70431","LA","Bush","Saint Tammany","22","103","30.61","-89.96","A","GD"
"70433","LA","Covington","Saint Tammany","22","103","30.46","-90.11","A","GD"
"70434","LA","Covington","Saint Tammany","22","103","30.47","-90.09","A","POB"
"70435","LA","Covington","Saint Tammany","22","103","30.55","-90.1","A","GD"
"70436","LA","Fluker","Tangipahoa","22","105","30.81","-90.52","A","GD"
"70437","LA","Folsom","Saint Tammany","22","103","30.63","-90.19","A","GD"
"70438","LA","Franklinton","Washington","22","117","30.84","-90.12","A","GD"
"70441","LA","Greensburg","Saint Helena","22","91","30.85","-90.75","A","GD"
"70442","LA","Husser","Tangipahoa","22","105","30.68","-90.33","A","GD"
"70443","LA","Independence","Tangipahoa","22","105","30.63","-90.52","A","GD"
"70444","LA","Kentwood","Tangipahoa","22","105","30.91","-90.5","A","GD"
"70445","LA","Lacombe","Saint Tammany","22","103","30.34","-89.91","A","GD"
"70446","LA","Loranger","Tangipahoa","22","105","30.63","-90.36","A","GD"
"70447","LA","Madisonville","Saint Tammany","22","103","30.43","-90.18","A","GD"
"70448","LA","Mandeville","Saint Tammany","22","103","30.37","-90.06","A","GD"
"70449","LA","Maurepas","Livingston","22","63","30.26","-90.71","A","GD"
"70450","LA","Mount Hermon","Washington","22","117","30.94","-90.26","A","GD"
"70451","LA","Natalbany","Tangipahoa","22","105","30.55","-90.48","A","POB"
"70452","LA","Pearl River","Saint Tammany","22","103","30.41","-89.78","A","GD"
"70453","LA","Pine Grove","Saint Helena","22","91","30.69","-90.76","A","GD"
"70454","LA","Ponchatoula","Tangipahoa","22","105","30.43","-90.42","A","GD"
"70455","LA","Robert","Tangipahoa","22","105","30.51","-90.33","A","GD"
"70456","LA","Roseland","Tangipahoa","22","105","30.77","-90.51","A","GD"
"70457","LA","Saint Benedict","Saint Tammany","22","103","30.52","-90.1","A","POB"
"70458","LA","Slidell","Saint Tammany","22","103","30.27","-89.77","A","GD"
"70459","LA","Slidell","Saint Tammany","22","103","30.29","-89.77","A","POB"
"70460","LA","Slidell","Saint Tammany","22","103","30.3","-89.81","A","GD"
"70461","LA","Slidell","Saint Tammany","22","103","30.26","-89.73","A","GD"
"70462","LA","Springfield","Livingston","22","63","30.39","-90.58","A","GD"
"70463","LA","Sun","Saint Tammany","22","103","30.66","-89.9","A","POB"
"70464","LA","Talisheek","Saint Tammany","22","103","30.54","-89.89","A","POB"
"70465","LA","Tangipahoa","Tangipahoa","22","105","30.86","-90.52","A","POB"
"70466","LA","Tickfaw","Tangipahoa","22","105","30.56","-90.51","A","GD"
"70467","LA","Varnado","Washington","22","117","30.98","-89.75","A","POB"
"70469","LA","Slidell","Saint Tammany","22","103","30.28","-89.78","A","POB"
"70470","LA","Mandeville","Saint Tammany","22","103","30.39","-90.08","A","POB"
"70471","LA","Mandeville","Saint Tammany","22","103","30.4","-90.08","A","GD"
"70501","LA","Lafayette","Lafayette","22","55","30.23","-92.01","A","GD"
"70502","LA","Lafayette","Lafayette","22","55","30.22","-92.02","A","POB"
"70503","LA","Lafayette","Lafayette","22","55","30.18","-92.05","A","GD"
"70504","LA","Lafayette","Lafayette","22","55","30.19","-92.04","A","PVT"
"70505","LA","Lafayette","Lafayette","22","55","30.23","-92.04","A","POB"
"70506","LA","Lafayette","Lafayette","22","55","30.21","-92.06","A","GD"
"70507","LA","Lafayette","Lafayette","22","55","30.28","-92.02","A","GD"
"70508","LA","Lafayette","Lafayette","22","55","30.16","-92.02","A","GD"
"70509","LA","Lafayette","Lafayette","22","55","30.24","-92.01","A","POB"
"70510","LA","Abbeville","Vermilion","22","113","29.95","-92.15","A","GD"
"70511","LA","Abbeville","Vermilion","22","113","29.97","-92.13","A","POB"
"70512","LA","Arnaudville","Saint Landry","22","97","30.41","-91.92","A","GD"
"70513","LA","Avery Island","Iberia","22","45","29.91","-91.91","A","POB"
"70514","LA","Baldwin","Saint Mary","22","101","29.84","-91.55","A","GD"
"70515","LA","Basile","Evangeline","22","39","30.47","-92.58","A","GD"
"70516","LA","Branch","Acadia","22","1","30.37","-92.3","A","GD"
"70517","LA","Breaux Bridge","Saint Martin","22","99","30.3","-91.85","A","GD"
"70518","LA","Broussard","Lafayette","22","55","30.13","-91.95","A","GD"
"70519","LA","Cade","Saint Martin","22","99","30.08","-91.9","A","POB"
"70520","LA","Carencro","Lafayette","22","55","30.33","-92.04","A","GD"
"70521","LA","Cecilia","Saint Martin","22","99","30.34","-91.85","A","POB"
"70522","LA","Centerville","Saint Mary","22","101","29.76","-91.43","A","POB"
"70523","LA","Charenton","Saint Mary","22","101","29.89","-91.52","A","POB"
"70524","LA","Chataignier","Evangeline","22","39","30.57","-92.32","A","POB"
"70525","LA","Church Point","Acadia","22","1","30.41","-92.22","A","GD"
"70526","LA","Crowley","Acadia","22","1","30.22","-92.38","A","GD"
"70527","LA","Crowley","Acadia","22","1","30.23","-92.38","A","POB"
"70528","LA","Delcambre","Vermilion","22","113","29.95","-91.99","A","GD"
"70529","LA","Duson","Lafayette","22","55","30.2","-92.16","A","GD"
"70531","LA","Egan","Acadia","22","1","30.24","-92.51","A","GD"
"70532","LA","Elton","Jefferson Davis","22","53","30.47","-92.7","A","GD"
"70533","LA","Erath","Vermilion","22","113","29.94","-92.03","A","GD"
"70534","LA","Estherwood","Acadia","22","1","30.19","-92.46","A","POB"
"70535","LA","Eunice","Saint Landry","22","97","30.49","-92.41","A","GD"
"70537","LA","Evangeline","Acadia","22","1","30.26","-92.57","A","GD"
"70538","LA","Franklin","Saint Mary","22","101","29.76","-91.53","A","GD"
"70540","LA","Garden City","Saint Mary","22","101","29.77","-91.47","A","POB"
"70541","LA","Grand Coteau","Saint Landry","22","97","30.42","-92.05","A","POB"
"70542","LA","Gueydan","Vermilion","22","113","30.01","-92.56","A","GD"
"70543","LA","Iota","Acadia","22","1","30.33","-92.49","A","GD"
"70544","LA","Jeanerette","Iberia","22","45","29.91","-91.66","A","GD"
"70546","LA","Jennings","Jefferson Davis","22","53","30.25","-92.66","A","GD"
"70548","LA","Kaplan","Vermilion","22","113","29.96","-92.32","A","GD"
"70549","LA","Lake Arthur","Jefferson Davis","22","53","30.07","-92.74","A","GD"
"70550","LA","Lawtell","Saint Landry","22","97","30.52","-92.19","A","POB"
"70551","LA","Leonville","Saint Landry","22","97","30.47","-91.99","A","POB"
"70552","LA","Loreauville","Iberia","22","45","30.06","-91.73","A","GD"
"70554","LA","Mamou","Evangeline","22","39","30.63","-92.43","A","GD"
"70555","LA","Maurice","Vermilion","22","113","30.09","-92.13","A","GD"
"70556","LA","Mermentau","Acadia","22","1","30.19","-92.57","A","POB"
"70558","LA","Milton","Lafayette","22","55","30.1","-92.08","A","POB"
"70559","LA","Morse","Acadia","22","1","30.14","-92.51","A","GD"
"70560","LA","New Iberia","Iberia","22","45","29.98","-91.85","A","GD"
"70562","LA","New Iberia","Iberia","22","45","29.99","-91.82","A","POB"
"70563","LA","New Iberia","Iberia","22","45","30.02","-91.78","A","GD"
"70569","LA","Lydia","Iberia","22","45","29.92","-91.78","A","POB"
"70570","LA","Opelousas","Saint Landry","22","97","30.53","-92.09","A","GD"
"70571","LA","Opelousas","Saint Landry","22","97","30.53","-92.08","A","POB"
"70575","LA","Perry","Vermilion","22","113","29.95","-92.16","A","POB"
"70576","LA","Pine Prairie","Evangeline","22","39","30.78","-92.42","A","POB"
"70577","LA","Port Barre","Saint Landry","22","97","30.55","-91.94","A","GD"
"70578","LA","Rayne","Acadia","22","1","30.23","-92.26","A","GD"
"70580","LA","Reddell","Evangeline","22","39","30.67","-92.43","A","POB"
"70581","LA","Roanoke","Jefferson Davis","22","53","30.25","-92.74","A","GD"
"70582","LA","Saint Martinville","Saint Martin","22","99","30.15","-91.8","A","GD"
"70583","LA","Scott","Lafayette","22","55","30.25","-92.1","A","GD"
"70584","LA","Sunset","Saint Landry","22","97","30.39","-92.09","A","GD"
"70585","LA","Turkey Creek","Evangeline","22","39","30.88","-92.41","A","POB"
"70586","LA","Ville Platte","Evangeline","22","39","30.71","-92.31","A","GD"
"70589","LA","Washington","Saint Landry","22","97","30.65","-92.04","A","GD"
"70591","LA","Welsh","Jefferson Davis","22","53","30.26","-92.83","A","GD"
"70592","LA","Youngsville","Lafayette","22","55","30.1","-92","A","GD"
"70593","LA","Lafayette","Lafayette","22","55","30.22","-92.03","A","POB"
"70596","LA","Lafayette","Lafayette","22","55","30.23","-92.02","A","POB"
"70598","LA","Lafayette","Lafayette","22","55","30.18","-92.01","A","POB"
"70601","LA","Lake Charles","Calcasieu","22","19","30.23","-93.21","A","GD"
"70602","LA","Lake Charles","Calcasieu","22","19","30.23","-93.21","A","POB"
"70605","LA","Lake Charles","Calcasieu","22","19","30.16","-93.25","A","GD"
"70606","LA","Lake Charles","Calcasieu","22","19","30.17","-93.23","A","POB"
"70607","LA","Lake Charles","Calcasieu","22","19","30.13","-93.2","A","GD"
"70609","LA","Lake Charles","Calcasieu","22","19","30.18","-93.22","A","PVT"
"70611","LA","Lake Charles","Calcasieu","22","19","30.33","-93.2","A","GD"
"70612","LA","Lake Charles","Calcasieu","22","19","30.24","-93.18","A","POB"
"70615","LA","Lake Charles","Calcasieu","22","19","30.24","-93.14","A","GD"
"70616","LA","Lake Charles","Calcasieu","22","19","30.23","-93.21","A","POB"
"70629","LA","Lake Charles","Calcasieu","22","19","30.23","-93.21","A","GD"
"70630","LA","Bell City","Calcasieu","22","19","30.04","-92.99","A","GD"
"70631","LA","Cameron","Cameron","22","23","29.83","-93.63","A","GD"
"70632","LA","Creole","Cameron","22","23","29.82","-93.03","A","GD"
"70633","LA","Dequincy","Calcasieu","22","19","30.44","-93.41","A","GD"
"70634","LA","Deridder","Beauregard","22","11","30.82","-93.26","A","GD"
"70637","LA","Dry Creek","Beauregard","22","11","30.69","-92.98","A","GD"
"70638","LA","Elizabeth","Allen","22","3","30.86","-92.79","A","POB"
"70639","LA","Evans","Vernon","22","115","30.98","-93.5","A","GD"
"70640","LA","Fenton","Jefferson Davis","22","53","30.37","-92.92","A","POB"
"70643","LA","Grand Chenier","Cameron","22","23","29.79","-92.81","A","GD"
"70644","LA","Grant","Allen","22","3","30.79","-92.95","A","POB"
"70645","LA","Hackberry","Cameron","22","23","29.99","-93.38","A","GD"
"70646","LA","Hayes","Calcasieu","22","19","30.11","-92.92","A","POB"
"70647","LA","Iowa","Calcasieu","22","19","30.25","-93.01","A","GD"
"70648","LA","Kinder","Allen","22","3","30.49","-92.88","A","GD"
"70650","LA","Lacassine","Jefferson Davis","22","53","30.24","-92.92","A","POB"
"70651","LA","Leblanc","Allen","22","3","30.52","-92.95","A","POB"
"70652","LA","Longville","Beauregard","22","11","30.61","-93.26","A","GD"
"70653","LA","Merryville","Beauregard","22","11","30.7","-93.55","A","GD"
"70654","LA","Mittie","Allen","22","3","30.66","-92.89","A","GD"
"70655","LA","Oberlin","Allen","22","3","30.64","-92.75","A","GD"
"70656","LA","Pitkin","Vernon","22","115","31.01","-93","A","GD"
"70657","LA","Ragley","Beauregard","22","11","30.5","-93.15","A","GD"
"70658","LA","Reeves","Allen","22","3","30.53","-93.04","A","GD"
"70659","LA","Rosepine","Vernon","22","115","30.92","-93.28","A","POB"
"70660","LA","Singer","Beauregard","22","11","30.55","-93.44","A","GD"
"70661","LA","Starks","Calcasieu","22","19","30.35","-93.65","A","GD"
"70662","LA","Sugartown","Beauregard","22","11","30.81","-92.99","A","GD"
"70663","LA","Sulphur","Calcasieu","22","19","30.25","-93.36","A","GD"
"70664","LA","Sulphur","Calcasieu","22","19","30.26","-93.37","A","POB"
"70665","LA","Sulphur","Calcasieu","22","19","30.16","-93.4","A","GD"
"70668","LA","Vinton","Calcasieu","22","19","30.19","-93.6","A","GD"
"70669","LA","Westlake","Calcasieu","22","19","30.25","-93.27","A","GD"
"70704","LA","Baker","East Baton Rouge","22","33","30.59","-91.16","A","POB"
"70706","LA","Denham Springs","Livingston","22","63","30.59","-90.93","A","GD"
"70707","LA","Gonzales","Ascension","22","5","30.23","-90.91","A","POB"
"70710","LA","Addis","West Baton Rouge","22","121","30.35","-91.26","A","GD"
"70711","LA","Albany","Livingston","22","63","30.51","-90.59","A","GD"
"70712","LA","Angola","West Feliciana","22","125","30.97","-91.6","A","POB"
"70714","LA","Baker","East Baton Rouge","22","33","30.58","-91.15","A","GD"
"70715","LA","Batchelor","Pointe Coupee","22","77","30.79","-91.68","A","GD"
"70718","LA","Brittany","Ascension","22","5","30.21","-90.89","A","POB"
"70719","LA","Brusly","West Baton Rouge","22","121","30.39","-91.25","A","GD"
"70721","LA","Carville","Iberville","22","47","30.22","-91.08","A","GD"
"70722","LA","Clinton","East Feliciana","22","37","30.83","-90.93","A","GD"
"70723","LA","Convent","Saint James","22","93","30.06","-90.84","A","GD"
"70725","LA","Darrow","Ascension","22","5","30.13","-90.96","A","GD"
"70726","LA","Denham Springs","Livingston","22","63","30.46","-90.93","A","GD"
"70727","LA","Denham Springs","Livingston","22","63","30.45","-90.97","A","POB"
"70728","LA","Duplessis","Ascension","22","5","30.27","-90.94","A","POB"
"70729","LA","Erwinville","West Baton Rouge","22","121","30.57","-91.36","A","GD"
"70730","LA","Ethel","East Feliciana","22","37","30.81","-91.09","A","GD"
"70732","LA","Fordoche","Pointe Coupee","22","77","30.6","-91.62","A","GD"
"70733","LA","French Settlement","Livingston","22","63","30.3","-90.8","A","GD"
"70734","LA","Geismar","Ascension","22","5","30.21","-91","A","GD"
"70736","LA","Glynn","Pointe Coupee","22","77","30.63","-91.34","A","GD"
"70737","LA","Gonzales","Ascension","22","5","30.23","-90.92","A","GD"
"70738","LA","Burnside","Ascension","22","5","30.14","-90.92","A","POB"
"70739","LA","Greenwell Springs","East Baton Rouge","22","33","30.57","-90.99","A","GD"
"70740","LA","Grosse Tete","Iberville","22","47","30.39","-91.43","A","GD"
"70743","LA","Hester","Saint James","22","93","30.02","-90.77","A","POB"
"70744","LA","Holden","Livingston","22","63","30.53","-90.65","A","GD"
"70747","LA","Innis","Pointe Coupee","22","77","30.87","-91.67","A","POB"
"70748","LA","Jackson","East Feliciana","22","37","30.8","-91.22","A","GD"
"70749","LA","Jarreau","Pointe Coupee","22","77","30.65","-91.39","A","GD"
"70750","LA","Krotz Springs","Saint Landry","22","97","30.52","-91.77","A","GD"
"70752","LA","Lakeland","Pointe Coupee","22","77","30.59","-91.4","A","GD"
"70753","LA","Lettsworth","Pointe Coupee","22","77","30.95","-91.74","A","GD"
"70754","LA","Livingston","Livingston","22","63","30.45","-90.75","A","GD"
"70755","LA","Livonia","Pointe Coupee","22","77","30.57","-91.54","A","GD"
"70756","LA","Lottie","Pointe Coupee","22","77","30.55","-91.62","A","GD"
"70757","LA","Maringouin","Iberville","22","47","30.48","-91.51","A","GD"
"70759","LA","Morganza","Pointe Coupee","22","77","30.72","-91.59","A","GD"
"70760","LA","New Roads","Pointe Coupee","22","77","30.7","-91.45","A","GD"
"70761","LA","Norwood","East Feliciana","22","37","30.97","-91.06","A","GD"
"70762","LA","Oscar","Pointe Coupee","22","77","30.58","-91.47","A","GD"
"70763","LA","Paulina","Saint James","22","93","30.04","-90.74","A","GD"
"70764","LA","Plaquemine","Iberville","22","47","30.27","-91.25","A","GD"
"70765","LA","Plaquemine","Iberville","22","47","30.29","-91.23","A","POB"
"70767","LA","Port Allen","West Baton Rouge","22","121","30.47","-91.27","A","GD"
"70769","LA","Prairieville","Ascension","22","5","30.31","-90.94","A","GD"
"70770","LA","Pride","East Baton Rouge","22","33","30.64","-91.01","A","GD"
"70772","LA","Rosedale","Iberville","22","47","30.44","-91.47","A","GD"
"70773","LA","Rougon","Pointe Coupee","22","77","30.61","-91.36","A","GD"
"70774","LA","Saint Amant","Ascension","22","5","30.22","-90.82","A","GD"
"70775","LA","Saint Francisville","West Feliciana","22","125","30.86","-91.37","A","GD"
"70776","LA","Saint Gabriel","Iberville","22","47","30.27","-91.1","A","GD"
"70777","LA","Slaughter","East Feliciana","22","37","30.72","-91.09","A","GD"
"70778","LA","Sorrento","Ascension","22","5","30.17","-90.86","A","GD"
"70780","LA","Sunshine","Iberville","22","47","30.3","-91.14","A","GD"
"70782","LA","Tunica","West Feliciana","22","125","30.95","-91.54","A","POB"
"70783","LA","Ventress","Pointe Coupee","22","77","30.68","-91.41","A","GD"
"70784","LA","Wakefield","West Feliciana","22","125","30.89","-91.35","A","POB"
"70785","LA","Walker","Livingston","22","63","30.53","-90.84","A","GD"
"70786","LA","Watson","Livingston","22","63","30.59","-90.94","A","POB"
"70787","LA","Weyanoke","West Feliciana","22","125","30.97","-91.46","A","POB"
"70788","LA","White Castle","Iberville","22","47","30.16","-91.15","A","GD"
"70789","LA","Wilson","East Feliciana","22","37","30.92","-91.11","A","GD"
"70791","LA","Zachary","East Baton Rouge","22","33","30.65","-91.15","A","GD"
"70792","LA","Uncle Sam","Saint James","22","93","30.03","-90.78","A","POB"
"70801","LA","Baton Rouge","East Baton Rouge","22","33","30.45","-91.19","A","GD"
"70802","LA","Baton Rouge","East Baton Rouge","22","33","30.45","-91.17","A","GD"
"70803","LA","Baton Rouge","East Baton Rouge","22","33","30.41","-91.18","A","PVT"
"70804","LA","Baton Rouge","East Baton Rouge","22","33","30.45","-91.17","A","POB"
"70805","LA","Baton Rouge","East Baton Rouge","22","33","30.49","-91.16","A","GD"
"70806","LA","Baton Rouge","East Baton Rouge","22","33","30.45","-91.13","A","GD"
"70807","LA","Baton Rouge","East Baton Rouge","22","33","30.53","-91.18","A","GD"
"70808","LA","Baton Rouge","East Baton Rouge","22","33","30.41","-91.15","A","GD"
"70809","LA","Baton Rouge","East Baton Rouge","22","33","30.4","-91.08","A","GD"
"70810","LA","Baton Rouge","East Baton Rouge","22","33","30.36","-91.09","A","GD"
"70811","LA","Baton Rouge","East Baton Rouge","22","33","30.53","-91.13","A","GD"
"70812","LA","Baton Rouge","East Baton Rouge","22","33","30.51","-91.12","A","GD"
"70813","LA","Baton Rouge","East Baton Rouge","22","33","30.43","-91.11","A","PVT"
"70814","LA","Baton Rouge","East Baton Rouge","22","33","30.49","-91.07","A","GD"
"70815","LA","Baton Rouge","East Baton Rouge","22","33","30.45","-91.07","A","GD"
"70816","LA","Baton Rouge","East Baton Rouge","22","33","30.43","-91.04","A","GD"
"70817","LA","Baton Rouge","East Baton Rouge","22","33","30.39","-91.01","A","GD"
"70818","LA","Baton Rouge","East Baton Rouge","22","33","30.54","-91.05","A","GD"
"70819","LA","Baton Rouge","East Baton Rouge","22","33","30.47","-91.02","A","GD"
"70820","LA","Baton Rouge","East Baton Rouge","22","33","30.38","-91.17","A","GD"
"70821","LA","Baton Rouge","East Baton Rouge","22","33","30.46","-91.12","A","POB"
"70822","LA","Baton Rouge","East Baton Rouge","22","33","30.45","-91.13","A","PVT"
"70823","LA","Baton Rouge","East Baton Rouge","22","33","30.45","-91.19","A","PVT"
"70825","LA","Baton Rouge","East Baton Rouge","22","33","30.43","-91.02","A","GD"
"70826","LA","Baton Rouge","East Baton Rouge","22","33","30.4","-91.08","A","POB"
"70827","LA","Baton Rouge","East Baton Rouge","22","33","30.43","-91.08","A","GD"
"70831","LA","Baton Rouge","East Baton Rouge","22","33","30.45","-91.19","A","POB"
"70833","LA","Baton Rouge","East Baton Rouge","22","33","30.41","-91.14","A","PVT"
"70835","LA","Baton Rouge","East Baton Rouge","22","33","30.43","-91.02","A","POB"
"70836","LA","Baton Rouge","East Baton Rouge","22","33","30.39","-91.09","A","GD"
"70837","LA","Baton Rouge","East Baton Rouge","22","33","30.55","-91.21","A","POB"
"70873","LA","Baton Rouge","East Baton Rouge","22","33","30.45","-91.18","A","POB"
"70874","LA","Baton Rouge","East Baton Rouge","22","33","30.53","-91.12","A","POB"
"70879","LA","Baton Rouge","East Baton Rouge","22","33","30.37","-90.98","A","POB"
"70884","LA","Baton Rouge","East Baton Rouge","22","33","30.38","-91.1","A","POB"
"70891","LA","Baton Rouge","East Baton Rouge","22","33","30.45","-91.18","A","PVT"
"70892","LA","Baton Rouge","East Baton Rouge","22","33","30.45","-91.16","A","POB"
"70893","LA","Baton Rouge","East Baton Rouge","22","33","30.41","-91.17","A","POB"
"70894","LA","Baton Rouge","East Baton Rouge","22","33","30.41","-91.18","A","POB"
"70895","LA","Baton Rouge","East Baton Rouge","22","33","30.45","-91.08","A","POB"
"70896","LA","Baton Rouge","East Baton Rouge","22","33","30.37","-91.04","A","POB"
"70898","LA","Baton Rouge","East Baton Rouge","22","33","30.42","-91.14","A","POB"
"71001","LA","Arcadia","Bienville","22","13","32.57","-92.92","A","GD"
"71002","LA","Ashland","Natchitoches","22","69","32.12","-93.11","A","GD"
"71003","LA","Athens","Claiborne","22","27","32.64","-93.03","A","GD"
"71004","LA","Belcher","Caddo","22","17","32.77","-93.88","A","GD"
"71006","LA","Benton","Bossier","22","15","32.7","-93.7","A","GD"
"71007","LA","Bethany","Caddo","22","17","32.38","-94.01","A","GD"
"71008","LA","Bienville","Bienville","22","13","32.33","-92.96","A","GD"
"71009","LA","Blanchard","Caddo","22","17","32.59","-93.89","A","POB"
"71016","LA","Castor","Bienville","22","13","32.22","-93.09","A","GD"
"71018","LA","Cotton Valley","Webster","22","119","32.81","-93.41","A","GD"
"71019","LA","Coushatta","Red River","22","81","32.05","-93.32","A","GD"
"71021","LA","Cullen","Webster","22","119","32.97","-93.45","A","POB"
"71023","LA","Doyline","Webster","22","119","32.48","-93.4","A","GD"
"71024","LA","Dubberly","Webster","22","119","32.5","-93.22","A","GD"
"71027","LA","Frierson","De Soto","22","31","32.24","-93.68","A","GD"
"71028","LA","Gibsland","Bienville","22","13","32.52","-93.06","A","GD"
"71029","LA","Gilliam","Caddo","22","17","32.83","-93.84","A","GD"
"71030","LA","Gloster","De Soto","22","31","32.19","-93.81","A","GD"
"71031","LA","Goldonna","Natchitoches","22","69","32","-92.92","A","GD"
"71032","LA","Grand Cane","De Soto","22","31","32.11","-93.79","A","GD"
"71033","LA","Greenwood","Caddo","22","17","32.44","-93.99","A","GD"
"71034","LA","Hall Summit","Red River","22","81","32.18","-93.31","A","GD"
"71037","LA","Haughton","Bossier","22","15","32.54","-93.54","A","GD"
"71038","LA","Haynesville","Claiborne","22","27","32.95","-93.12","A","GD"
"71039","LA","Heflin","Webster","22","119","32.44","-93.3","A","GD"
"71040","LA","Homer","Claiborne","22","27","32.78","-93.03","A","GD"
"71043","LA","Hosston","Caddo","22","17","32.89","-93.88","A","GD"
"71044","LA","Ida","Caddo","22","17","32.98","-93.89","A","GD"
"71045","LA","Jamestown","Bienville","22","13","32.36","-93.19","A","GD"
"71046","LA","Keatchie","De Soto","22","31","32.16","-93.95","A","GD"
"71047","LA","Keithville","Caddo","22","17","32.33","-93.87","A","GD"
"71048","LA","Lisbon","Claiborne","22","27","32.82","-92.85","A","GD"
"71049","LA","Logansport","De Soto","22","31","31.98","-93.98","A","GD"
"71050","LA","Longstreet","De Soto","22","31","32.1","-93.95","A","POB"
"71051","LA","Elm Grove","Bossier","22","15","32.35","-93.51","A","GD"
"71052","LA","Mansfield","De Soto","22","31","32.02","-93.66","A","GD"
"71055","LA","Minden","Webster","22","119","32.62","-93.31","A","GD"
"71058","LA","Minden","Webster","22","119","32.61","-93.29","A","POB"
"71060","LA","Mooringsport","Caddo","22","17","32.68","-93.97","A","GD"
"71061","LA","Oil City","Caddo","22","17","32.76","-93.96","A","GD"
"71063","LA","Pelican","De Soto","22","31","31.92","-93.48","A","GD"
"71064","LA","Plain Dealing","Bossier","22","15","32.92","-93.69","A","GD"
"71065","LA","Pleasant Hill","Sabine","22","85","31.82","-93.51","A","GD"
"71066","LA","Powhatan","Natchitoches","22","69","31.84","-93.17","A","POB"
"71067","LA","Princeton","Bossier","22","15","32.6","-93.5","A","GD"
"71068","LA","Ringgold","Bienville","22","13","32.29","-93.31","A","GD"
"71069","LA","Rodessa","Caddo","22","17","32.98","-94","A","GD"
"71070","LA","Saline","Bienville","22","13","32.1","-93.01","A","GD"
"71071","LA","Sarepta","Webster","22","119","32.92","-93.45","A","GD"
"71072","LA","Shongaloo","Webster","22","119","32.94","-93.32","A","GD"
"71073","LA","Sibley","Webster","22","119","32.54","-93.31","A","GD"
"71075","LA","Springhill","Webster","22","119","33","-93.46","A","GD"
"71078","LA","Stonewall","De Soto","22","31","32.28","-93.8","A","GD"
"71079","LA","Summerfield","Claiborne","22","27","32.96","-92.81","A","GD"
"71080","LA","Taylor","Bienville","22","13","32.5","-93.07","A","POB"
"71082","LA","Vivian","Caddo","22","17","32.84","-93.97","A","GD"
"71101","LA","Shreveport","Caddo","22","17","32.51","-93.75","A","GD"
"71102","LA","Shreveport","Caddo","22","17","32.49","-93.77","A","POB"
"71103","LA","Shreveport","Caddo","22","17","32.49","-93.77","A","GD"
"71104","LA","Shreveport","Caddo","22","17","32.48","-93.74","A","GD"
"71105","LA","Shreveport","Caddo","22","17","32.46","-93.71","A","GD"
"71106","LA","Shreveport","Caddo","22","17","32.42","-93.75","A","GD"
"71107","LA","Shreveport","Caddo","22","17","32.57","-93.83","A","GD"
"71108","LA","Shreveport","Caddo","22","17","32.45","-93.78","A","GD"
"71109","LA","Shreveport","Caddo","22","17","32.47","-93.8","A","GD"
"71110","LA","Barksdale Afb","Bossier","22","15","32.5","-93.65","A","GD"
"71111","LA","Bossier City","Bossier","22","15","32.56","-93.7","A","GD"
"71112","LA","Bossier City","Bossier","22","15","32.48","-93.67","A","GD"
"71113","LA","Bossier City","Bossier","22","15","32.49","-93.69","A","POB"
"71115","LA","Shreveport","Caddo","22","17","32.36","-93.64","A","GD"
"71118","LA","Shreveport","Caddo","22","17","32.4","-93.8","A","GD"
"71119","LA","Shreveport","Caddo","22","17","32.48","-93.89","A","GD"
"71120","LA","Shreveport","Caddo","22","17","32.51","-93.74","A","POB"
"71129","LA","Shreveport","Caddo","22","17","32.42","-93.89","A","GD"
"71130","LA","Shreveport","Caddo","22","17","32.49","-93.77","A","POB"
"71133","LA","Shreveport","Caddo","22","17","32.49","-93.77","A","POB"
"71134","LA","Shreveport","Caddo","22","17","32.48","-93.74","A","POB"
"71135","LA","Shreveport","Caddo","22","17","32.44","-93.71","A","POB"
"71136","LA","Shreveport","Caddo","22","17","32.42","-93.76","A","POB"
"71137","LA","Shreveport","Caddo","22","17","32.59","-93.85","A","POB"
"71138","LA","Shreveport","Caddo","22","17","32.41","-93.8","A","POB"
"71148","LA","Shreveport","Caddo","22","17","32.46","-93.78","A","POB"
"71149","LA","Shreveport","Caddo","22","17","32.51","-93.74","A","POB"
"71150","LA","Shreveport","Caddo","22","17","32.53","-93.75","A","POB"
"71151","LA","Shreveport","Caddo","22","17","32.51","-93.74","A","PVT"
"71152","LA","Shreveport","Caddo","22","17","32.44","-93.79","A","PVT"
"71153","LA","Shreveport","Caddo","22","17","32.51","-93.75","A","PVT"
"71154","LA","Shreveport","Caddo","22","17","32.49","-93.77","A","PVT"
"71156","LA","Shreveport","Caddo","22","17","32.51","-93.75","A","PVT"
"71161","LA","Shreveport","Caddo","22","17","32.5","-93.75","A","POB"
"71162","LA","Shreveport","Caddo","22","17","32.51","-93.74","A","POB"
"71163","LA","Shreveport","Caddo","22","17","32.51","-93.74","A","POB"
"71164","LA","Shreveport","Caddo","22","17","32.51","-93.74","A","POB"
"71165","LA","Shreveport","Caddo","22","17","32.5","-93.74","A","POB"
"71166","LA","Shreveport","Caddo","22","17","32.51","-93.74","A","POB"
"71171","LA","Bossier City","Bossier","22","15","32.52","-93.73","A","POB"
"71172","LA","Bossier City","Bossier","22","15","32.53","-93.65","A","POB"
"71201","LA","Monroe","Ouachita","22","73","32.52","-92.11","A","GD"
"71202","LA","Monroe","Ouachita","22","73","32.46","-92.09","A","GD"
"71203","LA","Monroe","Ouachita","22","73","32.56","-92.05","A","GD"
"71207","LA","Monroe","Ouachita","22","73","32.51","-92.12","A","POB"
"71209","LA","Monroe","Ouachita","22","73","32.53","-92.07","A","PVT"
"71210","LA","Monroe","Ouachita","22","73","32.51","-92.1","A","POB"
"71211","LA","Monroe","Ouachita","22","73","32.53","-92.08","A","POB"
"71212","LA","Monroe","Ouachita","22","73","32.51","-92.12","A","PVT"
"71213","LA","Monroe","Ouachita","22","73","32.51","-92.08","A","POB"
"71217","LA","Monroe","Ouachita","22","73","32.49","-92.1","A","POB"
"71218","LA","Archibald","Richland","22","83","32.35","-91.78","A","POB"
"71219","LA","Baskin","Franklin","22","41","32.29","-91.72","A","GD"
"71220","LA","Bastrop","Morehouse","22","67","32.81","-91.91","A","GD"
"71221","LA","Bastrop","Morehouse","22","67","32.76","-91.87","A","POB"
"71222","LA","Bernice","Union","22","111","32.83","-92.66","A","GD"
"71223","LA","Bonita","Morehouse","22","67","32.91","-91.68","A","GD"
"71225","LA","Calhoun","Ouachita","22","73","32.52","-92.34","A","GD"
"71226","LA","Chatham","Jackson","22","49","32.26","-92.44","A","GD"
"71227","LA","Choudrant","Lincoln","22","61","32.53","-92.49","A","GD"
"71229","LA","Collinston","Morehouse","22","67","32.66","-91.9","A","GD"
"71230","LA","Crowville","Franklin","22","41","32.25","-91.58","A","POB"
"71232","LA","Delhi","Richland","22","83","32.43","-91.5","A","GD"
"71233","LA","Delta","Madison","22","65","32.32","-90.93","A","POB"
"71234","LA","Downsville","Union","22","111","32.64","-92.36","A","GD"
"71235","LA","Dubach","Lincoln","22","61","32.68","-92.68","A","GD"
"71237","LA","Epps","West Carroll","22","123","32.6","-91.49","A","GD"
"71238","LA","Eros","Ouachita","22","73","32.38","-92.39","A","GD"
"71240","LA","Fairbanks","Ouachita","22","73","32.64","-92.04","A","POB"
"71241","LA","Farmerville","Union","22","111","32.77","-92.36","A","GD"
"71242","LA","Forest","West Carroll","22","123","32.86","-91.39","A","POB"
"71243","LA","Fort Necessity","Franklin","22","41","31.94","-91.8","A","GD"
"71245","LA","Grambling","Lincoln","22","61","32.53","-92.72","A","GD"
"71247","LA","Hodge","Jackson","22","49","32.27","-92.72","A","POB"
"71249","LA","Jigger","Franklin","22","41","32.04","-91.75","A","POB"
"71250","LA","Jones","Morehouse","22","67","32.97","-91.6","A","GD"
"71251","LA","Jonesboro","Jackson","22","49","32.23","-92.69","A","GD"
"71253","LA","Kilbourne","West Carroll","22","123","33","-91.32","A","POB"
"71254","LA","Lake Providence","East Carroll","22","35","32.79","-91.23","A","GD"
"71256","LA","Lillie","Union","22","111","32.95","-92.7","A","GD"
"71259","LA","Mangham","Richland","22","83","32.29","-91.81","A","GD"
"71260","LA","Marion","Union","22","111","32.88","-92.23","A","GD"
"71261","LA","Mer Rouge","Morehouse","22","67","32.78","-91.74","A","GD"
"71263","LA","Oak Grove","West Carroll","22","123","32.88","-91.41","A","GD"
"71264","LA","Oak Ridge","Morehouse","22","67","32.59","-91.78","A","GD"
"71266","LA","Pioneer","West Carroll","22","123","32.69","-91.47","A","GD"
"71268","LA","Quitman","Jackson","22","49","32.33","-92.73","A","GD"
"71269","LA","Rayville","Richland","22","83","32.45","-91.77","A","GD"
"71270","LA","Ruston","Lincoln","22","61","32.53","-92.64","A","GD"
"71272","LA","Ruston","Lincoln","22","61","32.53","-92.65","A","PVT"
"71273","LA","Ruston","Lincoln","22","61","32.56","-92.59","A","POB"
"71275","LA","Simsboro","Lincoln","22","61","32.51","-92.82","A","GD"
"71276","LA","Sondheimer","East Carroll","22","35","32.57","-91.16","A","GD"
"71277","LA","Spearsville","Union","22","111","32.94","-92.57","A","GD"
"71279","LA","Start","Richland","22","83","32.49","-91.86","A","POB"
"71280","LA","Sterlington","Ouachita","22","73","32.71","-92.07","A","GD"
"71281","LA","Swartz","Ouachita","22","73","32.6","-92.02","A","POB"
"71282","LA","Tallulah","Madison","22","65","32.38","-91.16","A","GD"
"71284","LA","Tallulah","Madison","22","65","32.41","-91.19","A","POB"
"71286","LA","Transylvania","East Carroll","22","35","32.66","-91.2","A","GD"
"71291","LA","West Monroe","Ouachita","22","73","32.53","-92.17","A","GD"
"71292","LA","West Monroe","Ouachita","22","73","32.46","-92.19","A","GD"
"71294","LA","West Monroe","Ouachita","22","73","32.51","-92.18","A","POB"
"71295","LA","Winnsboro","Franklin","22","41","32.14","-91.74","A","GD"
"71301","LA","Alexandria","Rapides","22","79","31.29","-92.46","A","GD"
"71302","LA","Alexandria","Rapides","22","79","31.26","-92.42","A","GD"
"71303","LA","Alexandria","Rapides","22","79","31.3","-92.5","A","GD"
"71306","LA","Alexandria","Rapides","22","79","31.32","-92.47","A","POB"
"71307","LA","Alexandria","Rapides","22","79","31.29","-92.45","A","POB"
"71309","LA","Alexandria","Rapides","22","79","31.25","-92.47","A","POB"
"71315","LA","Alexandria","Rapides","22","79","31.25","-92.47","A","POB"
"71316","LA","Acme","Concordia","22","29","31.27","-91.79","A","GD"
"71320","LA","Bordelonville","Avoyelles","22","9","31.1","-91.91","A","POB"
"71322","LA","Bunkie","Avoyelles","22","9","30.9","-92.17","A","GD"
"71323","LA","Center Point","Avoyelles","22","9","31.24","-92.21","A","GD"
"71324","LA","Chase","Franklin","22","41","32.1","-91.7","A","POB"
"71325","LA","Cheneyville","Rapides","22","79","30.99","-92.33","A","GD"
"71326","LA","Clayton","Concordia","22","29","31.76","-91.57","A","GD"
"71327","LA","Cottonport","Avoyelles","22","9","30.99","-92.04","A","GD"
"71328","LA","Deville","Rapides","22","79","31.36","-92.16","A","GD"
"71329","LA","Dupont","Avoyelles","22","9","30.93","-91.95","A","POB"
"71330","LA","Echo","Rapides","22","79","31.12","-92.26","A","POB"
"71331","LA","Effie","Avoyelles","22","9","31.27","-92.08","A","GD"
"71333","LA","Evergreen","Avoyelles","22","9","30.93","-92.09","A","GD"
"71334","LA","Ferriday","Concordia","22","29","31.65","-91.55","A","GD"
"71336","LA","Gilbert","Franklin","22","41","32.03","-91.62","A","GD"
"71339","LA","Hamburg","Avoyelles","22","9","31.02","-91.93","A","POB"
"71340","LA","Harrisonburg","Catahoula","22","25","31.77","-91.82","A","GD"
"71341","LA","Hessmer","Avoyelles","22","9","31.06","-92.16","A","GD"
"71342","LA","Jena","La Salle","22","59","31.65","-92.13","A","GD"
"71343","LA","Jonesville","Catahoula","22","25","31.56","-91.89","A","GD"
"71345","LA","Lebeau","Saint Landry","22","97","30.73","-91.98","A","POB"
"71346","LA","Lecompte","Rapides","22","79","31.12","-92.41","A","GD"
"71348","LA","Libuse","Rapides","22","79","31.26","-92.42","A","POB"
"71350","LA","Mansura","Avoyelles","22","9","31.07","-92.06","A","GD"
"71351","LA","Marksville","Avoyelles","22","9","31.15","-92.05","A","GD"
"71353","LA","Melville","Saint Landry","22","97","30.7","-91.77","A","GD"
"71354","LA","Monterey","Concordia","22","29","31.43","-91.76","A","GD"
"71355","LA","Moreauville","Avoyelles","22","9","31.08","-91.91","A","GD"
"71356","LA","Morrow","Saint Landry","22","97","30.82","-92.06","A","GD"
"71357","LA","Newellton","Tensas","22","107","32.1","-91.27","A","GD"
"71358","LA","Palmetto","Saint Landry","22","97","30.7","-91.89","A","GD"
"71359","LA","Pineville","Rapides","22","79","31.33","-92.43","A","PVT"
"71360","LA","Pineville","Rapides","22","79","31.34","-92.39","A","GD"
"71361","LA","Pineville","Rapides","22","79","31.36","-92.4","A","POB"
"71362","LA","Plaucheville","Avoyelles","22","9","30.94","-91.97","A","GD"
"71363","LA","Rhinehart","Catahoula","22","25","31.64","-92","A","POB"
"71365","LA","Ruby","Rapides","22","79","31.19","-92.25","A","POB"
"71366","LA","Saint Joseph","Tensas","22","107","31.94","-91.32","A","GD"
"71367","LA","Saint Landry","Evangeline","22","39","30.89","-92.28","A","GD"
"71368","LA","Sicily Island","Catahoula","22","25","31.86","-91.67","A","GD"
"71369","LA","Simmesport","Avoyelles","22","9","30.96","-91.84","A","GD"
"71371","LA","Trout","La Salle","22","59","31.69","-92.24","A","GD"
"71373","LA","Vidalia","Concordia","22","29","31.48","-91.53","A","GD"
"71375","LA","Waterproof","Tensas","22","107","31.83","-91.44","A","GD"
"71377","LA","Wildsville","Concordia","22","29","31.62","-91.79","A","POB"
"71378","LA","Wisner","Franklin","22","41","31.95","-91.71","A","GD"
"71401","LA","Aimwell","Catahoula","22","25","31.8","-91.95","A","GD"
"71403","LA","Anacoco","Vernon","22","115","31.21","-93.41","A","GD"
"71404","LA","Atlanta","Winn","22","127","31.75","-92.75","A","GD"
"71405","LA","Ball","Rapides","22","79","31.4","-92.4","A","GD"
"71406","LA","Belmont","Sabine","22","85","31.74","-93.5","A","GD"
"71407","LA","Bentley","Grant","22","43","31.51","-92.49","A","GD"
"71409","LA","Boyce","Rapides","22","79","31.33","-92.67","A","GD"
"71410","LA","Calvin","Winn","22","127","31.96","-92.77","A","POB"
"71411","LA","Campti","Natchitoches","22","69","31.9","-93.07","A","GD"
"71414","LA","Clarence","Natchitoches","22","69","31.83","-93.02","A","POB"
"71415","LA","Clarks","Caldwell","22","21","32.03","-92.14","A","POB"
"71416","LA","Cloutierville","Natchitoches","22","69","31.54","-92.9","A","GD"
"71417","LA","Colfax","Grant","22","43","31.53","-92.68","A","GD"
"71418","LA","Columbia","Caldwell","22","21","32.15","-92.07","A","GD"
"71419","LA","Converse","Sabine","22","85","31.79","-93.73","A","GD"
"71422","LA","Dodson","Winn","22","127","32.07","-92.65","A","GD"
"71423","LA","Dry Prong","Grant","22","43","31.56","-92.54","A","GD"
"71424","LA","Elmer","Rapides","22","79","31.17","-92.68","A","GD"
"71425","LA","Enterprise","Catahoula","22","25","31.9","-91.91","A","GD"
"71426","LA","Fisher","Sabine","22","85","31.49","-93.46","A","POB"
"71427","LA","Flatwoods","Rapides","22","79","31.39","-92.89","A","GD"
"71428","LA","Flora","Natchitoches","22","69","31.61","-93.09","A","POB"
"71429","LA","Florien","Sabine","22","85","31.4","-93.45","A","GD"
"71430","LA","Forest Hill","Rapides","22","79","31.05","-92.51","A","GD"
"71431","LA","Gardner","Rapides","22","79","31.27","-92.69","A","POB"
"71432","LA","Georgetown","Grant","22","43","31.76","-92.42","A","GD"
"71433","LA","Glenmora","Rapides","22","79","31","-92.62","A","GD"
"71434","LA","Gorum","Natchitoches","22","69","31.43","-92.94","A","POB"
"71435","LA","Grayson","Caldwell","22","21","32.03","-92.17","A","GD"
"71438","LA","Hineston","Rapides","22","79","31.1","-92.84","A","GD"
"71439","LA","Hornbeck","Vernon","22","115","31.33","-93.39","A","GD"
"71440","LA","Joyce","Winn","22","127","31.94","-92.6","A","POB"
"71441","LA","Kelly","Caldwell","22","21","31.95","-92.13","A","GD"
"71443","LA","Kurthwood","Vernon","22","115","31.34","-93.17","A","GD"
"71446","LA","Leesville","Vernon","22","115","31.14","-93.21","A","GD"
"71447","LA","Lena","Rapides","22","79","31.46","-92.8","A","GD"
"71448","LA","Longleaf","Rapides","22","79","31.01","-92.56","A","POB"
"71449","LA","Many","Sabine","22","85","31.53","-93.53","A","GD"
"71450","LA","Marthaville","Natchitoches","22","69","31.77","-93.42","A","GD"
"71452","LA","Melrose","Natchitoches","22","69","31.61","-92.96","A","GD"
"71454","LA","Montgomery","Grant","22","43","31.68","-92.85","A","GD"
"71455","LA","Mora","Rapides","22","79","31.39","-92.95","A","GD"
"71456","LA","Natchez","Natchitoches","22","69","31.65","-93","A","GD"
"71457","LA","Natchitoches","Natchitoches","22","69","31.75","-93.08","A","GD"
"71458","LA","Natchitoches","Natchitoches","22","69","31.76","-93.09","A","POB"
"71459","LA","Fort Polk","Vernon","22","115","31.06","-93.21","A","GD"
"71460","LA","Negreet","Sabine","22","85","31.47","-93.57","A","POB"
"71461","LA","New Llano","Vernon","22","115","31.11","-93.28","A","GD"
"71462","LA","Noble","Sabine","22","85","31.67","-93.71","A","GD"
"71463","LA","Oakdale","Allen","22","3","30.81","-92.65","A","GD"
"71465","LA","Olla","La Salle","22","59","31.86","-92.19","A","GD"
"71466","LA","Otis","Rapides","22","79","31.22","-92.73","A","GD"
"71467","LA","Pollock","Grant","22","43","31.54","-92.4","A","GD"
"71468","LA","Provencal","Natchitoches","22","69","31.49","-93.16","A","GD"
"71469","LA","Robeline","Natchitoches","22","69","31.69","-93.27","A","GD"
"71471","LA","Saint Maurice","Winn","22","127","31.76","-92.96","A","POB"
"71472","LA","Sieper","Rapides","22","79","31.21","-92.81","A","GD"
"71473","LA","Sikes","Winn","22","127","32.07","-92.43","A","GD"
"71474","LA","Simpson","Vernon","22","115","31.26","-93.01","A","POB"
"71475","LA","Slagle","Vernon","22","115","31.2","-93.14","A","POB"
"71477","LA","Tioga","Rapides","22","79","31.39","-92.43","A","POB"
"71479","LA","Tullos","La Salle","22","59","31.83","-92.34","A","GD"
"71480","LA","Urania","La Salle","22","59","31.86","-92.29","A","POB"
"71483","LA","Winnfield","Winn","22","127","31.91","-92.63","A","GD"
"71485","LA","Woodworth","Rapides","22","79","31.16","-92.51","A","GD"
"71486","LA","Zwolle","Sabine","22","85","31.61","-93.65","A","GD"
"71496","LA","Leesville","Vernon","22","115","31.14","-93.26","A","POB"
"71497","LA","Natchitoches","Natchitoches","22","69","31.76","-93.1","A","PVT"
