"ZIPCode","State","City","County","StateFIPS","CountyFIPS","Latitude","Longitude","Preference","Type"
"37010","TN","Adams","Robertson","47","147","36.56","-87.09","A","GD"
"37011","TN","Antioch","Davidson","47","37","36.05","-86.65","A","POB"
"37012","TN","Alexandria","Dekalb","47","41","36.08","-86.02","A","GD"
"37013","TN","Antioch","Davidson","47","37","36.05","-86.65","A","GD"
"37014","TN","Arrington","Williamson","47","187","35.86","-86.66","A","GD"
"37015","TN","Ashland City","Cheatham","47","21","36.3","-87.07","A","GD"
"37016","TN","Auburntown","Cannon","47","15","35.95","-86.1","A","GD"
"37018","TN","Beechgrove","Coffee","47","31","35.65","-86.2","A","GD"
"37019","TN","Belfast","Marshall","47","117","35.39","-86.71","A","GD"
"37020","TN","Bell Buckle","Bedford","47","3","35.62","-86.4","A","GD"
"37022","TN","Bethpage","Sumner","47","165","36.49","-86.31","A","GD"
"37023","TN","Big Rock","Stewart","47","161","36.58","-87.79","A","GD"
"37024","TN","Brentwood","Williamson","47","187","36","-86.79","A","POB"
"37025","TN","Bon Aqua","Hickman","47","81","35.95","-87.3","A","GD"
"37026","TN","Bradyville","Cannon","47","15","35.7","-86.11","A","GD"
"37027","TN","Brentwood","Williamson","47","187","36.01","-86.78","A","GD"
"37028","TN","Bumpus Mills","Stewart","47","161","36.63","-87.87","A","GD"
"37029","TN","Burns","Dickson","47","43","36.04","-87.28","A","GD"
"37030","TN","Carthage","Smith","47","159","36.27","-85.96","A","GD"
"37031","TN","Castalian Springs","Sumner","47","165","36.38","-86.3","A","GD"
"37032","TN","Cedar Hill","Robertson","47","147","36.52","-87.02","A","GD"
"37033","TN","Centerville","Hickman","47","81","35.75","-87.52","A","GD"
"37034","TN","Chapel Hill","Marshall","47","117","35.63","-86.69","A","GD"
"37035","TN","Chapmansboro","Cheatham","47","21","36.37","-87.13","A","GD"
"37036","TN","Charlotte","Dickson","47","43","36.23","-87.29","A","GD"
"37037","TN","Christiana","Rutherford","47","149","35.7","-86.35","A","GD"
"37040","TN","Clarksville","Montgomery","47","125","36.54","-87.34","A","GD"
"37041","TN","Clarksville","Montgomery","47","125","36.56","-87.35","A","POB"
"37042","TN","Clarksville","Montgomery","47","125","36.59","-87.4","A","GD"
"37043","TN","Clarksville","Montgomery","47","125","36.51","-87.26","A","GD"
"37044","TN","Clarksville","Montgomery","47","125","36.53","-87.34","A","PVT"
"37046","TN","College Grove","Williamson","47","187","35.79","-86.72","A","GD"
"37047","TN","Cornersville","Marshall","47","117","35.33","-86.85","A","GD"
"37048","TN","Cottontown","Sumner","47","165","36.49","-86.6","A","GD"
"37049","TN","Cross Plains","Robertson","47","147","36.56","-86.68","A","GD"
"37050","TN","Cumberland City","Stewart","47","161","36.38","-87.65","A","GD"
"37051","TN","Cumberland Furnace","Dickson","47","43","36.3","-87.41","A","GD"
"37052","TN","Cunningham","Montgomery","47","125","36.38","-87.41","A","GD"
"37055","TN","Dickson","Dickson","47","43","36.07","-87.41","A","GD"
"37056","TN","Dickson","Dickson","47","43","36.08","-87.38","A","POB"
"37057","TN","Dixon Springs","Smith","47","159","36.39","-86.04","A","GD"
"37058","TN","Dover","Stewart","47","161","36.48","-87.86","A","GD"
"37059","TN","Dowelltown","Dekalb","47","41","36","-85.9","A","GD"
"37060","TN","Eagleville","Rutherford","47","149","35.74","-86.64","A","GD"
"37061","TN","Erin","Houston","47","83","36.3","-87.68","A","GD"
"37062","TN","Fairview","Williamson","47","187","35.98","-87.14","A","GD"
"37063","TN","Fosterville","Rutherford","47","149","35.75","-86.39","A","POB"
"37064","TN","Franklin","Williamson","47","187","35.89","-86.9","A","GD"
"37065","TN","Franklin","Williamson","47","187","35.93","-86.87","A","POB"
"37066","TN","Gallatin","Sumner","47","165","36.38","-86.46","A","GD"
"37067","TN","Franklin","Williamson","47","187","35.93","-86.8","A","GD"
"37068","TN","Franklin","Williamson","47","187","35.93","-86.84","A","POB"
"37069","TN","Franklin","Williamson","47","187","35.98","-86.89","A","GD"
"37070","TN","Goodlettsville","Davidson","47","37","36.32","-86.71","A","POB"
"37071","TN","Gladeville","Wilson","47","189","36.19","-86.28","A","POB"
"37072","TN","Goodlettsville","Davidson","47","37","36.35","-86.72","A","GD"
"37073","TN","Greenbrier","Robertson","47","147","36.43","-86.8","A","GD"
"37074","TN","Hartsville","Trousdale","47","169","36.41","-86.15","A","GD"
"37075","TN","Hendersonville","Sumner","47","165","36.32","-86.61","A","GD"
"37076","TN","Hermitage","Davidson","47","37","36.18","-86.6","A","GD"
"37077","TN","Hendersonville","Sumner","47","165","36.3","-86.62","A","POB"
"37078","TN","Hurricane Mills","Humphreys","47","85","35.93","-87.76","A","GD"
"37079","TN","Indian Mound","Stewart","47","161","36.49","-87.66","A","GD"
"37080","TN","Joelton","Davidson","47","37","36.33","-86.92","A","GD"
"37082","TN","Kingston Springs","Cheatham","47","21","36.09","-87.11","A","GD"
"37083","TN","Lafayette","Macon","47","111","36.54","-86.02","A","GD"
"37085","TN","Lascassas","Rutherford","47","149","35.95","-86.3","A","GD"
"37086","TN","La Vergne","Rutherford","47","149","36.02","-86.56","A","GD"
"37087","TN","Lebanon","Wilson","47","189","36.24","-86.3","A","GD"
"37088","TN","Lebanon","Wilson","47","189","36.21","-86.29","A","POB"
"37089","TN","La Vergne","Rutherford","47","149","36","-86.57","A","PVT"
"37090","TN","Lebanon","Wilson","47","189","36.14","-86.32","A","GD"
"37091","TN","Lewisburg","Marshall","47","117","35.46","-86.78","A","GD"
"37095","TN","Liberty","Dekalb","47","41","35.99","-85.96","A","GD"
"37096","TN","Linden","Perry","47","135","35.61","-87.87","A","GD"
"37097","TN","Lobelville","Perry","47","135","35.76","-87.8","A","GD"
"37098","TN","Lyles","Hickman","47","81","35.88","-87.31","A","GD"
"37101","TN","Mc Ewen","Humphreys","47","85","36.06","-87.63","A","GD"
"37110","TN","Mcminnville","Warren","47","177","35.68","-85.78","A","GD"
"37111","TN","Mcminnville","Warren","47","177","35.69","-85.78","A","POB"
"37115","TN","Madison","Davidson","47","37","36.26","-86.71","A","GD"
"37116","TN","Madison","Davidson","47","37","36.19","-86.74","A","POB"
"37118","TN","Milton","Rutherford","47","149","35.93","-86.19","A","GD"
"37119","TN","Mitchellville","Sumner","47","165","36.63","-86.54","A","POB"
"37121","TN","Mount Juliet","Wilson","47","189","36.2","-86.52","A","POB"
"37122","TN","Mount Juliet","Wilson","47","189","36.19","-86.5","A","GD"
"37127","TN","Murfreesboro","Rutherford","47","149","35.79","-86.35","A","GD"
"37128","TN","Murfreesboro","Rutherford","47","149","35.82","-86.45","A","GD"
"37129","TN","Murfreesboro","Rutherford","47","149","35.9","-86.43","A","GD"
"37130","TN","Murfreesboro","Rutherford","47","149","35.86","-86.36","A","GD"
"37131","TN","Murfreesboro","Rutherford","47","149","35.85","-86.39","A","PVT"
"37132","TN","Murfreesboro","Rutherford","47","149","35.85","-86.36","A","PVT"
"37133","TN","Murfreesboro","Rutherford","47","149","35.84","-86.39","A","POB"
"37134","TN","New Johnsonville","Humphreys","47","85","36.02","-87.96","A","GD"
"37135","TN","Nolensville","Williamson","47","187","35.95","-86.66","A","GD"
"37136","TN","Norene","Wilson","47","189","36.19","-86.28","A","POB"
"37137","TN","Nunnelly","Hickman","47","81","35.88","-87.51","A","GD"
"37138","TN","Old Hickory","Davidson","47","37","36.24","-86.62","A","GD"
"37140","TN","Only","Hickman","47","81","35.87","-87.67","A","GD"
"37141","TN","Orlinda","Robertson","47","147","36.61","-86.69","A","GD"
"37142","TN","Palmyra","Montgomery","47","125","36.42","-87.49","A","GD"
"37143","TN","Pegram","Cheatham","47","21","36.11","-87.03","A","GD"
"37144","TN","Petersburg","Lincoln","47","103","35.3","-86.65","A","GD"
"37145","TN","Pleasant Shade","Smith","47","159","36.38","-85.92","A","GD"
"37146","TN","Pleasant View","Cheatham","47","21","36.39","-87.03","A","GD"
"37148","TN","Portland","Sumner","47","165","36.58","-86.51","A","GD"
"37149","TN","Readyville","Cannon","47","15","35.81","-86.2","A","GD"
"37150","TN","Red Boiling Springs","Macon","47","111","36.55","-85.83","A","GD"
"37151","TN","Riddleton","Smith","47","159","36.31","-86.04","A","GD"
"37152","TN","Ridgetop","Robertson","47","147","36.4","-86.77","A","POB"
"37153","TN","Rockvale","Rutherford","47","149","35.76","-86.54","A","GD"
"37160","TN","Shelbyville","Bedford","47","3","35.48","-86.46","A","GD"
"37161","TN","Shelbyville","Bedford","47","3","35.48","-86.46","A","PVT"
"37162","TN","Shelbyville","Bedford","47","3","35.49","-86.45","A","POB"
"37165","TN","Slayden","Dickson","47","43","36.29","-87.47","A","POB"
"37166","TN","Smithville","Dekalb","47","41","35.93","-85.8","A","GD"
"37167","TN","Smyrna","Rutherford","47","149","35.97","-86.52","A","GD"
"37171","TN","Southside","Montgomery","47","125","36.36","-87.3","A","GD"
"37172","TN","Springfield","Robertson","47","147","36.51","-86.87","A","GD"
"37174","TN","Spring Hill","Maury","47","119","35.73","-86.91","A","GD"
"37175","TN","Stewart","Houston","47","83","36.32","-87.89","A","GD"
"37178","TN","Tennessee Ridge","Houston","47","83","36.32","-87.78","A","GD"
"37179","TN","Thompsons Station","Williamson","47","187","35.8","-86.91","A","GD"
"37180","TN","Unionville","Bedford","47","3","35.62","-86.58","A","GD"
"37181","TN","Vanleer","Dickson","47","43","36.24","-87.49","A","GD"
"37183","TN","Wartrace","Bedford","47","3","35.51","-86.31","A","GD"
"37184","TN","Watertown","Wilson","47","189","36.1","-86.14","A","GD"
"37185","TN","Waverly","Humphreys","47","85","36.09","-87.82","A","GD"
"37186","TN","Westmoreland","Sumner","47","165","36.58","-86.24","A","GD"
"37187","TN","White Bluff","Dickson","47","43","36.12","-87.22","A","GD"
"37188","TN","White House","Robertson","47","147","36.47","-86.68","A","GD"
"37189","TN","Whites Creek","Davidson","47","37","36.27","-86.82","A","GD"
"37190","TN","Woodbury","Cannon","47","15","35.82","-86.05","A","GD"
"37191","TN","Woodlawn","Montgomery","47","125","36.51","-87.55","A","GD"
"37201","TN","Nashville","Davidson","47","37","36.16","-86.78","A","GD"
"37202","TN","Nashville","Davidson","47","37","36.15","-86.79","A","POB"
"37203","TN","Nashville","Davidson","47","37","36.15","-86.79","A","GD"
"37204","TN","Nashville","Davidson","47","37","36.11","-86.78","A","GD"
"37205","TN","Nashville","Davidson","47","37","36.12","-86.86","A","GD"
"37206","TN","Nashville","Davidson","47","37","36.18","-86.74","A","GD"
"37207","TN","Nashville","Davidson","47","37","36.21","-86.77","A","GD"
"37208","TN","Nashville","Davidson","47","37","36.18","-86.8","A","GD"
"37209","TN","Nashville","Davidson","47","37","36.15","-86.85","A","GD"
"37210","TN","Nashville","Davidson","47","37","36.14","-86.75","A","GD"
"37211","TN","Nashville","Davidson","47","37","36.08","-86.73","A","GD"
"37212","TN","Nashville","Davidson","47","37","36.13","-86.8","A","GD"
"37213","TN","Nashville","Davidson","47","37","36.17","-86.77","A","GD"
"37214","TN","Nashville","Davidson","47","37","36.17","-86.67","A","GD"
"37215","TN","Nashville","Davidson","47","37","36.1","-86.83","A","GD"
"37216","TN","Nashville","Davidson","47","37","36.22","-86.73","A","GD"
"37217","TN","Nashville","Davidson","47","37","36.1","-86.67","A","GD"
"37218","TN","Nashville","Davidson","47","37","36.21","-86.86","A","GD"
"37219","TN","Nashville","Davidson","47","37","36.17","-86.78","A","GD"
"37220","TN","Nashville","Davidson","47","37","36.07","-86.77","A","GD"
"37221","TN","Nashville","Davidson","47","37","36.07","-86.96","A","GD"
"37222","TN","Nashville","Davidson","47","37","36.07","-86.73","A","POB"
"37224","TN","Nashville","Davidson","47","37","36.15","-86.79","A","POB"
"37227","TN","Nashville","Davidson","47","37","36.13","-86.67","A","POB"
"37228","TN","Nashville","Davidson","47","37","36.19","-86.8","A","GD"
"37229","TN","Nashville","Davidson","47","37","36.17","-86.66","A","POB"
"37230","TN","Nashville","Davidson","47","37","36.15","-86.79","A","POB"
"37232","TN","Nashville","Davidson","47","37","36.14","-86.81","A","PVT"
"37234","TN","Nashville","Davidson","47","37","36.15","-86.79","A","PVT"
"37235","TN","Nashville","Davidson","47","37","36.15","-86.8","A","PVT"
"37236","TN","Nashville","Davidson","47","37","36.15","-86.8","A","PVT"
"37238","TN","Nashville","Davidson","47","37","36.16","-86.77","A","GD"
"37240","TN","Nashville","Davidson","47","37","36.14","-86.81","A","PVT"
"37241","TN","Nashville","Davidson","47","37","36.11","-86.68","A","PVT"
"37242","TN","Nashville","Davidson","47","37","36.16","-86.78","A","PVT"
"37243","TN","Nashville","Davidson","47","37","36.17","-86.78","A","PVT"
"37244","TN","Nashville","Davidson","47","37","36.17","-86.79","A","POB"
"37246","TN","Nashville","Davidson","47","37","36.16","-86.79","A","PVT"
"37250","TN","Nashville","Davidson","47","37","36.16","-86.78","A","PVT"
"37301","TN","Altamont","Grundy","47","61","35.42","-85.77","A","GD"
"37302","TN","Apison","Hamilton","47","65","35.02","-85.02","A","GD"
"37303","TN","Athens","Mcminn","47","107","35.45","-84.62","A","GD"
"37304","TN","Bakewell","Hamilton","47","65","35.34","-85.14","A","GD"
"37305","TN","Beersheba Springs","Grundy","47","61","35.47","-85.69","A","GD"
"37306","TN","Belvidere","Franklin","47","51","35.12","-86.21","A","GD"
"37307","TN","Benton","Polk","47","139","35.18","-84.63","A","GD"
"37308","TN","Birchwood","Hamilton","47","65","35.34","-84.99","A","GD"
"37309","TN","Calhoun","Mcminn","47","107","35.31","-84.75","A","GD"
"37310","TN","Charleston","Bradley","47","11","35.28","-84.78","A","GD"
"37311","TN","Cleveland","Bradley","47","11","35.15","-84.89","A","GD"
"37312","TN","Cleveland","Bradley","47","11","35.21","-84.86","A","GD"
"37313","TN","Coalmont","Grundy","47","61","35.36","-85.71","A","GD"
"37314","TN","Coker Creek","Monroe","47","123","35.27","-84.29","A","POB"
"37315","TN","Collegedale","Hamilton","47","65","35.05","-85.05","A","POB"
"37316","TN","Conasauga","Polk","47","139","35","-84.74","A","POB"
"37317","TN","Copperhill","Polk","47","139","35.02","-84.4","A","GD"
"37318","TN","Cowan","Franklin","47","51","35.17","-86.01","A","GD"
"37320","TN","Cleveland","Bradley","47","11","35.16","-84.88","A","POB"
"37321","TN","Dayton","Rhea","47","143","35.5","-85.01","A","GD"
"37322","TN","Decatur","Meigs","47","121","35.51","-84.81","A","GD"
"37323","TN","Cleveland","Bradley","47","11","35.11","-84.83","A","GD"
"37324","TN","Decherd","Franklin","47","51","35.25","-86.03","A","GD"
"37325","TN","Delano","Polk","47","139","35.25","-84.59","A","GD"
"37326","TN","Ducktown","Polk","47","139","35.03","-84.38","A","POB"
"37327","TN","Dunlap","Sequatchie","47","153","35.4","-85.39","A","GD"
"37328","TN","Elora","Lincoln","47","103","35.02","-86.36","A","GD"
"37329","TN","Englewood","Mcminn","47","107","35.42","-84.48","A","GD"
"37330","TN","Estill Springs","Franklin","47","51","35.28","-86.12","A","GD"
"37331","TN","Etowah","Mcminn","47","107","35.33","-84.53","A","GD"
"37332","TN","Evensville","Rhea","47","143","35.59","-84.95","A","GD"
"37333","TN","Farner","Polk","47","139","35.15","-84.32","A","GD"
"37334","TN","Fayetteville","Lincoln","47","103","35.14","-86.58","A","GD"
"37335","TN","Flintville","Lincoln","47","103","35.06","-86.42","A","GD"
"37336","TN","Georgetown","Meigs","47","121","35.3","-84.94","A","GD"
"37337","TN","Grandview","Rhea","47","143","35.78","-84.87","A","GD"
"37338","TN","Graysville","Rhea","47","143","35.44","-85.19","A","GD"
"37339","TN","Gruetli Laager","Grundy","47","61","35.38","-85.62","A","GD"
"37340","TN","Guild","Marion","47","115","35.03","-85.54","A","GD"
"37341","TN","Harrison","Hamilton","47","65","35.18","-85.09","A","GD"
"37342","TN","Hillsboro","Coffee","47","31","35.38","-85.97","A","GD"
"37343","TN","Hixson","Hamilton","47","65","35.17","-85.22","A","GD"
"37345","TN","Huntland","Franklin","47","51","35.05","-86.27","A","GD"
"37347","TN","Jasper","Marion","47","115","35.07","-85.62","A","GD"
"37348","TN","Kelso","Lincoln","47","103","35.11","-86.45","A","GD"
"37349","TN","Manchester","Coffee","47","31","35.47","-86.08","A","POB"
"37350","TN","Lookout Mountain","Hamilton","47","65","35","-85.35","A","GD"
"37351","TN","Lupton City","Hamilton","47","65","35.1","-85.26","A","GD"
"37352","TN","Lynchburg","Moore","47","127","35.27","-86.37","A","GD"
"37353","TN","Mc Donald","Bradley","47","11","35.11","-84.99","A","GD"
"37354","TN","Madisonville","Monroe","47","123","35.51","-84.36","A","GD"
"37355","TN","Manchester","Coffee","47","31","35.49","-86.08","A","GD"
"37356","TN","Monteagle","Grundy","47","61","35.24","-85.83","A","GD"
"37357","TN","Morrison","Warren","47","177","35.6","-85.92","A","GD"
"37359","TN","Mulberry","Lincoln","47","103","35.21","-86.41","A","GD"
"37360","TN","Normandy","Bedford","47","3","35.43","-86.26","A","GD"
"37361","TN","Ocoee","Polk","47","139","35.11","-84.7","A","GD"
"37362","TN","Old Fort","Polk","47","139","35.03","-84.72","A","GD"
"37363","TN","Ooltewah","Hamilton","47","65","35.09","-85.08","A","GD"
"37364","TN","Cleveland","Bradley","47","11","35.16","-84.83","A","POB"
"37365","TN","Palmer","Grundy","47","61","35.37","-85.56","A","GD"
"37366","TN","Pelham","Grundy","47","61","35.3","-85.86","A","GD"
"37367","TN","Pikeville","Bledsoe","47","7","35.64","-85.2","A","GD"
"37369","TN","Reliance","Polk","47","139","35.2","-84.48","A","GD"
"37370","TN","Riceville","Mcminn","47","107","35.38","-84.71","A","GD"
"37371","TN","Athens","Mcminn","47","107","35.44","-84.59","A","POB"
"37373","TN","Sale Creek","Hamilton","47","65","35.39","-85.1","A","GD"
"37374","TN","Sequatchie","Marion","47","115","35.16","-85.64","A","GD"
"37375","TN","Sewanee","Franklin","47","51","35.19","-85.9","A","GD"
"37376","TN","Sherwood","Franklin","47","51","35.06","-85.92","A","GD"
"37377","TN","Signal Mountain","Hamilton","47","65","35.16","-85.34","A","GD"
"37378","TN","Smartt","Warren","47","177","35.65","-85.83","A","POB"
"37379","TN","Soddy Daisy","Hamilton","47","65","35.27","-85.17","A","GD"
"37380","TN","South Pittsburg","Marion","47","115","35.03","-85.71","A","GD"
"37381","TN","Spring City","Rhea","47","143","35.68","-84.86","A","GD"
"37382","TN","Summitville","Coffee","47","31","35.56","-85.99","A","POB"
"37383","TN","Sewanee","Franklin","47","51","35.2","-85.92","A","PVT"
"37384","TN","Soddy Daisy","Hamilton","47","65","35.27","-85.17","A","POB"
"37385","TN","Tellico Plains","Monroe","47","123","35.34","-84.29","A","GD"
"37387","TN","Tracy City","Grundy","47","61","35.26","-85.74","A","GD"
"37388","TN","Tullahoma","Coffee","47","31","35.36","-86.21","A","GD"
"37389","TN","Arnold Afb","Coffee","47","31","35.32","-86.07","A","GD"
"37391","TN","Turtletown","Polk","47","139","35.09","-84.35","A","GD"
"37394","TN","Viola","Warren","47","177","35.54","-85.86","A","POB"
"37396","TN","Whiteside","Marion","47","115","34.99","-85.5","A","GD"
"37397","TN","Whitwell","Sequatchie","47","153","35.21","-85.5","A","GD"
"37398","TN","Winchester","Franklin","47","51","35.19","-86.13","A","GD"
"37401","TN","Chattanooga","Hamilton","47","65","35.04","-85.31","A","POB"
"37402","TN","Chattanooga","Hamilton","47","65","35.05","-85.31","A","GD"
"37403","TN","Chattanooga","Hamilton","47","65","35.05","-85.3","A","GD"
"37404","TN","Chattanooga","Hamilton","47","65","35.03","-85.27","A","GD"
"37405","TN","Chattanooga","Hamilton","47","65","35.08","-85.32","A","GD"
"37406","TN","Chattanooga","Hamilton","47","65","35.07","-85.25","A","GD"
"37407","TN","Chattanooga","Hamilton","47","65","35","-85.29","A","GD"
"37408","TN","Chattanooga","Hamilton","47","65","35.03","-85.31","A","GD"
"37409","TN","Chattanooga","Hamilton","47","65","35","-85.33","A","GD"
"37410","TN","Chattanooga","Hamilton","47","65","35","-85.31","A","GD"
"37411","TN","Chattanooga","Hamilton","47","65","35.02","-85.23","A","GD"
"37412","TN","Chattanooga","Hamilton","47","65","35","-85.24","A","GD"
"37414","TN","Chattanooga","Hamilton","47","65","35.03","-85.23","A","POB"
"37415","TN","Chattanooga","Hamilton","47","65","35.12","-85.28","A","GD"
"37416","TN","Chattanooga","Hamilton","47","65","35.09","-85.18","A","GD"
"37419","TN","Chattanooga","Hamilton","47","65","35.03","-85.37","A","GD"
"37421","TN","Chattanooga","Hamilton","47","65","35.03","-85.16","A","GD"
"37422","TN","Chattanooga","Hamilton","47","65","35.05","-85.19","A","POB"
"37424","TN","Chattanooga","Hamilton","47","65","35.03","-85.15","A","POB"
"37450","TN","Chattanooga","Hamilton","47","65","35.05","-85.31","A","GD"
"37501","TN","Memphis","Shelby","47","157","35.07","-89.96","A","PVT"
"37544","TN","Memphis","Shelby","47","157","35.07","-89.96","A","PVT"
"37601","TN","Johnson City","Washington","47","179","36.33","-82.34","A","GD"
"37602","TN","Johnson City","Washington","47","179","36.31","-82.38","A","POB"
"37604","TN","Johnson City","Washington","47","179","36.31","-82.38","A","GD"
"37605","TN","Johnson City","Washington","47","179","36.35","-82.33","A","POB"
"37614","TN","Johnson City","Washington","47","179","36.3","-82.37","A","POB"
"37615","TN","Johnson City","Washington","47","179","36.4","-82.45","A","GD"
"37616","TN","Afton","Greene","47","59","36.22","-82.75","A","GD"
"37617","TN","Blountville","Sullivan","47","163","36.52","-82.37","A","GD"
"37618","TN","Bluff City","Sullivan","47","163","36.47","-82.24","A","GD"
"37620","TN","Bristol","Sullivan","47","163","36.56","-82.17","A","GD"
"37621","TN","Bristol","Sullivan","47","163","36.58","-82.21","A","POB"
"37625","TN","Bristol","Sullivan","47","163","36.6","-82.19","A","POB"
"37640","TN","Butler","Johnson","47","91","36.33","-81.98","A","GD"
"37641","TN","Chuckey","Greene","47","59","36.22","-82.67","A","GD"
"37642","TN","Church Hill","Hawkins","47","73","36.54","-82.71","A","GD"
"37643","TN","Elizabethton","Carter","47","19","36.35","-82.19","A","GD"
"37644","TN","Elizabethton","Carter","47","19","36.35","-82.21","A","POB"
"37645","TN","Mount Carmel","Hawkins","47","73","36.56","-82.66","A","GD"
"37650","TN","Erwin","Unicoi","47","171","36.13","-82.42","A","GD"
"37656","TN","Fall Branch","Washington","47","179","36.4","-82.63","A","GD"
"37657","TN","Flag Pond","Unicoi","47","171","36.01","-82.56","A","GD"
"37658","TN","Hampton","Carter","47","19","36.27","-82.16","A","GD"
"37659","TN","Jonesborough","Washington","47","179","36.29","-82.5","A","GD"
"37660","TN","Kingsport","Sullivan","47","163","36.54","-82.56","A","GD"
"37662","TN","Kingsport","Sullivan","47","163","36.55","-82.56","A","POB"
"37663","TN","Kingsport","Sullivan","47","163","36.47","-82.5","A","GD"
"37664","TN","Kingsport","Sullivan","47","163","36.52","-82.51","A","GD"
"37665","TN","Kingsport","Sullivan","47","163","36.58","-82.57","A","GD"
"37669","TN","Kingsport","Sullivan","47","163","36.53","-82.56","A","PVT"
"37680","TN","Laurel Bloomery","Johnson","47","91","36.57","-81.75","A","GD"
"37681","TN","Limestone","Washington","47","179","36.24","-82.62","A","GD"
"37682","TN","Milligan College","Carter","47","19","36.3","-82.29","A","POB"
"37683","TN","Mountain City","Johnson","47","91","36.45","-81.82","A","GD"
"37684","TN","Mountain Home","Washington","47","179","36.31","-82.38","A","POB"
"37686","TN","Piney Flats","Sullivan","47","163","36.43","-82.33","A","GD"
"37687","TN","Roan Mountain","Carter","47","19","36.19","-82.09","A","GD"
"37688","TN","Shady Valley","Johnson","47","91","36.53","-81.92","A","GD"
"37690","TN","Telford","Washington","47","179","36.25","-82.55","A","GD"
"37691","TN","Trade","Johnson","47","91","36.36","-81.76","A","GD"
"37692","TN","Unicoi","Unicoi","47","171","36.2","-82.32","A","GD"
"37694","TN","Watauga","Carter","47","19","36.38","-82.29","A","GD"
"37699","TN","Piney Flats","Sullivan","47","163","36.42","-82.3","A","PVT"
"37701","TN","Alcoa","Blount","47","9","35.79","-83.98","A","GD"
"37705","TN","Andersonville","Anderson","47","1","36.21","-84.02","A","GD"
"37707","TN","Arthur","Claiborne","47","25","36.55","-83.67","A","POB"
"37708","TN","Bean Station","Grainger","47","57","36.32","-83.32","A","GD"
"37709","TN","Blaine","Grainger","47","57","36.16","-83.68","A","GD"
"37710","TN","Briceville","Anderson","47","1","36.16","-84.3","A","GD"
"37711","TN","Bulls Gap","Hawkins","47","73","36.27","-83.06","A","GD"
"37713","TN","Bybee","Cocke","47","29","36.09","-83.13","A","GD"
"37714","TN","Caryville","Campbell","47","13","36.29","-84.21","A","GD"
"37715","TN","Clairfield","Claiborne","47","25","36.55","-83.95","A","GD"
"37716","TN","Clinton","Anderson","47","1","36.1","-84.15","A","GD"
"37717","TN","Clinton","Anderson","47","1","36.09","-84.13","A","POB"
"37719","TN","Coalfield","Morgan","47","129","36.03","-84.42","A","POB"
"37721","TN","Corryton","Knox","47","93","36.14","-83.81","A","GD"
"37722","TN","Cosby","Cocke","47","29","35.82","-83.23","A","GD"
"37723","TN","Crab Orchard","Cumberland","47","35","35.93","-84.86","A","GD"
"37724","TN","Cumberland Gap","Claiborne","47","25","36.57","-83.68","A","GD"
"37725","TN","Dandridge","Jefferson","47","89","36.01","-83.41","A","GD"
"37726","TN","Deer Lodge","Morgan","47","129","36.2","-84.83","A","GD"
"37727","TN","Del Rio","Cocke","47","29","35.9","-83.01","A","GD"
"37729","TN","Duff","Campbell","47","13","36.5","-84.04","A","GD"
"37730","TN","Eagan","Claiborne","47","25","36.55","-83.98","A","POB"
"37731","TN","Eidson","Hawkins","47","73","36.55","-83.02","A","GD"
"37732","TN","Elgin","Scott","47","151","36.33","-84.61","A","POB"
"37733","TN","Rugby","Morgan","47","129","36.36","-84.71","A","POB"
"37737","TN","Friendsville","Blount","47","9","35.76","-84.12","A","GD"
"37738","TN","Gatlinburg","Sevier","47","155","35.73","-83.48","A","GD"
"37742","TN","Greenback","Loudon","47","105","35.67","-84.18","A","GD"
"37743","TN","Greeneville","Greene","47","59","36.11","-82.87","A","GD"
"37744","TN","Greeneville","Greene","47","59","36.16","-82.81","A","POB"
"37745","TN","Greeneville","Greene","47","59","36.23","-82.81","A","GD"
"37748","TN","Harriman","Roane","47","145","35.93","-84.53","A","GD"
"37752","TN","Harrogate","Claiborne","47","25","36.58","-83.6","A","GD"
"37753","TN","Hartford","Cocke","47","29","35.82","-83.11","A","GD"
"37754","TN","Heiskell","Knox","47","93","36.14","-84.03","A","GD"
"37755","TN","Helenwood","Scott","47","151","36.42","-84.53","A","GD"
"37756","TN","Huntsville","Scott","47","151","36.33","-84.43","A","GD"
"37757","TN","Jacksboro","Campbell","47","13","36.32","-84.17","A","GD"
"37760","TN","Jefferson City","Jefferson","47","89","36.11","-83.48","A","GD"
"37762","TN","Jellico","Campbell","47","13","36.58","-84.13","A","GD"
"37763","TN","Kingston","Roane","47","145","35.85","-84.49","A","GD"
"37764","TN","Kodak","Sevier","47","155","35.97","-83.61","A","GD"
"37765","TN","Kyles Ford","Hancock","47","67","36.57","-83.06","A","GD"
"37766","TN","La Follette","Campbell","47","13","36.38","-84.09","A","GD"
"37769","TN","Lake City","Anderson","47","1","36.22","-84.15","A","GD"
"37770","TN","Lancing","Morgan","47","129","36.13","-84.69","A","GD"
"37771","TN","Lenoir City","Loudon","47","105","35.82","-84.29","A","GD"
"37772","TN","Lenoir City","Loudon","47","105","35.8","-84.23","A","GD"
"37773","TN","Lone Mountain","Claiborne","47","25","36.39","-83.59","A","POB"
"37774","TN","Loudon","Loudon","47","105","35.73","-84.33","A","GD"
"37777","TN","Louisville","Blount","47","9","35.84","-84.01","A","GD"
"37778","TN","Lowland","Hamblen","47","63","36.16","-83.25","A","POB"
"37779","TN","Luttrell","Union","47","173","36.21","-83.76","A","GD"
"37801","TN","Maryville","Blount","47","9","35.72","-84.04","A","GD"
"37802","TN","Maryville","Blount","47","9","35.76","-83.97","A","POB"
"37803","TN","Maryville","Blount","47","9","35.69","-83.98","A","GD"
"37804","TN","Maryville","Blount","47","9","35.78","-83.93","A","GD"
"37806","TN","Mascot","Knox","47","93","36.09","-83.74","A","GD"
"37807","TN","Maynardville","Union","47","173","36.25","-83.82","A","GD"
"37809","TN","Midway","Greene","47","59","36.16","-83.02","A","GD"
"37810","TN","Mohawk","Greene","47","59","36.19","-83.09","A","GD"
"37811","TN","Mooresburg","Hawkins","47","73","36.35","-83.23","A","GD"
"37813","TN","Morristown","Hamblen","47","63","36.18","-83.27","A","GD"
"37814","TN","Morristown","Hamblen","47","63","36.22","-83.31","A","GD"
"37815","TN","Morristown","Hamblen","47","63","36.21","-83.3","A","POB"
"37816","TN","Morristown","Hamblen","47","63","36.19","-83.37","A","POB"
"37818","TN","Mosheim","Greene","47","59","36.2","-82.97","A","GD"
"37819","TN","Newcomb","Campbell","47","13","36.54","-84.19","A","GD"
"37820","TN","New Market","Jefferson","47","89","36.09","-83.57","A","GD"
"37821","TN","Newport","Cocke","47","29","35.97","-83.2","A","GD"
"37822","TN","Newport","Cocke","47","29","35.96","-83.19","A","POB"
"37824","TN","New Tazewell","Claiborne","47","25","36.44","-83.61","A","POB"
"37825","TN","New Tazewell","Claiborne","47","25","36.42","-83.66","A","GD"
"37826","TN","Niota","Mcminn","47","107","35.55","-84.58","A","GD"
"37828","TN","Norris","Anderson","47","1","36.19","-84.07","A","POB"
"37829","TN","Oakdale","Morgan","47","129","35.99","-84.6","A","GD"
"37830","TN","Oak Ridge","Anderson","47","1","35.98","-84.28","A","GD"
"37831","TN","Oak Ridge","Anderson","47","1","35.96","-84.3","A","POB"
"37840","TN","Oliver Springs","Roane","47","145","36.04","-84.36","A","GD"
"37841","TN","Oneida","Scott","47","151","36.5","-84.53","A","GD"
"37843","TN","Parrottsville","Cocke","47","29","36.02","-83.06","A","GD"
"37845","TN","Petros","Morgan","47","129","36.1","-84.44","A","POB"
"37846","TN","Philadelphia","Loudon","47","105","35.67","-84.46","A","GD"
"37847","TN","Pioneer","Campbell","47","13","36.43","-84.28","A","GD"
"37848","TN","Powder Springs","Grainger","47","57","36.24","-83.69","A","GD"
"37849","TN","Powell","Knox","47","93","36.05","-84.05","A","GD"
"37851","TN","Pruden","Claiborne","47","25","36.58","-83.9","A","POB"
"37852","TN","Robbins","Scott","47","151","36.32","-84.58","A","GD"
"37853","TN","Rockford","Blount","47","9","35.83","-83.93","A","GD"
"37854","TN","Rockwood","Roane","47","145","35.87","-84.69","A","GD"
"37857","TN","Rogersville","Hawkins","47","73","36.41","-82.97","A","GD"
"37860","TN","Russellville","Hamblen","47","63","36.24","-83.19","A","GD"
"37861","TN","Rutledge","Grainger","47","57","36.25","-83.51","A","GD"
"37862","TN","Sevierville","Sevier","47","155","35.82","-83.58","A","GD"
"37863","TN","Pigeon Forge","Sevier","47","155","35.79","-83.56","A","GD"
"37864","TN","Sevierville","Sevier","47","155","35.86","-83.58","A","POB"
"37865","TN","Seymour","Sevier","47","155","35.86","-83.75","A","GD"
"37866","TN","Sharps Chapel","Union","47","173","36.35","-83.84","A","GD"
"37867","TN","Shawanee","Claiborne","47","25","36.58","-83.64","A","POB"
"37868","TN","Pigeon Forge","Sevier","47","155","35.78","-83.54","A","POB"
"37869","TN","Sneedville","Hancock","47","67","36.52","-83.23","A","GD"
"37870","TN","Speedwell","Claiborne","47","25","36.46","-83.85","A","GD"
"37871","TN","Strawberry Plains","Jefferson","47","89","36.04","-83.68","A","GD"
"37872","TN","Sunbright","Morgan","47","129","36.26","-84.65","A","GD"
"37873","TN","Surgoinsville","Hawkins","47","73","36.5","-82.84","A","GD"
"37874","TN","Sweetwater","Monroe","47","123","35.6","-84.47","A","GD"
"37876","TN","Sevierville","Sevier","47","155","35.87","-83.5","A","GD"
"37877","TN","Talbott","Hamblen","47","63","36.15","-83.41","A","GD"
"37878","TN","Tallassee","Blount","47","9","35.61","-83.95","A","GD"
"37879","TN","Tazewell","Claiborne","47","25","36.47","-83.54","A","GD"
"37880","TN","Ten Mile","Meigs","47","121","35.69","-84.68","A","GD"
"37881","TN","Thorn Hill","Grainger","47","57","36.41","-83.34","A","GD"
"37882","TN","Townsend","Blount","47","9","35.66","-83.77","A","GD"
"37885","TN","Vonore","Monroe","47","123","35.55","-84.19","A","GD"
"37886","TN","Walland","Blount","47","9","35.74","-83.81","A","GD"
"37887","TN","Wartburg","Morgan","47","129","36.09","-84.57","A","GD"
"37888","TN","Washburn","Grainger","47","57","36.31","-83.61","A","GD"
"37890","TN","White Pine","Jefferson","47","89","36.1","-83.29","A","GD"
"37891","TN","Whitesburg","Hamblen","47","63","36.28","-83.14","A","GD"
"37892","TN","Winfield","Scott","47","151","36.56","-84.41","A","GD"
"37901","TN","Knoxville","Knox","47","93","36.03","-83.89","A","POB"
"37902","TN","Knoxville","Knox","47","93","35.96","-83.92","A","GD"
"37909","TN","Knoxville","Knox","47","93","35.95","-84.02","A","GD"
"37912","TN","Knoxville","Knox","47","93","36.01","-83.98","A","GD"
"37914","TN","Knoxville","Knox","47","93","35.98","-83.83","A","GD"
"37915","TN","Knoxville","Knox","47","93","35.97","-83.9","A","GD"
"37916","TN","Knoxville","Knox","47","93","35.95","-83.93","A","GD"
"37917","TN","Knoxville","Knox","47","93","35.99","-83.92","A","GD"
"37918","TN","Knoxville","Knox","47","93","36.05","-83.92","A","GD"
"37919","TN","Knoxville","Knox","47","93","35.92","-84","A","GD"
"37920","TN","Knoxville","Knox","47","93","35.92","-83.89","A","GD"
"37921","TN","Knoxville","Knox","47","93","35.98","-83.98","A","GD"
"37922","TN","Knoxville","Knox","47","93","35.88","-84.1","A","GD"
"37923","TN","Knoxville","Knox","47","93","35.93","-84.08","A","GD"
"37924","TN","Knoxville","Knox","47","93","36.03","-83.81","A","GD"
"37927","TN","Knoxville","Knox","47","93","36","-83.91","A","POB"
"37928","TN","Knoxville","Knox","47","93","36.06","-83.91","A","POB"
"37929","TN","Knoxville","Knox","47","93","35.96","-83.92","A","GD"
"37930","TN","Knoxville","Knox","47","93","35.93","-84.08","A","POB"
"37931","TN","Knoxville","Knox","47","93","35.97","-84.12","A","GD"
"37932","TN","Knoxville","Knox","47","93","35.92","-84.17","A","GD"
"37933","TN","Knoxville","Knox","47","93","35.87","-84.12","A","POB"
"37934","TN","Knoxville","Knox","47","93","35.87","-84.17","A","GD"
"37938","TN","Knoxville","Knox","47","93","36.11","-83.94","A","GD"
"37939","TN","Knoxville","Knox","47","93","35.91","-84","A","POB"
"37940","TN","Knoxville","Knox","47","93","35.9","-83.85","A","POB"
"37950","TN","Knoxville","Knox","47","93","35.95","-84.02","A","POB"
"37995","TN","Knoxville","Knox","47","93","35.96","-83.92","A","PVT"
"37996","TN","Knoxville","Knox","47","93","35.95","-83.93","A","PVT"
"37997","TN","Knoxville","Knox","47","93","35.97","-83.91","A","PVT"
"37998","TN","Knoxville","Knox","47","93","35.94","-83.75","A","PVT"
"38001","TN","Alamo","Crockett","47","33","35.8","-89.14","A","GD"
"38002","TN","Arlington","Shelby","47","157","35.27","-89.71","A","GD"
"38004","TN","Atoka","Tipton","47","167","35.42","-89.78","A","GD"
"38006","TN","Bells","Crockett","47","33","35.7","-89.07","A","GD"
"38007","TN","Bogota","Dyer","47","45","36.17","-89.43","A","POB"
"38008","TN","Bolivar","Hardeman","47","69","35.25","-88.99","A","GD"
"38010","TN","Braden","Fayette","47","47","35.2","-89.39","A","POB"
"38011","TN","Brighton","Tipton","47","167","35.48","-89.72","A","GD"
"38012","TN","Brownsville","Haywood","47","75","35.59","-89.26","A","GD"
"38014","TN","Brunswick","Shelby","47","157","35.27","-89.77","A","POB"
"38015","TN","Burlison","Tipton","47","167","35.55","-89.82","A","GD"
"38016","TN","Cordova","Shelby","47","157","35.18","-89.77","A","GD"
"38017","TN","Collierville","Shelby","47","157","35.06","-89.68","A","GD"
"38018","TN","Cordova","Shelby","47","157","35.14","-89.78","A","GD"
"38019","TN","Covington","Tipton","47","167","35.56","-89.64","A","GD"
"38021","TN","Crockett Mills","Crockett","47","33","35.87","-89.17","A","POB"
"38023","TN","Drummonds","Tipton","47","167","35.46","-89.91","A","GD"
"38024","TN","Dyersburg","Dyer","47","45","36.04","-89.38","A","GD"
"38025","TN","Dyersburg","Dyer","47","45","36.03","-89.39","A","POB"
"38027","TN","Collierville","Shelby","47","157","35.06","-89.68","A","POB"
"38028","TN","Eads","Shelby","47","157","35.2","-89.62","A","GD"
"38029","TN","Ellendale","Shelby","47","157","35.24","-89.82","A","POB"
"38030","TN","Finley","Dyer","47","45","36.02","-89.57","A","GD"
"38034","TN","Friendship","Crockett","47","33","35.9","-89.24","A","GD"
"38036","TN","Gallaway","Fayette","47","47","35.32","-89.62","A","POB"
"38037","TN","Gates","Lauderdale","47","97","35.82","-89.41","A","GD"
"38039","TN","Grand Junction","Hardeman","47","69","35.06","-89.19","A","GD"
"38040","TN","Halls","Lauderdale","47","97","35.88","-89.41","A","GD"
"38041","TN","Henning","Lauderdale","47","97","35.65","-89.67","A","GD"
"38042","TN","Hickory Valley","Hardeman","47","69","35.15","-89.16","A","GD"
"38044","TN","Hornsby","Hardeman","47","69","35.21","-88.81","A","GD"
"38045","TN","Laconia","Fayette","47","47","35.29","-89.37","A","POB"
"38046","TN","La Grange","Fayette","47","47","35.05","-89.24","A","POB"
"38047","TN","Lenox","Dyer","47","45","36.09","-89.5","A","GD"
"38048","TN","Macon","Fayette","47","47","35.15","-89.49","A","POB"
"38049","TN","Mason","Tipton","47","167","35.38","-89.55","A","GD"
"38050","TN","Maury City","Crockett","47","33","35.82","-89.23","A","POB"
"38052","TN","Middleton","Hardeman","47","69","35.08","-88.9","A","GD"
"38053","TN","Millington","Shelby","47","157","35.34","-89.9","A","GD"
"38054","TN","Millington","Shelby","47","157","35.34","-89.87","A","POB"
"38055","TN","Millington","Shelby","47","157","35.34","-89.9","A","PVT"
"38057","TN","Moscow","Fayette","47","47","35.04","-89.37","A","GD"
"38058","TN","Munford","Tipton","47","167","35.45","-89.82","A","GD"
"38059","TN","Newbern","Dyer","47","45","36.12","-89.25","A","GD"
"38060","TN","Oakland","Fayette","47","47","35.22","-89.52","A","GD"
"38061","TN","Pocahontas","Hardeman","47","69","35.07","-88.77","A","GD"
"38063","TN","Ripley","Lauderdale","47","97","35.75","-89.55","A","GD"
"38066","TN","Rossville","Fayette","47","47","35.06","-89.54","A","GD"
"38067","TN","Saulsbury","Hardeman","47","69","35.09","-89.03","A","GD"
"38068","TN","Somerville","Fayette","47","47","35.27","-89.35","A","GD"
"38069","TN","Stanton","Haywood","47","75","35.46","-89.36","A","GD"
"38070","TN","Tigrett","Dyer","47","45","35.95","-89.24","A","POB"
"38071","TN","Tipton","Tipton","47","167","35.42","-89.81","A","POB"
"38075","TN","Whiteville","Hardeman","47","69","35.35","-89.16","A","GD"
"38076","TN","Williston","Fayette","47","47","35.15","-89.43","A","GD"
"38077","TN","Wynnburg","Lake","47","95","36.33","-89.48","A","POB"
"38079","TN","Tiptonville","Lake","47","95","36.39","-89.46","A","GD"
"38080","TN","Ridgely","Lake","47","95","36.22","-89.5","A","GD"
"38083","TN","Millington","Shelby","47","157","35.33","-89.89","A","POB"
"38088","TN","Cordova","Shelby","47","157","35.15","-89.79","A","POB"
"38101","TN","Memphis","Shelby","47","157","35.13","-90.05","A","POB"
"38103","TN","Memphis","Shelby","47","157","35.15","-90.05","A","GD"
"38104","TN","Memphis","Shelby","47","157","35.13","-90.01","A","GD"
"38105","TN","Memphis","Shelby","47","157","35.15","-90.04","A","GD"
"38106","TN","Memphis","Shelby","47","157","35.1","-90.04","A","GD"
"38107","TN","Memphis","Shelby","47","157","35.16","-90.02","A","GD"
"38108","TN","Memphis","Shelby","47","157","35.17","-89.96","A","GD"
"38109","TN","Memphis","Shelby","47","157","35.05","-90.08","A","GD"
"38111","TN","Memphis","Shelby","47","157","35.11","-89.94","A","GD"
"38112","TN","Memphis","Shelby","47","157","35.15","-89.98","A","GD"
"38113","TN","Memphis","Shelby","47","157","35.11","-90.13","A","POB"
"38114","TN","Memphis","Shelby","47","157","35.1","-89.99","A","GD"
"38115","TN","Memphis","Shelby","47","157","35.06","-89.86","A","GD"
"38116","TN","Memphis","Shelby","47","157","35.03","-90.01","A","GD"
"38117","TN","Memphis","Shelby","47","157","35.11","-89.9","A","GD"
"38118","TN","Memphis","Shelby","47","157","35.05","-89.93","A","GD"
"38119","TN","Memphis","Shelby","47","157","35.08","-89.85","A","GD"
"38120","TN","Memphis","Shelby","47","157","35.12","-89.86","A","GD"
"38122","TN","Memphis","Shelby","47","157","35.16","-89.93","A","GD"
"38124","TN","Memphis","Shelby","47","157","35.11","-89.91","A","POB"
"38125","TN","Memphis","Shelby","47","157","35.03","-89.8","A","GD"
"38126","TN","Memphis","Shelby","47","157","35.13","-90.04","A","GD"
"38127","TN","Memphis","Shelby","47","157","35.22","-90.01","A","GD"
"38128","TN","Memphis","Shelby","47","157","35.22","-89.93","A","GD"
"38130","TN","Memphis","Shelby","47","157","35.03","-89.93","A","POB"
"38131","TN","Memphis","Shelby","47","157","35.06","-89.99","A","GD"
"38132","TN","Memphis","Shelby","47","157","35.07","-90","A","GD"
"38133","TN","Memphis","Shelby","47","157","35.21","-89.81","A","GD"
"38134","TN","Memphis","Shelby","47","157","35.19","-89.87","A","GD"
"38135","TN","Memphis","Shelby","47","157","35.23","-89.85","A","GD"
"38136","TN","Memphis","Shelby","47","157","35.1","-90.04","A","PVT"
"38137","TN","Memphis","Shelby","47","157","35.11","-89.89","A","GD"
"38138","TN","Germantown","Shelby","47","157","35.09","-89.8","A","GD"
"38139","TN","Germantown","Shelby","47","157","35.09","-89.76","A","GD"
"38141","TN","Memphis","Shelby","47","157","35.02","-89.85","A","GD"
"38145","TN","Memphis","Shelby","47","157","35.14","-90.05","A","PVT"
"38147","TN","Memphis","Shelby","47","157","35.15","-90.05","A","PVT"
"38148","TN","Memphis","Shelby","47","157","35.14","-90.05","A","PVT"
"38150","TN","Memphis","Shelby","47","157","35.15","-90.05","A","PVT"
"38151","TN","Memphis","Shelby","47","157","35.15","-89.98","A","PVT"
"38152","TN","Memphis","Shelby","47","157","35.12","-89.93","A","PVT"
"38157","TN","Memphis","Shelby","47","157","35.11","-89.89","A","GD"
"38159","TN","Memphis","Shelby","47","157","35.15","-90.05","A","PVT"
"38161","TN","Memphis","Shelby","47","157","35.14","-89.86","A","PVT"
"38163","TN","Memphis","Shelby","47","157","35.14","-90.04","A","PVT"
"38166","TN","Memphis","Shelby","47","157","35.13","-90","A","PVT"
"38167","TN","Memphis","Shelby","47","157","35.26","-90.03","A","POB"
"38168","TN","Memphis","Shelby","47","157","35.23","-89.92","A","POB"
"38173","TN","Memphis","Shelby","47","157","35.14","-90.05","A","POB"
"38174","TN","Memphis","Shelby","47","157","35.13","-90.01","A","POB"
"38175","TN","Memphis","Shelby","47","157","35.05","-89.87","A","POB"
"38177","TN","Memphis","Shelby","47","157","35.12","-89.91","A","POB"
"38181","TN","Memphis","Shelby","47","157","35.05","-89.94","A","POB"
"38182","TN","Memphis","Shelby","47","157","35.15","-89.97","A","POB"
"38183","TN","Germantown","Shelby","47","157","35.1","-89.8","A","POB"
"38184","TN","Memphis","Shelby","47","157","35.19","-89.86","A","POB"
"38186","TN","Memphis","Shelby","47","157","35.03","-90.02","A","POB"
"38187","TN","Memphis","Shelby","47","157","35.08","-89.85","A","POB"
"38188","TN","Memphis","Shelby","47","157","35.1","-89.86","A","PVT"
"38190","TN","Memphis","Shelby","47","157","35.05","-90.06","A","POB"
"38193","TN","Memphis","Shelby","47","157","35.06","-89.86","A","PVT"
"38194","TN","Memphis","Shelby","47","157","35.07","-90","A","PVT"
"38197","TN","Memphis","Shelby","47","157","35.1","-89.85","A","PVT"
"38201","TN","Mc Kenzie","Carroll","47","17","36.13","-88.52","A","GD"
"38220","TN","Atwood","Carroll","47","17","35.98","-88.67","A","GD"
"38221","TN","Big Sandy","Benton","47","5","36.24","-88.06","A","GD"
"38222","TN","Buchanan","Henry","47","79","36.45","-88.14","A","GD"
"38223","TN","Como","Henry","47","79","36.36","-88.46","A","POB"
"38224","TN","Cottage Grove","Henry","47","79","36.4","-88.5","A","GD"
"38225","TN","Dresden","Weakley","47","183","36.3","-88.69","A","GD"
"38226","TN","Dukedom","Weakley","47","183","36.48","-88.68","A","GD"
"38229","TN","Gleason","Weakley","47","183","36.22","-88.61","A","GD"
"38230","TN","Greenfield","Weakley","47","183","36.16","-88.78","A","GD"
"38231","TN","Henry","Henry","47","79","36.21","-88.42","A","GD"
"38232","TN","Hornbeak","Obion","47","131","36.36","-89.32","A","GD"
"38233","TN","Kenton","Gibson","47","53","36.2","-89.04","A","GD"
"38235","TN","Mc Lemoresville","Carroll","47","17","35.99","-88.58","A","POB"
"38236","TN","Mansfield","Henry","47","79","36.17","-88.27","A","GD"
"38237","TN","Martin","Weakley","47","183","36.35","-88.84","A","GD"
"38238","TN","Martin","Weakley","47","183","36.34","-88.86","A","PVT"
"38240","TN","Obion","Obion","47","131","36.25","-89.25","A","GD"
"38241","TN","Palmersville","Weakley","47","183","36.42","-88.58","A","GD"
"38242","TN","Paris","Henry","47","79","36.3","-88.32","A","GD"
"38251","TN","Puryear","Henry","47","79","36.44","-88.36","A","GD"
"38253","TN","Rives","Obion","47","131","36.31","-89.06","A","GD"
"38254","TN","Samburg","Obion","47","131","36.38","-89.35","A","POB"
"38255","TN","Sharon","Weakley","47","183","36.23","-88.84","A","GD"
"38256","TN","Springville","Henry","47","79","36.32","-88.12","A","GD"
"38257","TN","South Fulton","Obion","47","131","36.48","-88.88","A","GD"
"38258","TN","Trezevant","Carroll","47","17","36.01","-88.62","A","GD"
"38259","TN","Trimble","Dyer","47","45","36.2","-89.18","A","GD"
"38260","TN","Troy","Obion","47","131","36.35","-89.19","A","GD"
"38261","TN","Union City","Obion","47","131","36.42","-89.07","A","GD"
"38271","TN","Woodland Mills","Obion","47","131","36.43","-89.12","A","POB"
"38281","TN","Union City","Obion","47","131","36.42","-89.05","A","POB"
"38301","TN","Jackson","Madison","47","113","35.61","-88.82","A","GD"
"38302","TN","Jackson","Madison","47","113","35.59","-88.86","A","POB"
"38303","TN","Jackson","Madison","47","113","35.64","-88.82","A","POB"
"38305","TN","Jackson","Madison","47","113","35.69","-88.82","A","GD"
"38308","TN","Jackson","Madison","47","113","35.59","-88.82","A","POB"
"38310","TN","Adamsville","Mcnairy","47","109","35.24","-88.39","A","GD"
"38311","TN","Bath Springs","Decatur","47","39","35.44","-88.11","A","GD"
"38313","TN","Beech Bluff","Madison","47","113","35.61","-88.62","A","GD"
"38314","TN","Jackson","Madison","47","113","35.59","-88.86","A","POB"
"38315","TN","Bethel Springs","Mcnairy","47","109","35.26","-88.63","A","GD"
"38316","TN","Bradford","Gibson","47","53","36.07","-88.81","A","GD"
"38317","TN","Bruceton","Carroll","47","17","36.05","-88.25","A","GD"
"38318","TN","Buena Vista","Carroll","47","17","35.95","-88.27","A","GD"
"38320","TN","Camden","Benton","47","5","36.04","-88.1","A","GD"
"38321","TN","Cedar Grove","Carroll","47","17","35.83","-88.52","A","GD"
"38324","TN","Clarksburg","Carroll","47","17","35.86","-88.38","A","POB"
"38326","TN","Counce","Hardin","47","71","35.06","-88.28","A","GD"
"38327","TN","Crump","Hardin","47","71","35.22","-88.3","A","GD"
"38328","TN","Darden","Henderson","47","77","35.67","-88.21","A","GD"
"38329","TN","Decaturville","Decatur","47","39","35.55","-88.11","A","GD"
"38330","TN","Dyer","Gibson","47","53","36.07","-89.02","A","GD"
"38331","TN","Eaton","Gibson","47","53","35.97","-89.13","A","POB"
"38332","TN","Enville","Chester","47","23","35.4","-88.42","A","GD"
"38333","TN","Eva","Benton","47","5","36.11","-87.98","A","GD"
"38334","TN","Finger","Mcnairy","47","109","35.36","-88.61","A","GD"
"38336","TN","Fruitvale","Crockett","47","33","35.72","-89.06","A","POB"
"38337","TN","Gadsden","Crockett","47","33","35.78","-89","A","GD"
"38338","TN","Gibson","Gibson","47","53","35.87","-88.85","A","POB"
"38339","TN","Guys","Mcnairy","47","109","35.05","-88.52","A","GD"
"38340","TN","Henderson","Chester","47","23","35.41","-88.67","A","GD"
"38341","TN","Holladay","Benton","47","5","35.88","-88.1","A","GD"
"38342","TN","Hollow Rock","Carroll","47","17","36.08","-88.28","A","GD"
"38343","TN","Humboldt","Gibson","47","53","35.83","-88.91","A","GD"
"38344","TN","Huntingdon","Carroll","47","17","35.99","-88.42","A","GD"
"38345","TN","Huron","Henderson","47","77","35.6","-88.51","A","GD"
"38346","TN","Idlewild","Gibson","47","53","36.03","-88.8","A","POB"
"38347","TN","Jacks Creek","Chester","47","23","35.48","-88.5","A","GD"
"38348","TN","Lavinia","Carroll","47","17","35.87","-88.67","A","GD"
"38351","TN","Lexington","Henderson","47","77","35.66","-88.41","A","GD"
"38352","TN","Luray","Chester","47","23","35.53","-88.53","A","GD"
"38355","TN","Medina","Gibson","47","53","35.8","-88.78","A","GD"
"38356","TN","Medon","Madison","47","113","35.43","-88.89","A","GD"
"38357","TN","Michie","Mcnairy","47","109","35.05","-88.42","A","GD"
"38358","TN","Milan","Gibson","47","53","35.9","-88.75","A","GD"
"38359","TN","Milledgeville","Mcnairy","47","109","35.38","-88.36","A","GD"
"38361","TN","Morris Chapel","Hardin","47","71","35.31","-88.28","A","GD"
"38362","TN","Oakfield","Madison","47","113","35.72","-88.77","A","GD"
"38363","TN","Parsons","Decatur","47","39","35.66","-88.12","A","GD"
"38365","TN","Pickwick Dam","Hardin","47","71","35.05","-88.24","A","POB"
"38366","TN","Pinson","Madison","47","113","35.49","-88.73","A","GD"
"38367","TN","Ramer","Mcnairy","47","109","35.06","-88.61","A","GD"
"38368","TN","Reagan","Henderson","47","77","35.5","-88.34","A","GD"
"38369","TN","Rutherford","Gibson","47","53","36.13","-88.98","A","GD"
"38370","TN","Saltillo","Hardin","47","71","35.38","-88.23","A","GD"
"38371","TN","Sardis","Henderson","47","77","35.43","-88.31","A","GD"
"38372","TN","Savannah","Hardin","47","71","35.18","-88.2","A","GD"
"38374","TN","Scotts Hill","Decatur","47","39","35.52","-88.24","A","GD"
"38375","TN","Selmer","Mcnairy","47","109","35.16","-88.59","A","GD"
"38376","TN","Shiloh","Hardin","47","71","35.1","-88.37","A","GD"
"38377","TN","Silerton","Hardeman","47","69","35.36","-88.83","A","POB"
"38378","TN","Spring Creek","Madison","47","113","35.77","-88.66","A","POB"
"38379","TN","Stantonville","Mcnairy","47","109","35.16","-88.42","A","GD"
"38380","TN","Sugar Tree","Decatur","47","39","35.78","-88.03","A","GD"
"38381","TN","Toone","Hardeman","47","69","35.35","-88.95","A","GD"
"38382","TN","Trenton","Gibson","47","53","35.97","-88.96","A","GD"
"38387","TN","Westport","Carroll","47","17","35.88","-88.29","A","GD"
"38388","TN","Wildersville","Henderson","47","77","35.78","-88.33","A","GD"
"38389","TN","Yorkville","Gibson","47","53","36.08","-89.06","A","POB"
"38390","TN","Yuma","Carroll","47","17","35.85","-88.38","A","GD"
"38391","TN","Denmark","Madison","47","113","35.55","-89.02","A","GD"
"38392","TN","Mercer","Madison","47","113","35.46","-89.05","A","GD"
"38393","TN","Chewalla","Mcnairy","47","109","35.05","-88.64","A","POB"
"38401","TN","Columbia","Maury","47","119","35.62","-87.04","A","GD"
"38402","TN","Columbia","Maury","47","119","35.61","-87.04","A","POB"
"38425","TN","Clifton","Wayne","47","181","35.4","-87.97","A","GD"
"38449","TN","Ardmore","Giles","47","55","35.04","-86.84","A","GD"
"38450","TN","Collinwood","Wayne","47","181","35.18","-87.76","A","GD"
"38451","TN","Culleoka","Maury","47","119","35.47","-86.99","A","GD"
"38452","TN","Cypress Inn","Wayne","47","181","35.07","-87.8","A","GD"
"38453","TN","Dellrose","Lincoln","47","103","35.12","-86.82","A","GD"
"38454","TN","Duck River","Hickman","47","81","35.73","-87.35","A","GD"
"38455","TN","Elkton","Giles","47","55","35.05","-86.89","A","POB"
"38456","TN","Ethridge","Lawrence","47","99","35.33","-87.28","A","GD"
"38457","TN","Five Points","Lawrence","47","99","35.03","-87.29","A","GD"
"38459","TN","Frankewing","Lincoln","47","103","35.19","-86.81","A","GD"
"38460","TN","Goodspring","Giles","47","55","35.08","-87.16","A","GD"
"38461","TN","Hampshire","Maury","47","119","35.6","-87.33","A","GD"
"38462","TN","Hohenwald","Lewis","47","101","35.54","-87.55","A","GD"
"38463","TN","Iron City","Lawrence","47","99","35.06","-87.63","A","GD"
"38464","TN","Lawrenceburg","Lawrence","47","99","35.26","-87.37","A","GD"
"38468","TN","Leoma","Lawrence","47","99","35.14","-87.3","A","GD"
"38469","TN","Loretto","Lawrence","47","99","35.07","-87.42","A","GD"
"38471","TN","Lutts","Wayne","47","181","35.08","-87.91","A","GD"
"38472","TN","Lynnville","Giles","47","55","35.38","-87.03","A","GD"
"38473","TN","Minor Hill","Giles","47","55","35.03","-87.17","A","GD"
"38474","TN","Mount Pleasant","Maury","47","119","35.52","-87.22","A","GD"
"38475","TN","Olivehill","Hardin","47","71","35.26","-88.02","A","GD"
"38476","TN","Primm Springs","Williamson","47","187","35.83","-87.22","A","GD"
"38477","TN","Prospect","Giles","47","55","35.05","-86.99","A","GD"
"38478","TN","Pulaski","Giles","47","55","35.2","-87.01","A","GD"
"38481","TN","Saint Joseph","Lawrence","47","99","35.04","-87.5","A","GD"
"38482","TN","Santa Fe","Maury","47","119","35.77","-87.15","A","GD"
"38483","TN","Summertown","Lawrence","47","99","35.43","-87.34","A","GD"
"38485","TN","Waynesboro","Wayne","47","181","35.34","-87.76","A","GD"
"38486","TN","Westpoint","Lawrence","47","99","35.17","-87.54","A","GD"
"38487","TN","Williamsport","Maury","47","119","35.73","-87.23","A","GD"
"38488","TN","Taft","Lincoln","47","103","35.05","-86.69","A","GD"
"38501","TN","Cookeville","Putnam","47","141","36.18","-85.52","A","GD"
"38502","TN","Cookeville","Putnam","47","141","36.16","-85.5","A","POB"
"38503","TN","Cookeville","Putnam","47","141","36.16","-85.51","A","POB"
"38504","TN","Allardt","Fentress","47","49","36.39","-84.73","A","GD"
"38505","TN","Cookeville","Putnam","47","141","36.17","-85.51","A","PVT"
"38506","TN","Cookeville","Putnam","47","141","36.17","-85.46","A","GD"
"38541","TN","Allons","Overton","47","133","36.52","-85.34","A","GD"
"38542","TN","Allred","Overton","47","133","36.32","-85.21","A","GD"
"38543","TN","Alpine","Overton","47","133","36.4","-85.17","A","GD"
"38544","TN","Baxter","Putnam","47","141","36.14","-85.65","A","GD"
"38545","TN","Bloomington Springs","Putnam","47","141","36.22","-85.64","A","GD"
"38547","TN","Brush Creek","Smith","47","159","36.14","-86","A","GD"
"38548","TN","Buffalo Valley","Putnam","47","141","36.16","-85.79","A","GD"
"38549","TN","Byrdstown","Pickett","47","137","36.57","-85.15","A","GD"
"38550","TN","Campaign","Warren","47","177","35.71","-85.6","A","POB"
"38551","TN","Celina","Clay","47","27","36.55","-85.49","A","GD"
"38552","TN","Chestnut Mound","Smith","47","159","36.22","-85.81","A","GD"
"38553","TN","Clarkrange","Fentress","47","49","36.2","-85.01","A","GD"
"38554","TN","Crawford","Overton","47","133","36.26","-85.16","A","GD"
"38555","TN","Crossville","Cumberland","47","35","35.94","-85.01","A","GD"
"38556","TN","Jamestown","Fentress","47","49","36.42","-84.92","A","GD"
"38557","TN","Crossville","Cumberland","47","35","35.98","-84.97","A","POB"
"38558","TN","Crossville","Cumberland","47","35","36","-84.88","A","GD"
"38559","TN","Doyle","White","47","185","35.84","-85.52","A","GD"
"38560","TN","Elmwood","Smith","47","159","36.24","-85.88","A","GD"
"38562","TN","Gainesboro","Jackson","47","87","36.36","-85.66","A","GD"
"38563","TN","Gordonsville","Smith","47","159","36.18","-85.98","A","GD"
"38564","TN","Granville","Jackson","47","87","36.28","-85.76","A","GD"
"38565","TN","Grimsley","Fentress","47","49","36.26","-85","A","GD"
"38567","TN","Hickman","Smith","47","159","36.15","-85.91","A","GD"
"38568","TN","Hilham","Overton","47","133","36.42","-85.46","A","GD"
"38569","TN","Lancaster","Smith","47","159","36.11","-85.85","A","GD"
"38570","TN","Livingston","Overton","47","133","36.38","-85.33","A","GD"
"38571","TN","Crossville","Cumberland","47","35","36.03","-85.04","A","GD"
"38572","TN","Crossville","Cumberland","47","35","35.86","-85.11","A","GD"
"38573","TN","Monroe","Overton","47","133","36.48","-85.2","A","GD"
"38574","TN","Monterey","Putnam","47","141","36.13","-85.24","A","GD"
"38575","TN","Moss","Clay","47","27","36.56","-85.66","A","GD"
"38577","TN","Pall Mall","Fentress","47","49","36.57","-84.97","A","GD"
"38578","TN","Pleasant Hill","Cumberland","47","35","35.98","-85.2","A","POB"
"38579","TN","Quebeck","White","47","185","35.81","-85.55","A","GD"
"38580","TN","Rickman","Overton","47","133","36.28","-85.33","A","GD"
"38581","TN","Rock Island","Warren","47","177","35.76","-85.63","A","GD"
"38582","TN","Silver Point","Putnam","47","141","36.09","-85.76","A","GD"
"38583","TN","Sparta","White","47","185","35.94","-85.45","A","GD"
"38585","TN","Spencer","Van Buren","47","175","35.7","-85.44","A","GD"
"38587","TN","Walling","White","47","185","35.84","-85.61","A","GD"
"38588","TN","Whitleyville","Jackson","47","87","36.45","-85.73","A","GD"
"38589","TN","Wilder","Overton","47","133","36.28","-85.09","A","GD"
