"ZIPCode","State","City","County","StateFIPS","CountyFIPS","Latitude","Longitude","Preference","Type"
"20101","VA","Dulles","Loudoun","51","107","38.99","-77.45","A","PVT"
"20102","VA","Dulles","Loudoun","51","107","38.96","-77.45","A","PVT"
"20103","VA","Dulles","Loudoun","51","107","39","-77.45","A","PVT"
"20104","VA","Dulles","Loudoun","51","107","39","-77.45","A","PVT"
"20105","VA","Aldie","Loudoun","51","107","38.94","-77.58","A","GD"
"20106","VA","Amissville","Culpeper","51","47","38.69","-77.99","A","GD"
"20108","VA","Manassas","Manassas City","51","683","38.75","-77.48","A","POB"
"20109","VA","Manassas","Prince William","51","153","38.79","-77.52","A","GD"
"20110","VA","Manassas","Manassas City","51","683","38.75","-77.48","A","GD"
"20111","VA","Manassas","Prince William","51","153","38.76","-77.44","A","GD"
"20112","VA","Manassas","Prince William","51","153","38.68","-77.43","A","GD"
"20113","VA","Manassas","Manassas Park City","51","685","38.79","-77.46","A","POB"
"20115","VA","Marshall","Fauquier","51","61","38.84","-77.89","A","GD"
"20116","VA","Marshall","Fauquier","51","61","38.87","-77.86","A","POB"
"20117","VA","Middleburg","Loudoun","51","107","38.98","-77.74","A","GD"
"20118","VA","Middleburg","Loudoun","51","107","38.97","-77.74","A","POB"
"20119","VA","Catlett","Fauquier","51","61","38.64","-77.64","A","GD"
"20120","VA","Centreville","Fairfax","51","59","38.85","-77.45","A","GD"
"20121","VA","Centreville","Fairfax","51","59","38.82","-77.45","A","GD"
"20122","VA","Centreville","Fairfax","51","59","38.86","-77.48","A","POB"
"20124","VA","Clifton","Fairfax","51","59","38.8","-77.4","A","GD"
"20128","VA","Orlean","Fauquier","51","61","38.75","-77.96","A","POB"
"20129","VA","Paeonian Springs","Loudoun","51","107","39.15","-77.61","A","GD"
"20130","VA","Paris","Clarke","51","43","39.02","-77.94","A","GD"
"20131","VA","Philomont","Loudoun","51","107","39.06","-77.74","A","POB"
"20132","VA","Purcellville","Loudoun","51","107","39.15","-77.72","A","GD"
"20134","VA","Purcellville","Loudoun","51","107","39.14","-77.71","A","POB"
"20135","VA","Bluemont","Clarke","51","43","39.14","-77.83","A","GD"
"20136","VA","Bristow","Prince William","51","153","38.75","-77.56","A","GD"
"20137","VA","Broad Run","Fauquier","51","61","38.82","-77.71","A","GD"
"20138","VA","Calverton","Fauquier","51","61","38.64","-77.67","A","POB"
"20139","VA","Casanova","Fauquier","51","61","38.65","-77.7","A","POB"
"20140","VA","Rectortown","Fauquier","51","61","38.92","-77.86","A","POB"
"20141","VA","Round Hill","Loudoun","51","107","39.12","-77.78","A","GD"
"20142","VA","Round Hill","Loudoun","51","107","39.13","-77.77","A","POB"
"20143","VA","Catharpin","Prince William","51","153","38.86","-77.56","A","GD"
"20144","VA","Delaplane","Fauquier","51","61","38.91","-77.93","A","GD"
"20146","VA","Ashburn","Loudoun","51","107","39.02","-77.46","A","POB"
"20147","VA","Ashburn","Loudoun","51","107","39.04","-77.49","A","GD"
"20148","VA","Ashburn","Loudoun","51","107","38.99","-77.52","A","GD"
"20149","VA","Ashburn","Loudoun","51","107","39.04","-77.48","A","PVT"
"20151","VA","Chantilly","Fairfax","51","59","38.9","-77.44","A","GD"
"20152","VA","Chantilly","Loudoun","51","107","38.91","-77.51","A","GD"
"20153","VA","Chantilly","Fairfax","51","59","38.89","-77.44","A","POB"
"20155","VA","Gainesville","Prince William","51","153","38.8","-77.62","A","GD"
"20156","VA","Gainesville","Prince William","51","153","38.79","-77.63","A","POB"
"20158","VA","Hamilton","Loudoun","51","107","39.14","-77.66","A","GD"
"20159","VA","Hamilton","Loudoun","51","107","39.14","-77.66","A","POB"
"20160","VA","Lincoln","Loudoun","51","107","39.12","-77.7","A","POB"
"20163","VA","Sterling","Loudoun","51","107","38.99","-77.45","A","POB"
"20164","VA","Sterling","Loudoun","51","107","39.01","-77.39","A","GD"
"20165","VA","Sterling","Loudoun","51","107","39.04","-77.39","A","GD"
"20166","VA","Sterling","Loudoun","51","107","38.99","-77.43","A","GD"
"20167","VA","Sterling","Loudoun","51","107","39.02","-77.39","A","POB"
"20168","VA","Haymarket","Prince William","51","153","38.81","-77.64","A","POB"
"20169","VA","Haymarket","Prince William","51","153","38.86","-77.64","A","GD"
"20170","VA","Herndon","Fairfax","51","59","38.98","-77.38","A","GD"
"20171","VA","Herndon","Fairfax","51","59","38.93","-77.4","A","GD"
"20172","VA","Herndon","Fairfax","51","59","38.97","-77.38","A","POB"
"20175","VA","Leesburg","Loudoun","51","107","39.08","-77.58","A","GD"
"20176","VA","Leesburg","Loudoun","51","107","39.13","-77.53","A","GD"
"20177","VA","Leesburg","Loudoun","51","107","39.11","-77.57","A","POB"
"20178","VA","Leesburg","Loudoun","51","107","39.12","-77.56","A","POB"
"20180","VA","Lovettsville","Loudoun","51","107","39.27","-77.63","A","GD"
"20181","VA","Nokesville","Prince William","51","153","38.69","-77.57","A","GD"
"20182","VA","Nokesville","Prince William","51","153","38.7","-77.58","A","POB"
"20184","VA","Upperville","Fauquier","51","61","39","-77.87","A","GD"
"20185","VA","Upperville","Fauquier","51","61","38.99","-77.88","A","POB"
"20186","VA","Warrenton","Fauquier","51","61","38.7","-77.82","A","GD"
"20187","VA","Warrenton","Fauquier","51","61","38.74","-77.74","A","GD"
"20188","VA","Warrenton","Fauquier","51","61","38.71","-77.84","A","POB"
"20189","VA","Dulles","Loudoun","51","107","39.01","-77.44","A","GD"
"20190","VA","Reston","Fairfax","51","59","38.96","-77.35","A","GD"
"20191","VA","Reston","Fairfax","51","59","38.93","-77.35","A","GD"
"20192","VA","Herndon","Fairfax","51","59","38.95","-77.37","A","PVT"
"20194","VA","Reston","Fairfax","51","59","38.98","-77.34","A","GD"
"20195","VA","Reston","Fairfax","51","59","38.95","-77.33","A","POB"
"20196","VA","Reston","Fairfax","51","59","38.93","-77.4","A","PVT"
"20197","VA","Waterford","Loudoun","51","107","39.2","-77.63","A","GD"
"20198","VA","The Plains","Fauquier","51","61","38.89","-77.76","A","GD"
"20598","VA","Dhs","Loudoun","51","107","38.99","-77.45","A","PVT"
"22003","VA","Annandale","Fairfax","51","59","38.83","-77.22","A","GD"
"22009","VA","Burke","Fairfax","51","59","38.78","-77.27","A","POB"
"22015","VA","Burke","Fairfax","51","59","38.79","-77.28","A","GD"
"22025","VA","Dumfries","Prince William","51","153","38.6","-77.34","A","GD"
"22026","VA","Dumfries","Prince William","51","153","38.57","-77.31","A","GD"
"22027","VA","Dunn Loring","Fairfax","51","59","38.89","-77.22","A","GD"
"22030","VA","Fairfax","Fairfax City","51","600","38.85","-77.33","A","GD"
"22031","VA","Fairfax","Fairfax","51","59","38.86","-77.26","A","GD"
"22032","VA","Fairfax","Fairfax","51","59","38.82","-77.29","A","GD"
"22033","VA","Fairfax","Fairfax","51","59","38.87","-77.38","A","GD"
"22034","VA","Fairfax","Fairfax","51","59","38.86","-77.26","A","GD"
"22035","VA","Fairfax","Fairfax","51","59","38.85","-77.36","A","GD"
"22036","VA","Fairfax","Fairfax","51","59","38.86","-77.26","A","GD"
"22037","VA","Fairfax","Fairfax","51","59","38.85","-77.3","A","PVT"
"22038","VA","Fairfax","Fairfax City","51","600","38.83","-77.36","A","POB"
"22039","VA","Fairfax Station","Fairfax","51","59","38.76","-77.31","A","GD"
"22040","VA","Falls Church","Falls Church City","51","610","38.88","-77.17","A","POB"
"22041","VA","Falls Church","Fairfax","51","59","38.85","-77.14","A","GD"
"22042","VA","Falls Church","Fairfax","51","59","38.87","-77.19","A","GD"
"22043","VA","Falls Church","Fairfax","51","59","38.9","-77.2","A","GD"
"22044","VA","Falls Church","Fairfax","51","59","38.86","-77.15","A","GD"
"22046","VA","Falls Church","Falls Church City","51","610","38.89","-77.18","A","GD"
"22060","VA","Fort Belvoir","Fairfax","51","59","38.7","-77.15","A","GD"
"22066","VA","Great Falls","Fairfax","51","59","39","-77.3","A","GD"
"22067","VA","Greenway","Fairfax","51","59","38.94","-77.17","A","GD"
"22079","VA","Lorton","Fairfax","51","59","38.7","-77.21","A","GD"
"22081","VA","Merrifield","Fairfax","51","59","38.87","-77.24","A","GD"
"22082","VA","Merrifield","Fairfax","51","59","38.87","-77.24","A","PVT"
"22095","VA","Herndon","Fairfax","51","59","38.97","-77.39","A","PVT"
"22096","VA","Reston","Fairfax","51","59","38.95","-77.35","A","PVT"
"22101","VA","Mc Lean","Fairfax","51","59","38.93","-77.17","A","GD"
"22102","VA","Mc Lean","Fairfax","51","59","38.94","-77.22","A","GD"
"22103","VA","West Mclean","Fairfax","51","59","38.95","-77.23","A","POB"
"22106","VA","Mc Lean","Fairfax","51","59","38.94","-77.18","A","POB"
"22107","VA","Mc Lean","Fairfax","51","59","38.94","-77.18","A","PVT"
"22108","VA","Mc Lean","Fairfax","51","59","38.94","-77.18","A","PVT"
"22109","VA","Mc Lean","Fairfax","51","59","38.93","-77.18","A","PVT"
"22116","VA","Merrifield","Fairfax","51","59","38.86","-77.26","A","POB"
"22118","VA","Merrifield","Fairfax","51","59","38.84","-77.34","A","PVT"
"22119","VA","Merrifield","Fairfax","51","59","38.87","-77.24","A","PVT"
"22121","VA","Mount Vernon","Fairfax","51","59","38.72","-77.11","A","POB"
"22122","VA","Newington","Fairfax","51","59","38.74","-77.18","A","POB"
"22124","VA","Oakton","Fairfax","51","59","38.89","-77.32","A","GD"
"22125","VA","Occoquan","Prince William","51","153","38.68","-77.26","A","POB"
"22134","VA","Quantico","Prince William","51","153","38.52","-77.36","A","GD"
"22135","VA","Quantico","Stafford","51","179","38.52","-77.29","A","PVT"
"22150","VA","Springfield","Fairfax","51","59","38.78","-77.18","A","GD"
"22151","VA","Springfield","Fairfax","51","59","38.8","-77.21","A","GD"
"22152","VA","Springfield","Fairfax","51","59","38.77","-77.23","A","GD"
"22153","VA","Springfield","Fairfax","51","59","38.74","-77.24","A","GD"
"22156","VA","Springfield","Fairfax","51","59","38.77","-77.19","A","PVT"
"22158","VA","Springfield","Fairfax","51","59","38.81","-77.25","A","PVT"
"22159","VA","Springfield","Fairfax","51","59","38.8","-77.18","A","PVT"
"22160","VA","Springfield","Fairfax","51","59","38.81","-77.22","A","PVT"
"22161","VA","Springfield","Fairfax","51","59","38.79","-77.19","A","PVT"
"22172","VA","Triangle","Prince William","51","153","38.55","-77.34","A","GD"
"22180","VA","Vienna","Fairfax","51","59","38.89","-77.26","A","GD"
"22181","VA","Vienna","Fairfax","51","59","38.9","-77.29","A","GD"
"22182","VA","Vienna","Fairfax","51","59","38.93","-77.26","A","GD"
"22183","VA","Vienna","Fairfax","51","59","38.9","-77.25","A","POB"
"22185","VA","Vienna","Fairfax","51","59","38.87","-77.3","A","PVT"
"22191","VA","Woodbridge","Prince William","51","153","38.63","-77.27","A","GD"
"22192","VA","Woodbridge","Prince William","51","153","38.68","-77.3","A","GD"
"22193","VA","Woodbridge","Prince William","51","153","38.64","-77.34","A","GD"
"22194","VA","Woodbridge","Prince William","51","153","38.64","-77.26","A","POB"
"22195","VA","Woodbridge","Prince William","51","153","38.63","-77.27","A","POB"
"22199","VA","Lorton","Fairfax","51","59","38.7","-77.23","A","POB"
"22201","VA","Arlington","Arlington","51","13","38.89","-77.09","A","GD"
"22202","VA","Arlington","Arlington","51","13","38.86","-77.05","A","GD"
"22203","VA","Arlington","Arlington","51","13","38.87","-77.11","A","GD"
"22204","VA","Arlington","Arlington","51","13","38.86","-77.1","A","GD"
"22205","VA","Arlington","Arlington","51","13","38.88","-77.14","A","GD"
"22206","VA","Arlington","Arlington","51","13","38.84","-77.09","A","GD"
"22207","VA","Arlington","Arlington","51","13","38.9","-77.13","A","GD"
"22209","VA","Arlington","Arlington","51","13","38.89","-77.08","A","GD"
"22210","VA","Arlington","Arlington","51","13","38.89","-77.09","A","POB"
"22211","VA","Fort Myer","Arlington","51","13","38.88","-77.07","A","GD"
"22212","VA","Arlington","Arlington","51","13","38.86","-77.09","A","PVT"
"22213","VA","Arlington","Arlington","51","13","38.89","-77.16","A","GD"
"22214","VA","Arlington","Arlington","51","13","38.87","-77.07","A","GD"
"22215","VA","Arlington","Arlington","51","13","38.86","-77.05","A","POB"
"22216","VA","Arlington","Arlington","51","13","38.89","-77.08","A","POB"
"22217","VA","Arlington","Arlington","51","13","38.85","-77.09","A","PVT"
"22219","VA","Arlington","Arlington","51","13","38.89","-77.07","A","POB"
"22225","VA","Arlington","Arlington","51","13","38.86","-77.06","A","PVT"
"22226","VA","Arlington","Arlington","51","13","38.88","-77.1","A","PVT"
"22227","VA","Arlington","Arlington","51","13","38.86","-77.05","A","PVT"
"22230","VA","Arlington","Arlington","51","13","38.87","-77.12","A","PVT"
"22240","VA","Arlington","Arlington","51","13","38.86","-77.05","A","PVT"
"22241","VA","Arlington","Arlington","51","13","38.86","-77.05","A","PVT"
"22242","VA","Arlington","Arlington","51","13","38.86","-77.05","A","PVT"
"22243","VA","Arlington","Arlington","51","13","38.86","-77.05","A","PVT"
"22244","VA","Arlington","Arlington","51","13","38.85","-77.05","A","PVT"
"22245","VA","Arlington","Arlington","51","13","38.85","-77.05","A","PVT"
"22246","VA","Arlington","Arlington","51","13","38.86","-77.05","A","PVT"
"22301","VA","Alexandria","Alexandria City","51","510","38.82","-77.06","A","GD"
"22302","VA","Alexandria","Alexandria City","51","510","38.83","-77.08","A","GD"
"22303","VA","Alexandria","Fairfax","51","59","38.79","-77.08","A","GD"
"22304","VA","Alexandria","Alexandria City","51","510","38.82","-77.11","A","GD"
"22305","VA","Alexandria","Alexandria City","51","510","38.84","-77.06","A","GD"
"22306","VA","Alexandria","Fairfax","51","59","38.75","-77.08","A","GD"
"22307","VA","Alexandria","Fairfax","51","59","38.77","-77.06","A","GD"
"22308","VA","Alexandria","Fairfax","51","59","38.73","-77.06","A","GD"
"22309","VA","Alexandria","Fairfax","51","59","38.73","-77.11","A","GD"
"22310","VA","Alexandria","Fairfax","51","59","38.79","-77.12","A","GD"
"22311","VA","Alexandria","Alexandria City","51","510","38.84","-77.12","A","GD"
"22312","VA","Alexandria","Fairfax","51","59","38.82","-77.15","A","GD"
"22313","VA","Alexandria","Alexandria City","51","510","38.77","-77.17","A","POB"
"22314","VA","Alexandria","Alexandria City","51","510","38.81","-77.05","A","GD"
"22315","VA","Alexandria","Fairfax","51","59","38.76","-77.15","A","GD"
"22320","VA","Alexandria","Alexandria City","51","510","38.81","-77.06","A","POB"
"22331","VA","Alexandria","Alexandria City","51","510","38.8","-77.06","A","GD"
"22332","VA","Alexandria","Alexandria City","51","510","38.8","-77.06","A","GD"
"22333","VA","Alexandria","Alexandria City","51","510","38.81","-77.11","A","PVT"
"22334","VA","Alexandria","Alexandria City","51","510","38.81","-77.06","A","PVT"
"22350","VA","Alexandria","Alexandria City","51","510","38.8","-77.05","A","PVT"
"22401","VA","Fredericksburg","Fredericksburg City","51","630","38.3","-77.48","A","GD"
"22402","VA","Fredericksburg","Fredericksburg City","51","630","38.26","-77.57","A","POB"
"22403","VA","Fredericksburg","Stafford","51","179","38.35","-77.48","A","POB"
"22404","VA","Fredericksburg","Fredericksburg City","51","630","38.3","-77.46","A","POB"
"22405","VA","Fredericksburg","Stafford","51","179","38.31","-77.43","A","GD"
"22406","VA","Fredericksburg","Stafford","51","179","38.38","-77.54","A","GD"
"22407","VA","Fredericksburg","Spotsylvania","51","177","38.27","-77.56","A","GD"
"22408","VA","Fredericksburg","Spotsylvania","51","177","38.24","-77.46","A","GD"
"22412","VA","Fredericksburg","Stafford","51","179","38.3","-77.49","A","PVT"
"22427","VA","Bowling Green","Caroline","51","33","38.09","-77.29","A","GD"
"22428","VA","Bowling Green","Caroline","51","33","38.05","-77.35","A","PVT"
"22430","VA","Brooke","Stafford","51","179","38.38","-77.36","A","POB"
"22432","VA","Burgess","Northumberland","51","133","37.86","-76.36","A","GD"
"22433","VA","Burr Hill","Orange","51","137","38.36","-77.85","A","GD"
"22435","VA","Callao","Northumberland","51","133","37.98","-76.57","A","GD"
"22436","VA","Caret","Essex","51","57","38.07","-77.09","A","GD"
"22437","VA","Center Cross","Essex","51","57","37.79","-76.78","A","GD"
"22438","VA","Champlain","Essex","51","57","38.04","-77","A","GD"
"22442","VA","Coles Point","Westmoreland","51","193","38.14","-76.64","A","POB"
"22443","VA","Colonial Beach","Westmoreland","51","193","38.22","-76.98","A","GD"
"22446","VA","Corbin","Caroline","51","33","38.2","-77.39","A","POB"
"22448","VA","Dahlgren","King George","51","99","38.33","-77.03","A","GD"
"22451","VA","Dogue","King George","51","99","38.23","-77.22","A","POB"
"22454","VA","Dunnsville","Essex","51","57","37.85","-76.82","A","GD"
"22456","VA","Edwardsville","Northumberland","51","133","37.91","-76.37","A","POB"
"22460","VA","Farnham","Richmond","51","159","37.88","-76.62","A","GD"
"22463","VA","Garrisonville","Stafford","51","179","38.48","-77.49","A","POB"
"22469","VA","Hague","Westmoreland","51","193","38.1","-76.64","A","GD"
"22471","VA","Hartwood","Stafford","51","179","38.4","-77.58","A","POB"
"22472","VA","Haynesville","Richmond","51","159","37.95","-76.66","A","POB"
"22473","VA","Heathsville","Northumberland","51","133","37.9","-76.39","A","GD"
"22476","VA","Hustle","Essex","51","57","38.04","-77.08","A","GD"
"22480","VA","Irvington","Lancaster","51","103","37.66","-76.42","A","GD"
"22481","VA","Jersey","King George","51","99","38.21","-77.14","A","POB"
"22482","VA","Kilmarnock","Lancaster","51","103","37.73","-76.35","A","GD"
"22485","VA","King George","King George","51","99","38.29","-77.17","A","GD"
"22488","VA","Kinsale","Westmoreland","51","193","38.05","-76.58","A","GD"
"22501","VA","Ladysmith","Caroline","51","33","38.02","-77.52","A","POB"
"22503","VA","Lancaster","Lancaster","51","103","37.74","-76.51","A","GD"
"22504","VA","Laneview","Essex","51","57","37.77","-76.72","A","GD"
"22507","VA","Lively","Lancaster","51","103","37.78","-76.51","A","POB"
"22508","VA","Locust Grove","Orange","51","137","38.32","-77.78","A","GD"
"22509","VA","Loretto","Essex","51","57","38.11","-77.07","A","GD"
"22511","VA","Lottsburg","Northumberland","51","133","37.99","-76.5","A","GD"
"22513","VA","Merry Point","Lancaster","51","103","37.73","-76.48","A","POB"
"22514","VA","Milford","Caroline","51","33","37.99","-77.29","A","GD"
"22517","VA","Mollusk","Lancaster","51","103","37.73","-76.54","A","POB"
"22520","VA","Montross","Westmoreland","51","193","38.12","-76.78","A","GD"
"22523","VA","Morattico","Lancaster","51","103","37.79","-76.63","A","POB"
"22524","VA","Mount Holly","Westmoreland","51","193","38.13","-76.66","A","POB"
"22526","VA","Ninde","King George","51","99","38.27","-77.06","A","POB"
"22528","VA","Nuttsville","Lancaster","51","103","37.79","-76.55","A","POB"
"22529","VA","Oldhams","Westmoreland","51","193","38.01","-76.69","A","POB"
"22530","VA","Ophelia","Northumberland","51","133","37.9","-76.29","A","POB"
"22534","VA","Partlow","Spotsylvania","51","177","38.07","-77.67","A","GD"
"22535","VA","Port Royal","Caroline","51","33","38.15","-77.16","A","GD"
"22538","VA","Rappahannock Academy","Caroline","51","33","38.22","-77.27","A","GD"
"22539","VA","Reedville","Northumberland","51","133","37.85","-76.28","A","GD"
"22542","VA","Rhoadesville","Orange","51","137","38.31","-77.88","A","GD"
"22544","VA","Rollins Fork","King George","51","99","38.18","-77.06","A","POB"
"22545","VA","Ruby","Stafford","51","179","38.5","-77.52","A","POB"
"22546","VA","Ruther Glen","Caroline","51","33","37.96","-77.47","A","GD"
"22547","VA","Sealston","King George","51","99","38.25","-77.31","A","POB"
"22548","VA","Sharps","Richmond","51","159","37.82","-76.7","A","POB"
"22551","VA","Spotsylvania","Spotsylvania","51","177","38.16","-77.67","A","GD"
"22552","VA","Sparta","Caroline","51","33","37.99","-77.22","A","POB"
"22553","VA","Spotsylvania","Spotsylvania","51","177","38.27","-77.64","A","GD"
"22554","VA","Stafford","Stafford","51","179","38.45","-77.39","A","GD"
"22555","VA","Stafford","Stafford","51","179","38.42","-77.41","A","POB"
"22556","VA","Stafford","Stafford","51","179","38.48","-77.48","A","GD"
"22558","VA","Stratford","Westmoreland","51","193","38.15","-76.84","A","POB"
"22560","VA","Tappahannock","Essex","51","57","37.92","-76.92","A","GD"
"22565","VA","Thornburg","Spotsylvania","51","177","38.13","-77.52","A","POB"
"22567","VA","Unionville","Orange","51","137","38.24","-77.91","A","GD"
"22570","VA","Village","Richmond","51","159","37.95","-76.6","A","POB"
"22572","VA","Warsaw","Richmond","51","159","37.97","-76.77","A","GD"
"22576","VA","Weems","Lancaster","51","103","37.69","-76.44","A","GD"
"22577","VA","Sandy Point","Westmoreland","51","193","38.06","-76.56","A","POB"
"22578","VA","White Stone","Lancaster","51","103","37.65","-76.36","A","GD"
"22579","VA","Wicomico Church","Northumberland","51","133","37.8","-76.32","A","POB"
"22580","VA","Woodford","Caroline","51","33","38.1","-77.45","A","GD"
"22581","VA","Zacata","Westmoreland","51","193","38.12","-76.78","A","POB"
"22601","VA","Winchester","Winchester City","51","840","39.18","-78.17","A","GD"
"22602","VA","Winchester","Frederick","51","69","39.15","-78.23","A","GD"
"22603","VA","Winchester","Frederick","51","69","39.25","-78.19","A","GD"
"22604","VA","Winchester","Winchester City","51","840","39.19","-78.15","A","POB"
"22610","VA","Bentonville","Warren","51","187","38.83","-78.29","A","GD"
"22611","VA","Berryville","Clarke","51","43","39.16","-77.98","A","GD"
"22620","VA","Boyce","Clarke","51","43","39.07","-78.04","A","GD"
"22622","VA","Brucetown","Frederick","51","69","39.25","-78.07","A","POB"
"22623","VA","Chester Gap","Rappahannock","51","157","38.85","-78.14","A","POB"
"22624","VA","Clear Brook","Frederick","51","69","39.27","-78.09","A","GD"
"22625","VA","Cross Junction","Frederick","51","69","39.36","-78.31","A","GD"
"22626","VA","Fishers Hill","Shenandoah","51","171","38.98","-78.4","A","POB"
"22627","VA","Flint Hill","Rappahannock","51","157","38.76","-78.09","A","GD"
"22630","VA","Front Royal","Warren","51","187","38.94","-78.18","A","GD"
"22637","VA","Gore","Frederick","51","69","39.26","-78.35","A","GD"
"22639","VA","Hume","Fauquier","51","61","38.81","-78.03","A","GD"
"22640","VA","Huntly","Rappahannock","51","157","38.81","-78.11","A","GD"
"22641","VA","Strasburg","Shenandoah","51","171","39.07","-78.39","A","GD"
"22642","VA","Linden","Warren","51","187","38.92","-78.07","A","GD"
"22643","VA","Markham","Fauquier","51","61","38.9","-77.99","A","GD"
"22644","VA","Maurertown","Shenandoah","51","171","38.94","-78.48","A","GD"
"22645","VA","Middletown","Frederick","51","69","39.02","-78.28","A","GD"
"22646","VA","Millwood","Clarke","51","43","39.08","-78.04","A","POB"
"22649","VA","Middletown","Warren","51","187","39","-78.26","A","GD"
"22650","VA","Rileyville","Page","51","139","38.77","-78.38","A","GD"
"22652","VA","Fort Valley","Shenandoah","51","171","38.84","-78.42","A","GD"
"22654","VA","Star Tannery","Frederick","51","69","39.07","-78.46","A","GD"
"22655","VA","Stephens City","Frederick","51","69","39.08","-78.21","A","GD"
"22656","VA","Stephenson","Frederick","51","69","39.23","-78.09","A","GD"
"22657","VA","Strasburg","Shenandoah","51","171","39","-78.35","A","GD"
"22660","VA","Toms Brook","Shenandoah","51","171","38.94","-78.43","A","GD"
"22663","VA","White Post","Clarke","51","43","39.05","-78.12","A","GD"
"22664","VA","Woodstock","Shenandoah","51","171","38.88","-78.51","A","GD"
"22701","VA","Culpeper","Culpeper","51","47","38.46","-78","A","GD"
"22709","VA","Aroda","Madison","51","113","38.33","-78.21","A","GD"
"22711","VA","Banco","Madison","51","113","38.46","-78.26","A","GD"
"22712","VA","Bealeton","Fauquier","51","61","38.56","-77.76","A","GD"
"22713","VA","Boston","Culpeper","51","47","38.55","-78.14","A","GD"
"22714","VA","Brandy Station","Culpeper","51","47","38.51","-77.9","A","GD"
"22715","VA","Brightwood","Madison","51","113","38.41","-78.19","A","GD"
"22716","VA","Castleton","Rappahannock","51","157","38.64","-78.11","A","GD"
"22718","VA","Elkwood","Culpeper","51","47","38.48","-77.83","A","GD"
"22719","VA","Etlan","Madison","51","113","38.53","-78.28","A","GD"
"22720","VA","Goldvein","Fauquier","51","61","38.47","-77.64","A","GD"
"22722","VA","Haywood","Madison","51","113","38.47","-78.23","A","GD"
"22723","VA","Hood","Madison","51","113","38.33","-78.38","A","GD"
"22724","VA","Jeffersonton","Culpeper","51","47","38.62","-77.9","A","GD"
"22725","VA","Leon","Madison","51","113","38.45","-78.16","A","GD"
"22726","VA","Lignum","Culpeper","51","47","38.4","-77.81","A","GD"
"22727","VA","Madison","Madison","51","113","38.39","-78.28","A","GD"
"22728","VA","Midland","Fauquier","51","61","38.59","-77.7","A","GD"
"22729","VA","Mitchells","Culpeper","51","47","38.36","-78.02","A","GD"
"22730","VA","Oakpark","Madison","51","113","38.37","-78.17","A","GD"
"22731","VA","Pratts","Madison","51","113","38.34","-78.26","A","GD"
"22732","VA","Radiant","Madison","51","113","38.32","-78.2","A","GD"
"22733","VA","Rapidan","Culpeper","51","47","38.33","-78.06","A","GD"
"22734","VA","Remington","Fauquier","51","61","38.53","-77.81","A","GD"
"22735","VA","Reva","Madison","51","113","38.47","-78.16","A","GD"
"22736","VA","Richardsville","Culpeper","51","47","38.39","-77.7","A","GD"
"22737","VA","Rixeyville","Culpeper","51","47","38.59","-78","A","GD"
"22738","VA","Rochelle","Madison","51","113","38.29","-78.3","A","GD"
"22739","VA","Somerville","Fauquier","51","61","38.52","-77.61","A","POB"
"22740","VA","Sperryville","Rappahannock","51","157","38.63","-78.24","A","GD"
"22741","VA","Stevensburg","Culpeper","51","47","38.45","-77.89","A","GD"
"22742","VA","Sumerduck","Fauquier","51","61","38.46","-77.71","A","GD"
"22743","VA","Syria","Madison","51","113","38.51","-78.36","A","GD"
"22746","VA","Viewtown","Culpeper","51","47","38.64","-78.02","A","GD"
"22747","VA","Washington","Rappahannock","51","157","38.71","-78.16","A","GD"
"22748","VA","Wolftown","Madison","51","113","38.36","-78.35","A","POB"
"22749","VA","Woodville","Rappahannock","51","157","38.63","-78.17","A","GD"
"22801","VA","Harrisonburg","Harrisonburg City","51","660","38.42","-78.87","A","GD"
"22802","VA","Harrisonburg","Harrisonburg City","51","660","38.49","-78.85","A","GD"
"22803","VA","Harrisonburg","Harrisonburg City","51","660","38.45","-78.87","A","POB"
"22807","VA","Harrisonburg","Harrisonburg City","51","660","38.43","-78.87","A","PVT"
"22810","VA","Basye","Shenandoah","51","171","38.81","-78.78","A","GD"
"22811","VA","Bergton","Rockingham","51","165","38.79","-78.97","A","GD"
"22812","VA","Bridgewater","Rockingham","51","165","38.39","-79","A","GD"
"22815","VA","Broadway","Rockingham","51","165","38.61","-78.8","A","GD"
"22820","VA","Criders","Rockingham","51","165","38.75","-79.01","A","GD"
"22821","VA","Dayton","Rockingham","51","165","38.43","-79","A","GD"
"22824","VA","Edinburg","Shenandoah","51","171","38.83","-78.61","A","GD"
"22827","VA","Elkton","Rockingham","51","165","38.4","-78.63","A","GD"
"22830","VA","Fulks Run","Rockingham","51","165","38.65","-78.96","A","GD"
"22831","VA","Hinton","Rockingham","51","165","38.55","-79.07","A","GD"
"22832","VA","Keezletown","Rockingham","51","165","38.44","-78.77","A","GD"
"22833","VA","Lacey Spring","Rockingham","51","165","38.55","-78.74","A","POB"
"22834","VA","Linville","Rockingham","51","165","38.56","-78.86","A","GD"
"22835","VA","Luray","Page","51","139","38.66","-78.45","A","GD"
"22840","VA","Mc Gaheysville","Rockingham","51","165","38.38","-78.74","A","GD"
"22841","VA","Mount Crawford","Rockingham","51","165","38.35","-78.91","A","GD"
"22842","VA","Mount Jackson","Shenandoah","51","171","38.78","-78.68","A","GD"
"22843","VA","Mount Solon","Augusta","51","15","38.35","-79.15","A","GD"
"22844","VA","New Market","Shenandoah","51","171","38.65","-78.67","A","GD"
"22845","VA","Orkney Springs","Shenandoah","51","171","38.79","-78.82","A","GD"
"22846","VA","Penn Laird","Rockingham","51","165","38.38","-78.79","A","GD"
"22847","VA","Quicksburg","Shenandoah","51","171","38.71","-78.69","A","GD"
"22848","VA","Pleasant Valley","Rockingham","51","165","38.38","-78.89","A","POB"
"22849","VA","Shenandoah","Page","51","139","38.51","-78.61","A","GD"
"22850","VA","Singers Glen","Rockingham","51","165","38.55","-78.93","A","GD"
"22851","VA","Stanley","Page","51","139","38.57","-78.51","A","GD"
"22853","VA","Timberville","Rockingham","51","165","38.65","-78.77","A","GD"
"22901","VA","Charlottesville","Albemarle","51","3","38.08","-78.52","A","GD"
"22902","VA","Charlottesville","Charlottesville City","51","540","38","-78.47","A","GD"
"22903","VA","Charlottesville","Charlottesville City","51","540","38.02","-78.55","A","GD"
"22904","VA","Charlottesville","Charlottesville City","51","540","38.03","-78.52","A","GD"
"22905","VA","Charlottesville","Charlottesville City","51","540","38.02","-78.49","A","POB"
"22906","VA","Charlottesville","Charlottesville City","51","540","38.03","-78.48","A","POB"
"22907","VA","Charlottesville","Charlottesville City","51","540","37.95","-78.49","A","PVT"
"22908","VA","Charlottesville","Charlottesville City","51","540","38.03","-78.52","A","PVT"
"22909","VA","Charlottesville","Albemarle","51","3","38.04","-78.47","A","PVT"
"22910","VA","Charlottesville","Charlottesville City","51","540","38.02","-78.6","A","PVT"
"22911","VA","Charlottesville","Albemarle","51","3","38.09","-78.42","A","GD"
"22920","VA","Afton","Nelson","51","125","37.99","-78.81","A","GD"
"22922","VA","Arrington","Nelson","51","125","37.69","-78.93","A","GD"
"22923","VA","Barboursville","Orange","51","137","38.19","-78.32","A","GD"
"22924","VA","Batesville","Albemarle","51","3","38","-78.72","A","POB"
"22931","VA","Covesville","Albemarle","51","3","37.89","-78.7","A","GD"
"22932","VA","Crozet","Albemarle","51","3","38.11","-78.7","A","GD"
"22935","VA","Dyke","Greene","51","79","38.27","-78.56","A","GD"
"22936","VA","Earlysville","Albemarle","51","3","38.14","-78.48","A","GD"
"22937","VA","Esmont","Albemarle","51","3","37.8","-78.62","A","GD"
"22938","VA","Faber","Nelson","51","125","37.86","-78.78","A","GD"
"22939","VA","Fishersville","Augusta","51","15","38.11","-78.98","A","GD"
"22940","VA","Free Union","Albemarle","51","3","38.2","-78.59","A","GD"
"22942","VA","Gordonsville","Orange","51","137","38.12","-78.19","A","GD"
"22943","VA","Greenwood","Albemarle","51","3","38.04","-78.77","A","GD"
"22945","VA","Ivy","Albemarle","51","3","38.06","-78.6","A","POB"
"22946","VA","Keene","Albemarle","51","3","37.85","-78.56","A","GD"
"22947","VA","Keswick","Albemarle","51","3","38.03","-78.33","A","GD"
"22948","VA","Locust Dale","Madison","51","113","38.35","-78.12","A","GD"
"22949","VA","Lovingston","Nelson","51","125","37.78","-78.87","A","GD"
"22952","VA","Lyndhurst","Augusta","51","15","37.99","-78.94","A","GD"
"22957","VA","Montpelier Station","Orange","51","137","38.2","-78.12","A","POB"
"22958","VA","Nellysford","Nelson","51","125","37.9","-78.9","A","GD"
"22959","VA","North Garden","Albemarle","51","3","37.94","-78.64","A","GD"
"22960","VA","Orange","Orange","51","137","38.22","-78.08","A","GD"
"22963","VA","Palmyra","Fluvanna","51","65","37.87","-78.31","A","GD"
"22964","VA","Piney River","Nelson","51","125","37.72","-79.01","A","GD"
"22965","VA","Quinque","Greene","51","79","38.28","-78.43","A","POB"
"22967","VA","Roseland","Nelson","51","125","37.79","-79","A","GD"
"22968","VA","Ruckersville","Greene","51","79","38.24","-78.39","A","GD"
"22969","VA","Schuyler","Nelson","51","125","37.78","-78.7","A","GD"
"22971","VA","Shipman","Nelson","51","125","37.74","-78.8","A","GD"
"22972","VA","Somerset","Orange","51","137","38.21","-78.22","A","GD"
"22973","VA","Stanardsville","Greene","51","79","38.32","-78.46","A","GD"
"22974","VA","Troy","Fluvanna","51","65","37.98","-78.28","A","GD"
"22976","VA","Tyro","Nelson","51","125","37.84","-79.05","A","GD"
"22980","VA","Waynesboro","Waynesboro City","51","820","38.08","-78.9","A","GD"
"22987","VA","White Hall","Albemarle","51","3","38.12","-78.66","A","POB"
"22989","VA","Woodberry Forest","Madison","51","113","38.29","-78.12","A","POB"
"23001","VA","Achilles","Gloucester","51","73","37.28","-76.44","A","POB"
"23002","VA","Amelia Court House","Amelia","51","7","37.35","-77.95","A","GD"
"23003","VA","Ark","Gloucester","51","73","37.44","-76.58","A","POB"
"23004","VA","Arvonia","Buckingham","51","29","37.68","-78.39","A","GD"
"23005","VA","Ashland","Hanover","51","85","37.76","-77.48","A","GD"
"23009","VA","Aylett","King William","51","101","37.81","-77.17","A","GD"
"23011","VA","Barhamsville","New Kent","51","127","37.48","-76.81","A","GD"
"23014","VA","Beaumont","Goochland","51","75","37.68","-77.9","A","GD"
"23015","VA","Beaverdam","Hanover","51","85","37.93","-77.63","A","GD"
"23018","VA","Bena","Gloucester","51","73","37.27","-76.46","A","POB"
"23021","VA","Bohannon","Mathews","51","115","37.39","-76.36","A","GD"
"23022","VA","Bremo Bluff","Fluvanna","51","65","37.72","-78.27","A","GD"
"23023","VA","Bruington","King And Queen","51","97","37.77","-76.96","A","GD"
"23024","VA","Bumpass","Louisa","51","109","37.96","-77.77","A","GD"
"23025","VA","Cardinal","Mathews","51","115","37.41","-76.36","A","GD"
"23027","VA","Cartersville","Cumberland","51","49","37.66","-78.13","A","GD"
"23030","VA","Charles City","Charles City","51","36","37.35","-77.08","A","GD"
"23031","VA","Christchurch","Middlesex","51","119","37.6","-76.45","A","POB"
"23032","VA","Church View","Middlesex","51","119","37.66","-76.68","A","GD"
"23035","VA","Cobbs Creek","Mathews","51","115","37.51","-76.37","A","GD"
"23038","VA","Columbia","Fluvanna","51","65","37.75","-78.15","A","GD"
"23039","VA","Crozier","Goochland","51","75","37.64","-77.81","A","GD"
"23040","VA","Cumberland","Cumberland","51","49","37.5","-78.26","A","GD"
"23043","VA","Deltaville","Middlesex","51","119","37.55","-76.34","A","GD"
"23045","VA","Diggs","Mathews","51","115","37.44","-76.26","A","GD"
"23047","VA","Doswell","Hanover","51","85","37.84","-77.47","A","GD"
"23050","VA","Dutton","Gloucester","51","73","37.5","-76.43","A","GD"
"23055","VA","Fork Union","Fluvanna","51","65","37.77","-78.21","A","GD"
"23056","VA","Foster","Mathews","51","115","37.42","-76.36","A","GD"
"23058","VA","Glen Allen","Henrico","51","87","37.66","-77.48","A","POB"
"23059","VA","Glen Allen","Henrico","51","87","37.69","-77.55","A","GD"
"23060","VA","Glen Allen","Henrico","51","87","37.66","-77.53","A","GD"
"23061","VA","Gloucester","Gloucester","51","73","37.43","-76.53","A","GD"
"23062","VA","Gloucester Point","Gloucester","51","73","37.26","-76.5","A","GD"
"23063","VA","Goochland","Goochland","51","75","37.72","-77.99","A","GD"
"23064","VA","Grimstead","Mathews","51","115","37.49","-76.31","A","POB"
"23065","VA","Gum Spring","Goochland","51","75","37.8","-77.92","A","GD"
"23066","VA","Gwynn","Mathews","51","115","37.5","-76.29","A","POB"
"23067","VA","Hadensville","Goochland","51","75","37.82","-78.01","A","POB"
"23068","VA","Hallieford","Mathews","51","115","37.5","-76.34","A","GD"
"23069","VA","Hanover","Hanover","51","85","37.77","-77.34","A","GD"
"23070","VA","Hardyville","Middlesex","51","119","37.55","-76.39","A","GD"
"23071","VA","Hartfield","Middlesex","51","119","37.54","-76.45","A","GD"
"23072","VA","Hayes","Gloucester","51","73","37.29","-76.47","A","GD"
"23075","VA","Henrico","Henrico","51","87","37.54","-77.32","A","GD"
"23076","VA","Hudgins","Mathews","51","115","37.48","-76.31","A","GD"
"23079","VA","Jamaica","Middlesex","51","119","37.72","-76.69","A","GD"
"23081","VA","Jamestown","James City","51","95","37.22","-76.78","A","POB"
"23083","VA","Jetersville","Amelia","51","7","37.3","-78.11","A","GD"
"23084","VA","Kents Store","Fluvanna","51","65","37.88","-78.1","A","GD"
"23085","VA","King And Queen Court House","King And Queen","51","97","37.68","-76.88","A","GD"
"23086","VA","King William","King William","51","101","37.67","-77.05","A","GD"
"23089","VA","Lanexa","New Kent","51","127","37.44","-76.9","A","GD"
"23090","VA","Lightfoot","York","51","199","37.33","-76.74","A","POB"
"23091","VA","Little Plymouth","King And Queen","51","97","37.63","-76.83","A","GD"
"23092","VA","Locust Hill","Middlesex","51","119","37.6","-76.51","A","GD"
"23093","VA","Louisa","Louisa","51","109","38","-78.04","A","GD"
"23102","VA","Maidens","Goochland","51","75","37.72","-77.82","A","GD"
"23103","VA","Manakin Sabot","Goochland","51","75","37.64","-77.73","A","GD"
"23105","VA","Mannboro","Amelia","51","7","37.25","-77.85","A","POB"
"23106","VA","Manquin","King William","51","101","37.71","-77.2","A","GD"
"23107","VA","Maryus","Gloucester","51","73","37.28","-76.4","A","POB"
"23108","VA","Mascot","King And Queen","51","97","37.66","-76.72","A","GD"
"23109","VA","Mathews","Mathews","51","115","37.43","-76.33","A","GD"
"23110","VA","Mattaponi","King And Queen","51","97","37.57","-76.78","A","GD"
"23111","VA","Mechanicsville","Hanover","51","85","37.61","-77.3","A","GD"
"23112","VA","Midlothian","Chesterfield","51","41","37.43","-77.65","A","GD"
"23113","VA","Midlothian","Chesterfield","51","41","37.53","-77.65","A","GD"
"23114","VA","Midlothian","Chesterfield","51","41","37.48","-77.65","A","GD"
"23115","VA","Millers Tavern","Essex","51","57","37.8","-76.92","A","POB"
"23116","VA","Mechanicsville","Hanover","51","85","37.66","-77.37","A","GD"
"23117","VA","Mineral","Louisa","51","109","38.02","-77.87","A","GD"
"23119","VA","Moon","Mathews","51","115","37.45","-76.28","A","GD"
"23120","VA","Moseley","Chesterfield","51","41","37.4","-77.78","A","GD"
"23123","VA","New Canton","Buckingham","51","29","37.67","-78.29","A","GD"
"23124","VA","New Kent","New Kent","51","127","37.55","-77.06","A","GD"
"23125","VA","New Point","Mathews","51","115","37.34","-76.28","A","GD"
"23126","VA","Newtown","King And Queen","51","97","37.9","-77.15","A","GD"
"23127","VA","Norge","James City","51","95","37.36","-76.77","A","POB"
"23128","VA","North","Mathews","51","115","37.45","-76.43","A","GD"
"23129","VA","Oilville","Goochland","51","75","37.7","-77.78","A","GD"
"23130","VA","Onemo","Mathews","51","115","37.39","-76.28","A","GD"
"23131","VA","Ordinary","Gloucester","51","73","37.32","-76.51","A","POB"
"23138","VA","Port Haywood","Mathews","51","115","37.37","-76.31","A","GD"
"23139","VA","Powhatan","Powhatan","51","145","37.55","-77.91","A","GD"
"23140","VA","Providence Forge","New Kent","51","127","37.44","-77.04","A","GD"
"23141","VA","Quinton","New Kent","51","127","37.52","-77.16","A","GD"
"23146","VA","Rockville","Hanover","51","85","37.73","-77.7","A","GD"
"23147","VA","Ruthville","Charles City","51","36","37.37","-77.04","A","POB"
"23148","VA","Saint Stephens Church","King And Queen","51","97","37.84","-77.06","A","GD"
"23149","VA","Saluda","Middlesex","51","119","37.58","-76.6","A","GD"
"23150","VA","Sandston","Henrico","51","87","37.52","-77.28","A","GD"
"23153","VA","Sandy Hook","Goochland","51","75","37.78","-77.95","A","GD"
"23154","VA","Schley","Gloucester","51","73","37.39","-76.46","A","POB"
"23155","VA","Severn","Gloucester","51","73","37.45","-76.66","A","POB"
"23156","VA","Shacklefords","King And Queen","51","97","37.51","-76.71","A","GD"
"23160","VA","State Farm","Goochland","51","75","37.63","-77.85","A","GD"
"23161","VA","Stevensville","King And Queen","51","97","37.72","-76.94","A","GD"
"23162","VA","Studley","Hanover","51","85","37.68","-77.29","A","POB"
"23163","VA","Susan","Mathews","51","115","37.35","-76.31","A","GD"
"23168","VA","Toano","James City","51","95","37.4","-76.82","A","GD"
"23169","VA","Topping","Middlesex","51","119","37.59","-76.45","A","GD"
"23170","VA","Trevilians","Louisa","51","109","38.05","-78.07","A","POB"
"23173","VA","Richmond","Richmond City","51","760","37.58","-77.54","A","PVT"
"23175","VA","Urbanna","Middlesex","51","119","37.65","-76.6","A","GD"
"23176","VA","Wake","Middlesex","51","119","37.57","-76.41","A","GD"
"23177","VA","Walkerton","King And Queen","51","97","37.73","-77.02","A","GD"
"23178","VA","Ware Neck","Gloucester","51","73","37.4","-76.46","A","POB"
"23180","VA","Water View","Middlesex","51","119","37.69","-76.61","A","GD"
"23181","VA","West Point","King William","51","101","37.57","-76.84","A","GD"
"23183","VA","White Marsh","Gloucester","51","73","37.34","-76.52","A","POB"
"23184","VA","Wicomico","Gloucester","51","73","37.29","-76.51","A","POB"
"23185","VA","Williamsburg","James City","51","95","37.25","-76.69","A","GD"
"23186","VA","Williamsburg","Williamsburg City","51","830","37.27","-76.68","A","PVT"
"23187","VA","Williamsburg","Williamsburg City","51","830","37.27","-76.72","A","POB"
"23188","VA","Williamsburg","James City","51","95","37.32","-76.74","A","GD"
"23190","VA","Woods Cross Roads","Gloucester","51","73","37.48","-76.62","A","POB"
"23192","VA","Montpelier","Hanover","51","85","37.81","-77.68","A","GD"
"23218","VA","Richmond","Richmond City","51","760","37.54","-77.44","A","POB"
"23219","VA","Richmond","Richmond City","51","760","37.54","-77.43","A","GD"
"23220","VA","Richmond","Richmond City","51","760","37.55","-77.46","A","GD"
"23221","VA","Richmond","Richmond City","51","760","37.56","-77.49","A","GD"
"23222","VA","Richmond","Richmond City","51","760","37.58","-77.42","A","GD"
"23223","VA","Richmond","Richmond City","51","760","37.55","-77.4","A","GD"
"23224","VA","Richmond","Richmond City","51","760","37.5","-77.46","A","GD"
"23225","VA","Richmond","Richmond City","51","760","37.52","-77.5","A","GD"
"23226","VA","Richmond","Henrico","51","87","37.58","-77.52","A","GD"
"23227","VA","Richmond","Henrico","51","87","37.6","-77.45","A","GD"
"23228","VA","Henrico","Henrico","51","87","37.62","-77.49","A","GD"
"23229","VA","Henrico","Henrico","51","87","37.59","-77.57","A","GD"
"23230","VA","Richmond","Henrico","51","87","37.58","-77.49","A","GD"
"23231","VA","Henrico","Henrico","51","87","37.48","-77.36","A","GD"
"23232","VA","Richmond","Richmond City","51","760","37.56","-77.45","A","GD"
"23233","VA","Henrico","Henrico","51","87","37.64","-77.62","A","GD"
"23234","VA","Richmond","Chesterfield","51","41","37.45","-77.47","A","GD"
"23235","VA","Richmond","Chesterfield","51","41","37.52","-77.57","A","GD"
"23236","VA","Richmond","Chesterfield","51","41","37.47","-77.59","A","GD"
"23237","VA","Richmond","Chesterfield","51","41","37.41","-77.45","A","GD"
"23238","VA","Henrico","Henrico","51","87","37.61","-77.62","A","GD"
"23241","VA","Richmond","Richmond City","51","760","37.58","-77.42","A","POB"
"23242","VA","Henrico","Henrico","51","87","37.62","-77.62","A","POB"
"23249","VA","Richmond","Richmond City","51","760","37.5","-77.47","A","PVT"
"23250","VA","Richmond","Henrico","51","87","37.5","-77.32","A","GD"
"23255","VA","Henrico","Henrico","51","87","37.59","-77.57","A","POB"
"23260","VA","Richmond","Richmond City","51","760","37.55","-77.46","A","POB"
"23261","VA","Richmond","Richmond City","51","760","37.55","-77.46","A","POB"
"23269","VA","Richmond","Richmond City","51","760","37.56","-77.46","A","PVT"
"23273","VA","Henrico","Richmond City","51","760","37.58","-77.49","A","PVT"
"23274","VA","Richmond","Richmond City","51","760","37.54","-77.44","A","PVT"
"23276","VA","Richmond","Richmond City","51","760","37.56","-77.45","A","PVT"
"23278","VA","Richmond","Richmond City","51","760","37.56","-77.45","A","PVT"
"23279","VA","Richmond","Richmond City","51","760","37.59","-77.49","A","PVT"
"23282","VA","Richmond","Richmond City","51","760","37.56","-77.46","A","PVT"
"23284","VA","Richmond","Richmond City","51","760","37.55","-77.46","A","POB"
"23285","VA","Richmond","Richmond City","51","760","37.54","-77.44","A","POB"
"23286","VA","Richmond","Richmond City","51","760","37.56","-77.45","A","PVT"
"23288","VA","Henrico","Henrico","51","87","37.6","-77.55","A","PVT"
"23289","VA","Richmond","Richmond City","51","760","37.62","-77.53","A","PVT"
"23290","VA","Richmond","Richmond City","51","760","37.55","-77.47","A","PVT"
"23291","VA","Richmond","Richmond City","51","760","37.54","-77.44","A","PVT"
"23292","VA","Richmond","Richmond City","51","760","37.54","-77.44","A","PVT"
"23293","VA","Richmond","Richmond City","51","760","37.44","-77.32","A","PVT"
"23294","VA","Henrico","Henrico","51","87","37.63","-77.54","A","GD"
"23295","VA","Richmond","Richmond City","51","760","37.55","-77.46","A","PVT"
"23297","VA","Richmond","Chesterfield","51","41","37.4","-77.46","A","PVT"
"23298","VA","Richmond","Richmond City","51","760","37.54","-77.43","A","GD"
"23301","VA","Accomac","Accomack","51","1","37.7","-75.65","A","GD"
"23302","VA","Assawoman","Accomack","51","1","37.87","-75.52","A","GD"
"23303","VA","Atlantic","Accomack","51","1","37.9","-75.51","A","GD"
"23304","VA","Battery Park","Isle Of Wight","51","93","37","-76.57","A","POB"
"23306","VA","Belle Haven","Accomack","51","1","37.56","-75.86","A","GD"
"23307","VA","Birdsnest","Northampton","51","131","37.44","-75.87","A","GD"
"23308","VA","Bloxom","Accomack","51","1","37.83","-75.61","A","GD"
"23310","VA","Cape Charles","Northampton","51","131","37.27","-75.97","A","GD"
"23313","VA","Capeville","Northampton","51","131","37.2","-75.94","A","POB"
"23314","VA","Carrollton","Isle Of Wight","51","93","36.95","-76.54","A","GD"
"23315","VA","Carrsville","Isle Of Wight","51","93","36.74","-76.84","A","GD"
"23316","VA","Cheriton","Northampton","51","131","37.29","-75.97","A","POB"
"23320","VA","Chesapeake","Chesapeake City","51","550","36.76","-76.24","A","GD"
"23321","VA","Chesapeake","Chesapeake City","51","550","36.82","-76.41","A","GD"
"23322","VA","Chesapeake","Chesapeake City","51","550","36.68","-76.23","A","GD"
"23323","VA","Chesapeake","Chesapeake City","51","550","36.75","-76.34","A","GD"
"23324","VA","Chesapeake","Chesapeake City","51","550","36.8","-76.27","A","GD"
"23325","VA","Chesapeake","Chesapeake City","51","550","36.81","-76.24","A","GD"
"23326","VA","Chesapeake","Chesapeake City","51","550","36.77","-76.25","A","PVT"
"23327","VA","Chesapeake","Chesapeake City","51","550","36.74","-76.23","A","POB"
"23328","VA","Chesapeake","Chesapeake City","51","550","36.73","-76.23","A","POB"
"23336","VA","Chincoteague Island","Accomack","51","1","37.93","-75.36","A","GD"
"23337","VA","Wallops Island","Accomack","51","1","37.92","-75.49","A","GD"
"23341","VA","Craddockville","Accomack","51","1","37.58","-75.8","A","POB"
"23345","VA","Davis Wharf","Accomack","51","1","37.57","-75.89","A","GD"
"23347","VA","Eastville","Northampton","51","131","37.35","-75.96","A","POB"
"23350","VA","Exmore","Northampton","51","131","37.52","-75.86","A","GD"
"23354","VA","Franktown","Northampton","51","131","37.47","-75.91","A","GD"
"23356","VA","Greenbackville","Accomack","51","1","38","-75.42","A","GD"
"23357","VA","Greenbush","Accomack","51","1","37.75","-75.68","A","GD"
"23358","VA","Hacksneck","Accomack","51","1","37.65","-75.87","A","GD"
"23359","VA","Hallwood","Accomack","51","1","37.88","-75.58","A","GD"
"23389","VA","Harborton","Accomack","51","1","37.66","-75.83","A","POB"
"23395","VA","Horntown","Accomack","51","1","37.97","-75.46","A","GD"
"23396","VA","Oak Hall","Accomack","51","1","37.93","-75.58","A","GD"
"23397","VA","Isle Of Wight","Isle Of Wight","51","93","36.85","-76.72","A","POB"
"23398","VA","Jamesville","Northampton","51","131","37.51","-75.95","A","POB"
"23399","VA","Jenkins Bridge","Accomack","51","1","37.92","-75.63","A","GD"
"23401","VA","Keller","Accomack","51","1","37.62","-75.77","A","POB"
"23404","VA","Locustville","Accomack","51","1","37.65","-75.67","A","GD"
"23405","VA","Machipongo","Northampton","51","131","37.41","-75.93","A","GD"
"23407","VA","Mappsville","Accomack","51","1","37.85","-75.56","A","POB"
"23408","VA","Marionville","Northampton","51","131","37.45","-75.84","A","POB"
"23409","VA","Mears","Accomack","51","1","37.87","-75.63","A","GD"
"23410","VA","Melfa","Accomack","51","1","37.64","-75.75","A","GD"
"23412","VA","Modest Town","Accomack","51","1","37.83","-75.57","A","POB"
"23413","VA","Nassawadox","Northampton","51","131","37.47","-75.86","A","POB"
"23414","VA","Nelsonia","Accomack","51","1","37.81","-75.59","A","POB"
"23415","VA","New Church","Accomack","51","1","37.97","-75.52","A","GD"
"23416","VA","Oak Hall","Accomack","51","1","37.93","-75.55","A","GD"
"23417","VA","Onancock","Accomack","51","1","37.73","-75.77","A","GD"
"23418","VA","Onley","Accomack","51","1","37.68","-75.7","A","GD"
"23419","VA","Oyster","Northampton","51","131","37.29","-75.92","A","POB"
"23420","VA","Painter","Accomack","51","1","37.58","-75.8","A","GD"
"23421","VA","Parksley","Accomack","51","1","37.78","-75.62","A","GD"
"23422","VA","Pungoteague","Accomack","51","1","37.63","-75.82","A","POB"
"23423","VA","Quinby","Accomack","51","1","37.53","-75.71","A","POB"
"23424","VA","Rescue","Isle Of Wight","51","93","36.96","-76.54","A","POB"
"23426","VA","Sanford","Accomack","51","1","37.92","-75.67","A","GD"
"23427","VA","Saxis","Accomack","51","1","37.91","-75.73","A","POB"
"23429","VA","Seaview","Northampton","51","131","37.28","-75.96","A","POB"
"23430","VA","Smithfield","Isle Of Wight","51","93","36.98","-76.64","A","GD"
"23431","VA","Smithfield","Isle Of Wight","51","93","36.98","-76.62","A","POB"
"23432","VA","Suffolk","Suffolk City","51","800","36.88","-76.55","A","GD"
"23433","VA","Suffolk","Suffolk City","51","800","36.91","-76.5","A","GD"
"23434","VA","Suffolk","Suffolk City","51","800","36.74","-76.6","A","GD"
"23435","VA","Suffolk","Suffolk City","51","800","36.85","-76.46","A","GD"
"23436","VA","Suffolk","Suffolk City","51","800","36.9","-76.51","A","GD"
"23437","VA","Suffolk","Suffolk City","51","800","36.64","-76.8","A","GD"
"23438","VA","Suffolk","Suffolk City","51","800","36.58","-76.7","A","GD"
"23439","VA","Suffolk","Suffolk City","51","800","36.7","-76.64","A","POB"
"23440","VA","Tangier","Accomack","51","1","37.83","-75.99","A","POB"
"23441","VA","Tasley","Accomack","51","1","37.71","-75.7","A","POB"
"23442","VA","Temperanceville","Accomack","51","1","37.9","-75.57","A","GD"
"23443","VA","Townsend","Northampton","51","131","37.28","-75.96","A","POB"
"23450","VA","Virginia Beach","Virginia Beach City","51","810","36.85","-76.09","A","POB"
"23451","VA","Virginia Beach","Virginia Beach City","51","810","36.86","-76","A","GD"
"23452","VA","Virginia Beach","Virginia Beach City","51","810","36.84","-76.09","A","GD"
"23453","VA","Virginia Beach","Virginia Beach City","51","810","36.79","-76.09","A","GD"
"23454","VA","Virginia Beach","Virginia Beach City","51","810","36.84","-76.03","A","GD"
"23455","VA","Virginia Beach","Virginia Beach City","51","810","36.89","-76.15","A","GD"
"23456","VA","Virginia Beach","Virginia Beach City","51","810","36.75","-76.06","A","GD"
"23457","VA","Virginia Beach","Virginia Beach City","51","810","36.62","-76.04","A","GD"
"23458","VA","Virginia Beach","Virginia Beach City","51","810","36.85","-75.98","A","POB"
"23459","VA","Virginia Beach","Virginia Beach City","51","810","36.93","-76.02","A","GD"
"23460","VA","Virginia Beach","Virginia Beach City","51","810","36.81","-76.03","A","GD"
"23461","VA","Virginia Beach","Virginia Beach City","51","810","36.78","-75.96","A","GD"
"23462","VA","Virginia Beach","Virginia Beach City","51","810","36.84","-76.15","A","GD"
"23463","VA","Virginia Beach","Virginia Beach City","51","810","36.8","-76.18","A","PVT"
"23464","VA","Virginia Beach","Virginia Beach City","51","810","36.8","-76.18","A","GD"
"23465","VA","Virginia Beach","Virginia Beach City","51","810","36.8","-76.18","A","PVT"
"23466","VA","Virginia Beach","Virginia Beach City","51","810","36.84","-76.15","A","POB"
"23467","VA","Virginia Beach","Virginia Beach City","51","810","36.8","-76.18","A","POB"
"23471","VA","Virginia Beach","Virginia Beach City","51","810","36.89","-76.15","A","POB"
"23479","VA","Virginia Beach","Virginia Beach City","51","810","36.85","-76.09","A","PVT"
"23480","VA","Wachapreague","Accomack","51","1","37.61","-75.69","A","POB"
"23482","VA","Wardtown","Northampton","51","131","37.51","-75.87","A","POB"
"23483","VA","Wattsville","Accomack","51","1","37.96","-75.51","A","POB"
"23486","VA","Willis Wharf","Northampton","51","131","37.51","-75.81","A","POB"
"23487","VA","Windsor","Isle Of Wight","51","93","36.84","-76.73","A","GD"
"23488","VA","Withams","Accomack","51","1","37.95","-75.6","A","GD"
"23501","VA","Norfolk","Norfolk City","51","710","36.9","-76.21","A","POB"
"23502","VA","Norfolk","Norfolk City","51","710","36.86","-76.21","A","GD"
"23503","VA","Norfolk","Norfolk City","51","710","36.95","-76.26","A","GD"
"23504","VA","Norfolk","Norfolk City","51","710","36.86","-76.27","A","GD"
"23505","VA","Norfolk","Norfolk City","51","710","36.92","-76.28","A","GD"
"23506","VA","Norfolk","Norfolk City","51","710","36.86","-76.21","A","POB"
"23507","VA","Norfolk","Norfolk City","51","710","36.86","-76.3","A","GD"
"23508","VA","Norfolk","Norfolk City","51","710","36.89","-76.3","A","GD"
"23509","VA","Norfolk","Norfolk City","51","710","36.88","-76.26","A","GD"
"23510","VA","Norfolk","Norfolk City","51","710","36.85","-76.29","A","GD"
"23511","VA","Norfolk","Norfolk City","51","710","36.94","-76.31","A","GD"
"23513","VA","Norfolk","Norfolk City","51","710","36.89","-76.24","A","GD"
"23514","VA","Norfolk","Norfolk City","51","710","36.85","-76.29","A","POB"
"23515","VA","Norfolk","Norfolk City","51","710","36.92","-76.3","A","PVT"
"23517","VA","Norfolk","Norfolk City","51","710","36.87","-76.29","A","GD"
"23518","VA","Norfolk","Norfolk City","51","710","36.92","-76.22","A","GD"
"23519","VA","Norfolk","Norfolk City","51","710","36.92","-76.19","A","GD"
"23523","VA","Norfolk","Norfolk City","51","710","36.83","-76.27","A","GD"
"23529","VA","Norfolk","Norfolk City","51","710","36.89","-76.31","A","PVT"
"23541","VA","Norfolk","Norfolk City","51","710","36.86","-76.21","A","POB"
"23551","VA","Norfolk","Norfolk City","51","710","36.92","-76.29","A","PVT"
"23601","VA","Newport News","Newport News City","51","700","37.05","-76.46","A","GD"
"23602","VA","Newport News","Newport News City","51","700","37.11","-76.51","A","GD"
"23603","VA","Newport News","Newport News City","51","700","37.19","-76.57","A","GD"
"23604","VA","Fort Eustis","Newport News City","51","700","37.15","-76.58","A","GD"
"23605","VA","Newport News","Newport News City","51","700","37.02","-76.44","A","GD"
"23606","VA","Newport News","Newport News City","51","700","37.08","-76.49","A","GD"
"23607","VA","Newport News","Newport News City","51","700","36.99","-76.42","A","GD"
"23608","VA","Newport News","Newport News City","51","700","37.15","-76.55","A","GD"
"23609","VA","Newport News","Newport News City","51","700","36.98","-76.43","A","POB"
"23612","VA","Newport News","Newport News City","51","700","37.07","-76.49","A","POB"
"23628","VA","Newport News","Newport News City","51","700","37.15","-76.58","A","PVT"
"23630","VA","Hampton","Hampton City","51","650","37","-76.41","A","PVT"
"23651","VA","Fort Monroe","Hampton City","51","650","37.01","-76.31","A","GD"
"23661","VA","Hampton","Hampton City","51","650","37.01","-76.39","A","GD"
"23662","VA","Poquoson","Poquoson City","51","735","37.14","-76.37","A","GD"
"23663","VA","Hampton","Hampton City","51","650","37.03","-76.32","A","GD"
"23664","VA","Hampton","Hampton City","51","650","37.06","-76.29","A","GD"
"23665","VA","Hampton","York","51","199","37.09","-76.37","A","GD"
"23666","VA","Hampton","Hampton City","51","650","37.05","-76.4","A","GD"
"23667","VA","Hampton","Hampton City","51","650","37.01","-76.39","A","PVT"
"23668","VA","Hampton","Hampton City","51","650","37.02","-76.34","A","PVT"
"23669","VA","Hampton","Hampton City","51","650","37.04","-76.34","A","GD"
"23670","VA","Hampton","Hampton City","51","650","37.06","-76.41","A","POB"
"23681","VA","Hampton","Hampton City","51","650","37.09","-76.37","A","PVT"
"23690","VA","Yorktown","York","51","199","37.22","-76.52","A","GD"
"23691","VA","Yorktown","York","51","199","37.24","-76.55","A","GD"
"23692","VA","Yorktown","York","51","199","37.18","-76.46","A","GD"
"23693","VA","Yorktown","York","51","199","37.12","-76.44","A","GD"
"23694","VA","Lackey","York","51","199","37.23","-76.55","A","POB"
"23696","VA","Seaford","York","51","199","37.19","-76.43","A","GD"
"23701","VA","Portsmouth","Portsmouth City","51","740","36.81","-76.37","A","GD"
"23702","VA","Portsmouth","Portsmouth City","51","740","36.8","-76.32","A","GD"
"23703","VA","Portsmouth","Portsmouth City","51","740","36.87","-76.38","A","GD"
"23704","VA","Portsmouth","Portsmouth City","51","740","36.83","-76.31","A","GD"
"23705","VA","Portsmouth","Portsmouth City","51","740","36.84","-76.34","A","POB"
"23707","VA","Portsmouth","Portsmouth City","51","740","36.84","-76.34","A","GD"
"23708","VA","Portsmouth","Portsmouth City","51","740","36.85","-76.31","A","GD"
"23709","VA","Portsmouth","Portsmouth City","51","740","36.81","-76.31","A","GD"
"23801","VA","Fort Lee","Prince George","51","149","37.24","-77.34","A","GD"
"23803","VA","Petersburg","Petersburg City","51","730","37.21","-77.44","A","GD"
"23804","VA","Petersburg","Petersburg City","51","730","37.23","-77.4","A","POB"
"23805","VA","Petersburg","Petersburg City","51","730","37.16","-77.39","A","GD"
"23806","VA","Virginia State University","Petersburg City","51","730","37.24","-77.42","A","PVT"
"23821","VA","Alberta","Brunswick","51","25","36.87","-77.91","A","GD"
"23822","VA","Ammon","Dinwiddie","51","53","37.16","-77.59","A","POB"
"23824","VA","Blackstone","Nottoway","51","135","37.07","-77.97","A","GD"
"23827","VA","Boykins","Southampton","51","175","36.59","-77.2","A","GD"
"23828","VA","Branchville","Southampton","51","175","36.57","-77.27","A","GD"
"23829","VA","Capron","Southampton","51","175","36.73","-77.22","A","GD"
"23830","VA","Carson","Dinwiddie","51","53","37.02","-77.41","A","GD"
"23831","VA","Chester","Chesterfield","51","41","37.35","-77.44","A","GD"
"23832","VA","Chesterfield","Chesterfield","51","41","37.4","-77.58","A","GD"
"23833","VA","Church Road","Dinwiddie","51","53","37.21","-77.66","A","GD"
"23834","VA","Colonial Heights","Colonial Heights City","51","570","37.27","-77.4","A","GD"
"23836","VA","Chester","Chesterfield","51","41","37.34","-77.35","A","GD"
"23837","VA","Courtland","Southampton","51","175","36.73","-77.06","A","GD"
"23838","VA","Chesterfield","Chesterfield","51","41","37.32","-77.61","A","GD"
"23839","VA","Dendron","Surry","51","181","37.08","-76.92","A","GD"
"23840","VA","Dewitt","Dinwiddie","51","53","37.06","-77.66","A","GD"
"23841","VA","Dinwiddie","Dinwiddie","51","53","37.06","-77.56","A","GD"
"23842","VA","Disputanta","Prince George","51","149","37.13","-77.24","A","GD"
"23843","VA","Dolphin","Brunswick","51","25","36.85","-77.81","A","GD"
"23844","VA","Drewryville","Southampton","51","175","36.68","-77.33","A","GD"
"23845","VA","Ebony","Brunswick","51","25","36.56","-78","A","GD"
"23846","VA","Elberon","Surry","51","181","37.05","-76.84","A","GD"
"23847","VA","Emporia","Emporia City","51","595","36.69","-77.57","A","GD"
"23850","VA","Ford","Dinwiddie","51","53","37.16","-77.74","A","GD"
"23851","VA","Franklin","Franklin City","51","620","36.67","-76.94","A","GD"
"23856","VA","Freeman","Brunswick","51","25","36.78","-77.7","A","GD"
"23857","VA","Gasburg","Brunswick","51","25","36.58","-77.88","A","GD"
"23860","VA","Hopewell","Hopewell City","51","670","37.29","-77.29","A","GD"
"23866","VA","Ivor","Southampton","51","175","36.92","-76.87","A","GD"
"23867","VA","Jarratt","Greensville","51","81","36.82","-77.49","A","GD"
"23868","VA","Lawrenceville","Brunswick","51","25","36.72","-77.82","A","GD"
"23870","VA","Jarratt","Greensville","51","81","36.82","-77.47","A","PVT"
"23872","VA","Mc Kenney","Dinwiddie","51","53","36.99","-77.73","A","GD"
"23873","VA","Meredithville","Brunswick","51","25","36.81","-77.96","A","POB"
"23874","VA","Newsoms","Southampton","51","175","36.61","-77.1","A","GD"
"23875","VA","Prince George","Prince George","51","149","37.23","-77.28","A","GD"
"23876","VA","Rawlings","Brunswick","51","25","36.96","-77.83","A","GD"
"23878","VA","Sedley","Southampton","51","175","36.82","-77.01","A","GD"
"23879","VA","Skippers","Greensville","51","81","36.59","-77.6","A","GD"
"23881","VA","Spring Grove","Surry","51","181","37.18","-77","A","GD"
"23882","VA","Stony Creek","Sussex","51","183","36.92","-77.43","A","GD"
"23883","VA","Surry","Surry","51","181","37.13","-76.75","A","GD"
"23884","VA","Sussex","Sussex","51","183","36.92","-77.28","A","POB"
"23885","VA","Sutherland","Dinwiddie","51","53","37.2","-77.57","A","GD"
"23887","VA","Valentines","Brunswick","51","25","36.56","-77.83","A","GD"
"23888","VA","Wakefield","Sussex","51","183","36.97","-76.98","A","GD"
"23889","VA","Warfield","Brunswick","51","25","36.9","-77.75","A","GD"
"23890","VA","Waverly","Sussex","51","183","37.01","-77.12","A","GD"
"23891","VA","Waverly","Sussex","51","183","37.04","-77.21","A","PVT"
"23893","VA","White Plains","Brunswick","51","25","36.62","-77.93","A","GD"
"23894","VA","Wilsons","Dinwiddie","51","53","37.13","-77.83","A","GD"
"23897","VA","Yale","Sussex","51","183","36.83","-77.28","A","GD"
"23898","VA","Zuni","Isle Of Wight","51","93","36.84","-76.84","A","GD"
"23899","VA","Claremont","Surry","51","181","37.23","-76.97","A","POB"
"23901","VA","Farmville","Prince Edward","51","147","37.31","-78.4","A","GD"
"23909","VA","Farmville","Prince Edward","51","147","37.3","-78.4","A","PVT"
"23915","VA","Baskerville","Mecklenburg","51","117","36.69","-78.29","A","GD"
"23917","VA","Boydton","Mecklenburg","51","117","36.62","-78.31","A","GD"
"23919","VA","Bracey","Mecklenburg","51","117","36.59","-78.12","A","GD"
"23920","VA","Brodnax","Brunswick","51","25","36.72","-77.99","A","GD"
"23921","VA","Buckingham","Buckingham","51","29","37.59","-78.61","A","GD"
"23922","VA","Burkeville","Nottoway","51","135","37.19","-78.21","A","GD"
"23923","VA","Charlotte Court House","Charlotte","51","37","37.09","-78.63","A","GD"
"23924","VA","Chase City","Mecklenburg","51","117","36.8","-78.46","A","GD"
"23927","VA","Clarksville","Mecklenburg","51","117","36.62","-78.53","A","GD"
"23930","VA","Crewe","Nottoway","51","135","37.18","-78.12","A","GD"
"23934","VA","Cullen","Charlotte","51","37","37.16","-78.63","A","GD"
"23936","VA","Dillwyn","Buckingham","51","29","37.54","-78.48","A","GD"
"23937","VA","Drakes Branch","Charlotte","51","37","36.95","-78.53","A","GD"
"23938","VA","Dundas","Lunenburg","51","111","36.91","-78.01","A","GD"
"23939","VA","Evergreen","Appomattox","51","11","37.32","-78.77","A","POB"
"23941","VA","Fort Mitchell","Lunenburg","51","111","36.92","-78.49","A","POB"
"23942","VA","Green Bay","Prince Edward","51","147","37.13","-78.3","A","GD"
"23943","VA","Hampden Sydney","Prince Edward","51","147","37.24","-78.46","A","POB"
"23944","VA","Kenbridge","Lunenburg","51","111","36.92","-78.13","A","GD"
"23947","VA","Keysville","Charlotte","51","37","37.03","-78.45","A","GD"
"23950","VA","La Crosse","Mecklenburg","51","117","36.69","-78.08","A","GD"
"23952","VA","Lunenburg","Lunenburg","51","111","36.93","-78.28","A","GD"
"23954","VA","Meherrin","Prince Edward","51","147","37.11","-78.38","A","GD"
"23955","VA","Nottoway","Nottoway","51","135","37.12","-78.08","A","POB"
"23958","VA","Pamplin","Appomattox","51","11","37.27","-78.66","A","GD"
"23959","VA","Phenix","Charlotte","51","37","37.09","-78.79","A","GD"
"23960","VA","Prospect","Prince Edward","51","147","37.3","-78.56","A","GD"
"23962","VA","Randolph","Charlotte","51","37","36.89","-78.71","A","GD"
"23963","VA","Red House","Charlotte","51","37","37.2","-78.82","A","GD"
"23964","VA","Red Oak","Charlotte","51","37","36.78","-78.62","A","GD"
"23966","VA","Rice","Prince Edward","51","147","37.28","-78.28","A","GD"
"23967","VA","Saxe","Charlotte","51","37","36.91","-78.62","A","GD"
"23968","VA","Skipwith","Mecklenburg","51","117","36.73","-78.53","A","GD"
"23970","VA","South Hill","Mecklenburg","51","117","36.74","-78.17","A","GD"
"23974","VA","Victoria","Lunenburg","51","111","36.98","-78.24","A","GD"
"23976","VA","Wylliesburg","Charlotte","51","37","36.85","-78.59","A","GD"
"24001","VA","Roanoke","Roanoke City","51","770","37.27","-79.94","A","POB"
"24002","VA","Roanoke","Roanoke City","51","770","37.28","-79.96","A","POB"
"24003","VA","Roanoke","Roanoke City","51","770","37.27","-79.94","A","POB"
"24004","VA","Roanoke","Roanoke City","51","770","37.27","-79.94","A","POB"
"24005","VA","Roanoke","Roanoke City","51","770","37.27","-79.94","A","POB"
"24006","VA","Roanoke","Roanoke City","51","770","37.27","-79.94","A","POB"
"24007","VA","Roanoke","Roanoke City","51","770","37.27","-79.94","A","POB"
"24008","VA","Roanoke","Roanoke City","51","770","37.27","-79.94","A","POB"
"24009","VA","Roanoke","Roanoke City","51","770","37.27","-79.94","A","POB"
"24010","VA","Roanoke","Roanoke City","51","770","37.27","-79.94","A","POB"
"24011","VA","Roanoke","Roanoke City","51","770","37.27","-79.94","A","GD"
"24012","VA","Roanoke","Roanoke City","51","770","37.31","-79.93","A","GD"
"24013","VA","Roanoke","Roanoke City","51","770","37.27","-79.93","A","GD"
"24014","VA","Roanoke","Roanoke City","51","770","37.24","-79.93","A","GD"
"24015","VA","Roanoke","Roanoke City","51","770","37.26","-79.98","A","GD"
"24016","VA","Roanoke","Roanoke City","51","770","37.27","-79.95","A","GD"
"24017","VA","Roanoke","Roanoke City","51","770","37.29","-79.98","A","GD"
"24018","VA","Roanoke","Roanoke","51","161","37.22","-80.03","A","GD"
"24019","VA","Roanoke","Roanoke","51","161","37.34","-79.95","A","GD"
"24020","VA","Roanoke","Roanoke","51","161","37.36","-79.94","A","POB"
"24022","VA","Roanoke","Roanoke City","51","770","37.27","-79.94","A","POB"
"24023","VA","Roanoke","Roanoke City","51","770","37.27","-79.95","A","POB"
"24024","VA","Roanoke","Roanoke City","51","770","37.28","-79.93","A","POB"
"24025","VA","Roanoke","Roanoke City","51","770","37.27","-79.95","A","POB"
"24026","VA","Roanoke","Roanoke City","51","770","37.27","-79.95","A","POB"
"24027","VA","Roanoke","Roanoke City","51","770","37.27","-79.95","A","POB"
"24028","VA","Roanoke","Roanoke City","51","770","37.28","-79.94","A","POB"
"24029","VA","Roanoke","Roanoke City","51","770","37.27","-79.95","A","POB"
"24030","VA","Roanoke","Roanoke City","51","770","37.27","-79.95","A","POB"
"24031","VA","Roanoke","Roanoke City","51","770","37.27","-79.95","A","POB"
"24032","VA","Roanoke","Roanoke City","51","770","37.28","-79.93","A","POB"
"24033","VA","Roanoke","Roanoke City","51","770","37.27","-79.95","A","POB"
"24034","VA","Roanoke","Roanoke City","51","770","37.28","-79.93","A","POB"
"24035","VA","Roanoke","Roanoke City","51","770","37.28","-79.93","A","POB"
"24036","VA","Roanoke","Roanoke City","51","770","37.28","-79.93","A","POB"
"24037","VA","Roanoke","Roanoke City","51","770","37.28","-79.93","A","POB"
"24038","VA","Roanoke","Roanoke City","51","770","37.27","-79.95","A","POB"
"24040","VA","Roanoke","Roanoke City","51","770","37.28","-79.93","A","PVT"
"24042","VA","Roanoke","Roanoke City","51","770","37.27","-79.94","A","PVT"
"24043","VA","Roanoke","Roanoke City","51","770","37.27","-79.92","A","PVT"
"24050","VA","Roanoke","Botetourt","51","23","37.35","-79.96","A","PVT"
"24053","VA","Ararat","Patrick","51","141","36.61","-80.54","A","GD"
"24054","VA","Axton","Henry","51","89","36.67","-79.71","A","GD"
"24055","VA","Bassett","Henry","51","89","36.76","-79.99","A","GD"
"24058","VA","Belspring","Pulaski","51","155","37.19","-80.61","A","POB"
"24059","VA","Bent Mountain","Roanoke","51","161","37.15","-80.14","A","GD"
"24060","VA","Blacksburg","Montgomery","51","121","37.23","-80.42","A","GD"
"24061","VA","Blacksburg","Montgomery","51","121","37.26","-80.43","A","PVT"
"24062","VA","Blacksburg","Montgomery","51","121","37.23","-80.41","A","POB"
"24063","VA","Blacksburg","Montgomery","51","121","37.23","-80.42","A","POB"
"24064","VA","Blue Ridge","Botetourt","51","23","37.38","-79.77","A","GD"
"24065","VA","Boones Mill","Franklin","51","67","37.12","-79.95","A","GD"
"24066","VA","Buchanan","Botetourt","51","23","37.53","-79.7","A","GD"
"24067","VA","Callaway","Franklin","51","67","37.02","-80.07","A","GD"
"24068","VA","Christiansburg","Montgomery","51","121","37.14","-80.4","A","POB"
"24069","VA","Cascade","Pittsylvania","51","143","36.59","-79.64","A","GD"
"24070","VA","Catawba","Roanoke","51","161","37.37","-80.19","A","GD"
"24072","VA","Check","Floyd","51","63","37.03","-80.23","A","GD"
"24073","VA","Christiansburg","Montgomery","51","121","37.14","-80.42","A","GD"
"24076","VA","Claudville","Patrick","51","141","36.59","-80.42","A","GD"
"24077","VA","Cloverdale","Botetourt","51","23","37.37","-79.91","A","GD"
"24078","VA","Collinsville","Henry","51","89","36.72","-79.92","A","GD"
"24079","VA","Copper Hill","Floyd","51","63","37.04","-80.14","A","GD"
"24082","VA","Critz","Patrick","51","141","36.62","-80.12","A","GD"
"24083","VA","Daleville","Botetourt","51","23","37.41","-79.92","A","GD"
"24084","VA","Dublin","Pulaski","51","155","37.1","-80.71","A","GD"
"24085","VA","Eagle Rock","Botetourt","51","23","37.68","-79.82","A","GD"
"24086","VA","Eggleston","Giles","51","71","37.29","-80.62","A","GD"
"24087","VA","Elliston","Montgomery","51","121","37.22","-80.23","A","GD"
"24088","VA","Ferrum","Franklin","51","67","36.9","-80.07","A","GD"
"24089","VA","Fieldale","Henry","51","89","36.71","-79.95","A","GD"
"24090","VA","Fincastle","Botetourt","51","23","37.51","-79.87","A","GD"
"24091","VA","Floyd","Floyd","51","63","36.92","-80.32","A","GD"
"24092","VA","Glade Hill","Franklin","51","67","37","-79.77","A","GD"
"24093","VA","Glen Lyn","Giles","51","71","37.38","-80.86","A","GD"
"24095","VA","Goodview","Bedford","51","19","37.21","-79.74","A","GD"
"24101","VA","Hardy","Franklin","51","67","37.19","-79.78","A","GD"
"24102","VA","Henry","Franklin","51","67","36.84","-79.99","A","GD"
"24104","VA","Huddleston","Bedford","51","19","37.11","-79.52","A","GD"
"24105","VA","Indian Valley","Floyd","51","63","36.89","-80.6","A","GD"
"24111","VA","Mc Coy","Montgomery","51","121","37.26","-80.43","A","POB"
"24112","VA","Martinsville","Martinsville City","51","690","36.7","-79.87","A","GD"
"24113","VA","Martinsville","Martinsville City","51","690","36.68","-79.85","A","POB"
"24114","VA","Martinsville","Martinsville City","51","690","36.69","-79.86","A","POB"
"24115","VA","Martinsville","Martinsville City","51","690","36.69","-79.86","A","POB"
"24120","VA","Meadows Of Dan","Patrick","51","141","36.72","-80.42","A","GD"
"24121","VA","Moneta","Bedford","51","19","37.15","-79.64","A","GD"
"24122","VA","Montvale","Bedford","51","19","37.41","-79.7","A","GD"
"24124","VA","Narrows","Giles","51","71","37.32","-80.84","A","GD"
"24126","VA","Newbern","Pulaski","51","155","37.09","-80.65","A","POB"
"24127","VA","New Castle","Craig","51","45","37.5","-80.18","A","GD"
"24128","VA","Newport","Giles","51","71","37.33","-80.47","A","GD"
"24129","VA","New River","Pulaski","51","155","37.15","-80.62","A","POB"
"24130","VA","Oriskany","Botetourt","51","23","37.61","-79.99","A","GD"
"24131","VA","Paint Bank","Craig","51","45","37.57","-80.26","A","GD"
"24132","VA","Parrott","Pulaski","51","155","37.21","-80.63","A","POB"
"24133","VA","Patrick Springs","Patrick","51","141","36.66","-80.15","A","GD"
"24134","VA","Pearisburg","Giles","51","71","37.28","-80.74","A","GD"
"24136","VA","Pembroke","Giles","51","71","37.32","-80.62","A","GD"
"24137","VA","Penhook","Franklin","51","67","36.95","-79.64","A","GD"
"24138","VA","Pilot","Montgomery","51","121","37.05","-80.33","A","GD"
"24139","VA","Pittsville","Pittsylvania","51","143","37.01","-79.48","A","GD"
"24141","VA","Radford","Radford","51","750","37.12","-80.57","A","GD"
"24142","VA","Radford","Radford","51","750","37.14","-80.55","A","POB"
"24143","VA","Radford","Radford","51","750","37.13","-80.58","A","POB"
"24146","VA","Redwood","Franklin","51","67","37.01","-79.77","A","POB"
"24147","VA","Rich Creek","Giles","51","71","37.39","-80.82","A","GD"
"24148","VA","Ridgeway","Henry","51","89","36.59","-79.87","A","GD"
"24149","VA","Riner","Montgomery","51","121","37.02","-80.44","A","GD"
"24150","VA","Ripplemead","Giles","51","71","37.39","-80.65","A","GD"
"24151","VA","Rocky Mount","Franklin","51","67","36.98","-79.88","A","GD"
"24153","VA","Salem","Salem","51","775","37.29","-80.09","A","GD"
"24155","VA","Roanoke","Salem","51","775","37.29","-80.06","A","PVT"
"24157","VA","Roanoke","Salem","51","775","37.29","-80.06","A","PVT"
"24161","VA","Sandy Level","Pittsylvania","51","143","36.99","-79.54","A","GD"
"24162","VA","Shawsville","Montgomery","51","121","37.15","-80.26","A","GD"
"24165","VA","Spencer","Henry","51","89","36.59","-80.03","A","GD"
"24167","VA","Staffordsville","Giles","51","71","37.24","-80.73","A","GD"
"24168","VA","Stanleytown","Henry","51","89","36.74","-79.95","A","GD"
"24171","VA","Stuart","Patrick","51","141","36.66","-80.24","A","GD"
"24174","VA","Thaxton","Bedford","51","19","37.35","-79.66","A","GD"
"24175","VA","Troutville","Botetourt","51","23","37.41","-79.91","A","GD"
"24176","VA","Union Hall","Franklin","51","67","37.02","-79.7","A","GD"
"24177","VA","Vesta","Patrick","51","141","36.72","-80.4","A","POB"
"24178","VA","Villamont","Bedford","51","19","37.43","-79.71","A","POB"
"24179","VA","Vinton","Roanoke","51","161","37.28","-79.84","A","GD"
"24184","VA","Wirtz","Franklin","51","67","37.07","-79.77","A","GD"
"24185","VA","Woolwine","Patrick","51","141","36.8","-80.27","A","GD"
"24201","VA","Bristol","Bristol City","51","520","36.61","-82.18","A","GD"
"24202","VA","Bristol","Washington","51","191","36.64","-82.18","A","GD"
"24203","VA","Bristol","Bristol City","51","520","36.6","-82.19","A","POB"
"24205","VA","Bristol","Bristol City","51","520","36.59","-82.18","A","PVT"
"24209","VA","Bristol","Bristol City","51","520","36.61","-82.17","A","POB"
"24210","VA","Abingdon","Washington","51","191","36.74","-82","A","GD"
"24211","VA","Abingdon","Washington","51","191","36.65","-81.96","A","GD"
"24212","VA","Abingdon","Washington","51","191","36.71","-81.98","A","POB"
"24215","VA","Andover","Wise","51","195","36.92","-82.8","A","POB"
"24216","VA","Appalachia","Wise","51","195","36.93","-82.79","A","GD"
"24217","VA","Bee","Dickenson","51","51","37.08","-82.16","A","GD"
"24218","VA","Ben Hur","Lee","51","105","36.76","-83.04","A","POB"
"24219","VA","Big Stone Gap","Wise","51","195","36.85","-82.77","A","GD"
"24220","VA","Birchleaf","Dickenson","51","51","37.16","-82.25","A","GD"
"24221","VA","Blackwater","Lee","51","105","36.63","-82.97","A","GD"
"24224","VA","Castlewood","Russell","51","167","36.87","-82.28","A","GD"
"24225","VA","Cleveland","Russell","51","167","36.97","-82.14","A","GD"
"24226","VA","Clinchco","Dickenson","51","51","37.15","-82.35","A","GD"
"24228","VA","Clintwood","Dickenson","51","51","37.16","-82.45","A","GD"
"24230","VA","Coeburn","Wise","51","195","36.96","-82.47","A","GD"
"24236","VA","Damascus","Washington","51","191","36.64","-81.75","A","GD"
"24237","VA","Dante","Russell","51","167","37.02","-82.25","A","GD"
"24239","VA","Davenport","Buchanan","51","27","37.11","-82.15","A","GD"
"24243","VA","Dryden","Lee","51","105","36.78","-82.92","A","GD"
"24244","VA","Duffield","Scott","51","169","36.71","-82.8","A","GD"
"24245","VA","Dungannon","Scott","51","169","36.82","-82.48","A","GD"
"24246","VA","East Stone Gap","Wise","51","195","36.87","-82.74","A","POB"
"24248","VA","Ewing","Lee","51","105","36.63","-83.52","A","GD"
"24250","VA","Fort Blackmore","Scott","51","169","36.75","-82.6","A","GD"
"24251","VA","Gate City","Scott","51","169","36.65","-82.6","A","GD"
"24256","VA","Haysi","Dickenson","51","51","37.22","-82.29","A","GD"
"24258","VA","Hiltons","Scott","51","169","36.65","-82.42","A","GD"
"24260","VA","Honaker","Russell","51","167","37.03","-82.01","A","GD"
"24263","VA","Jonesville","Lee","51","105","36.68","-83.15","A","GD"
"24265","VA","Keokee","Lee","51","105","36.84","-82.95","A","GD"
"24266","VA","Lebanon","Russell","51","167","36.89","-82.1","A","GD"
"24269","VA","Mc Clure","Dickenson","51","51","37.08","-82.37","A","GD"
"24270","VA","Mendota","Washington","51","191","36.72","-82.26","A","GD"
"24271","VA","Nickelsville","Scott","51","169","36.74","-82.42","A","GD"
"24272","VA","Nora","Dickenson","51","51","37.02","-82.33","A","GD"
"24273","VA","Norton","Norton City","51","720","36.95","-82.64","A","GD"
"24277","VA","Pennington Gap","Lee","51","105","36.75","-83.03","A","GD"
"24279","VA","Pound","Wise","51","195","37.1","-82.6","A","GD"
"24280","VA","Rosedale","Russell","51","167","36.96","-81.93","A","GD"
"24281","VA","Rose Hill","Lee","51","105","36.67","-83.34","A","GD"
"24282","VA","Saint Charles","Lee","51","105","36.81","-83.06","A","GD"
"24283","VA","Saint Paul","Wise","51","195","36.93","-82.33","A","GD"
"24290","VA","Weber City","Scott","51","169","36.62","-82.57","A","GD"
"24292","VA","Whitetop","Grayson","51","77","36.61","-81.59","A","GD"
"24293","VA","Wise","Wise","51","195","36.99","-82.57","A","GD"
"24301","VA","Pulaski","Pulaski","51","155","37.05","-80.77","A","GD"
"24311","VA","Atkins","Smyth","51","173","36.87","-81.41","A","GD"
"24312","VA","Austinville","Wythe","51","197","36.84","-80.88","A","GD"
"24313","VA","Barren Springs","Wythe","51","197","36.91","-80.8","A","GD"
"24314","VA","Bastian","Bland","51","21","37.18","-81.19","A","GD"
"24315","VA","Bland","Bland","51","21","37.15","-81.05","A","GD"
"24316","VA","Broadford","Tazewell","51","185","36.94","-81.67","A","GD"
"24317","VA","Cana","Carroll","51","35","36.6","-80.68","A","GD"
"24318","VA","Ceres","Bland","51","21","36.98","-81.41","A","GD"
"24319","VA","Chilhowie","Smyth","51","173","36.77","-81.67","A","GD"
"24322","VA","Cripple Creek","Wythe","51","197","36.82","-81.11","A","GD"
"24323","VA","Crockett","Wythe","51","197","36.87","-81.2","A","GD"
"24324","VA","Draper","Pulaski","51","155","36.97","-80.78","A","GD"
"24325","VA","Dugspur","Carroll","51","35","36.81","-80.59","A","GD"
"24326","VA","Elk Creek","Grayson","51","77","36.73","-81.2","A","GD"
"24327","VA","Emory","Washington","51","191","36.77","-81.85","A","POB"
"24328","VA","Fancy Gap","Carroll","51","35","36.66","-80.69","A","GD"
"24330","VA","Fries","Grayson","51","77","36.72","-81","A","GD"
"24333","VA","Galax","Galax City","51","640","36.65","-80.93","A","GD"
"24340","VA","Glade Spring","Washington","51","191","36.77","-81.77","A","GD"
"24343","VA","Hillsville","Carroll","51","35","36.76","-80.7","A","GD"
"24347","VA","Hiwassee","Pulaski","51","155","36.95","-80.68","A","GD"
"24348","VA","Independence","Grayson","51","77","36.63","-81.16","A","GD"
"24350","VA","Ivanhoe","Wythe","51","197","36.83","-80.99","A","GD"
"24351","VA","Lambsburg","Carroll","51","35","36.58","-80.76","A","GD"
"24352","VA","Laurel Fork","Carroll","51","35","36.72","-80.53","A","GD"
"24354","VA","Marion","Smyth","51","173","36.83","-81.54","A","GD"
"24360","VA","Max Meadows","Wythe","51","197","36.93","-80.91","A","GD"
"24361","VA","Meadowview","Washington","51","191","36.76","-81.85","A","GD"
"24363","VA","Mouth Of Wilson","Grayson","51","77","36.61","-81.38","A","GD"
"24366","VA","Rocky Gap","Bland","51","21","37.26","-81.13","A","GD"
"24368","VA","Rural Retreat","Wythe","51","197","36.89","-81.29","A","GD"
"24370","VA","Saltville","Smyth","51","173","36.89","-81.73","A","GD"
"24374","VA","Speedwell","Wythe","51","197","36.81","-81.2","A","GD"
"24375","VA","Sugar Grove","Smyth","51","173","36.77","-81.39","A","GD"
"24377","VA","Tannersville","Tazewell","51","185","36.99","-81.59","A","GD"
"24378","VA","Troutdale","Grayson","51","77","36.69","-81.43","A","GD"
"24380","VA","Willis","Floyd","51","63","36.87","-80.51","A","GD"
"24381","VA","Woodlawn","Carroll","51","35","36.73","-80.85","A","GD"
"24382","VA","Wytheville","Wythe","51","197","36.95","-81.09","A","GD"
"24401","VA","Staunton","Staunton City","51","790","38.15","-79.07","A","GD"
"24402","VA","Staunton","Staunton City","51","790","38.16","-79.07","A","POB"
"24411","VA","Augusta Springs","Augusta","51","15","38.1","-79.31","A","POB"
"24412","VA","Bacova","Bath","51","17","38.06","-79.84","A","POB"
"24413","VA","Blue Grass","Highland","51","91","38.53","-79.58","A","GD"
"24415","VA","Brownsburg","Rockbridge","51","163","37.93","-79.32","A","POB"
"24416","VA","Buena Vista","Buena Vista City","51","530","37.74","-79.36","A","GD"
"24421","VA","Churchville","Augusta","51","15","38.24","-79.18","A","GD"
"24422","VA","Clifton Forge","Alleghany","51","5","37.82","-79.79","A","GD"
"24426","VA","Covington","Covington City","51","580","37.78","-80.04","A","GD"
"24430","VA","Craigsville","Augusta","51","15","38.08","-79.36","A","GD"
"24431","VA","Crimora","Augusta","51","15","38.17","-78.84","A","GD"
"24432","VA","Deerfield","Augusta","51","15","38.16","-79.41","A","GD"
"24433","VA","Doe Hill","Highland","51","91","38.42","-79.47","A","GD"
"24435","VA","Fairfield","Rockbridge","51","163","37.87","-79.3","A","GD"
"24437","VA","Fort Defiance","Augusta","51","15","38.23","-78.94","A","GD"
"24438","VA","Glen Wilton","Botetourt","51","23","37.75","-79.82","A","POB"
"24439","VA","Goshen","Rockbridge","51","163","37.99","-79.49","A","GD"
"24440","VA","Greenville","Augusta","51","15","38","-79.15","A","GD"
"24441","VA","Grottoes","Rockingham","51","165","38.25","-78.83","A","GD"
"24442","VA","Head Waters","Highland","51","91","38.32","-79.42","A","GD"
"24445","VA","Hot Springs","Bath","51","17","37.97","-79.88","A","GD"
"24448","VA","Iron Gate","Alleghany","51","5","37.8","-79.79","A","POB"
"24450","VA","Lexington","Lexington City","51","678","37.79","-79.48","A","GD"
"24457","VA","Low Moor","Alleghany","51","5","37.79","-79.89","A","POB"
"24458","VA","Mc Dowell","Highland","51","91","38.32","-79.53","A","GD"
"24459","VA","Middlebrook","Augusta","51","15","38.02","-79.28","A","GD"
"24460","VA","Millboro","Bath","51","17","38.02","-79.65","A","GD"
"24463","VA","Mint Spring","Augusta","51","15","38.07","-79.11","A","POB"
"24464","VA","Montebello","Nelson","51","125","37.88","-79.11","A","GD"
"24465","VA","Monterey","Highland","51","91","38.37","-79.64","A","GD"
"24467","VA","Mount Sidney","Augusta","51","15","38.25","-78.95","A","GD"
"24468","VA","Mustoe","Highland","51","91","38.29","-79.66","A","GD"
"24469","VA","New Hope","Augusta","51","15","38.2","-78.91","A","POB"
"24471","VA","Port Republic","Rockingham","51","165","38.3","-78.8","A","GD"
"24472","VA","Raphine","Rockbridge","51","163","37.93","-79.24","A","GD"
"24473","VA","Rockbridge Baths","Rockbridge","51","163","37.9","-79.41","A","GD"
"24474","VA","Selma","Alleghany","51","5","37.81","-79.85","A","POB"
"24476","VA","Steeles Tavern","Augusta","51","15","37.96","-79.23","A","GD"
"24477","VA","Stuarts Draft","Augusta","51","15","38.01","-79.03","A","GD"
"24479","VA","Swoope","Augusta","51","15","38.16","-79.21","A","GD"
"24482","VA","Verona","Augusta","51","15","38.2","-78.99","A","GD"
"24483","VA","Vesuvius","Rockbridge","51","163","37.82","-79.24","A","GD"
"24484","VA","Warm Springs","Bath","51","17","38.13","-79.81","A","GD"
"24485","VA","West Augusta","Augusta","51","15","38.27","-79.33","A","GD"
"24486","VA","Weyers Cave","Augusta","51","15","38.29","-78.92","A","GD"
"24487","VA","Williamsville","Bath","51","17","38.21","-79.56","A","GD"
"24501","VA","Lynchburg","Lynchburg City","51","680","37.38","-79.16","A","GD"
"24502","VA","Lynchburg","Lynchburg City","51","680","37.35","-79.22","A","GD"
"24503","VA","Lynchburg","Lynchburg City","51","680","37.44","-79.21","A","GD"
"24504","VA","Lynchburg","Lynchburg City","51","680","37.4","-79.11","A","GD"
"24505","VA","Lynchburg","Lynchburg City","51","680","37.41","-79.14","A","POB"
"24506","VA","Lynchburg","Lynchburg City","51","680","37.36","-79.17","A","POB"
"24513","VA","Lynchburg","Lynchburg City","51","680","37.4","-79.19","A","PVT"
"24514","VA","Lynchburg","Lynchburg City","51","680","37.36","-79.22","A","PVT"
"24515","VA","Lynchburg","Lynchburg City","51","680","37.35","-79.16","A","PVT"
"24517","VA","Altavista","Campbell","51","31","37.13","-79.27","A","GD"
"24520","VA","Alton","Halifax","51","83","36.59","-79.05","A","GD"
"24521","VA","Amherst","Amherst","51","9","37.61","-79.06","A","GD"
"24522","VA","Appomattox","Appomattox","51","11","37.37","-78.8","A","GD"
"24523","VA","Bedford","Bedford","51","19","37.33","-79.53","A","GD"
"24526","VA","Big Island","Bedford","51","19","37.54","-79.39","A","GD"
"24527","VA","Blairs","Pittsylvania","51","143","36.72","-79.36","A","GD"
"24528","VA","Brookneal","Campbell","51","31","37.07","-78.9","A","GD"
"24529","VA","Buffalo Junction","Mecklenburg","51","117","36.64","-78.64","A","GD"
"24530","VA","Callands","Pittsylvania","51","143","36.81","-79.61","A","GD"
"24531","VA","Chatham","Pittsylvania","51","143","36.83","-79.45","A","GD"
"24533","VA","Clifford","Amherst","51","9","37.63","-79.06","A","POB"
"24534","VA","Clover","Halifax","51","83","36.85","-78.75","A","GD"
"24535","VA","Cluster Springs","Halifax","51","83","36.59","-79.03","A","POB"
"24536","VA","Coleman Falls","Bedford","51","19","37.49","-79.31","A","GD"
"24538","VA","Concord","Campbell","51","31","37.35","-78.97","A","GD"
"24539","VA","Crystal Hill","Halifax","51","83","36.84","-78.92","A","GD"
"24540","VA","Danville","Danville City","51","590","36.62","-79.4","A","GD"
"24541","VA","Danville","Danville City","51","590","36.58","-79.46","A","GD"
"24543","VA","Danville","Danville City","51","590","36.58","-79.52","A","POB"
"24549","VA","Dry Fork","Pittsylvania","51","143","36.71","-79.5","A","GD"
"24550","VA","Evington","Campbell","51","31","37.25","-79.26","A","GD"
"24551","VA","Forest","Bedford","51","19","37.35","-79.3","A","GD"
"24553","VA","Gladstone","Nelson","51","125","37.55","-78.82","A","GD"
"24554","VA","Gladys","Campbell","51","31","37.13","-79.06","A","GD"
"24555","VA","Glasgow","Rockbridge","51","163","37.66","-79.46","A","GD"
"24556","VA","Goode","Bedford","51","19","37.37","-79.4","A","GD"
"24557","VA","Gretna","Pittsylvania","51","143","36.97","-79.32","A","GD"
"24558","VA","Halifax","Halifax","51","83","36.77","-78.94","A","GD"
"24562","VA","Howardsville","Buckingham","51","29","37.7","-78.64","A","GD"
"24563","VA","Hurt","Pittsylvania","51","143","37.08","-79.29","A","GD"
"24565","VA","Java","Pittsylvania","51","143","36.86","-79.18","A","GD"
"24566","VA","Keeling","Pittsylvania","51","143","36.72","-79.26","A","GD"
"24569","VA","Long Island","Pittsylvania","51","143","37.05","-79.12","A","GD"
"24570","VA","Lowry","Bedford","51","19","37.35","-79.42","A","GD"
"24571","VA","Lynch Station","Campbell","51","31","37.13","-79.37","A","GD"
"24572","VA","Madison Heights","Amherst","51","9","37.45","-79.1","A","GD"
"24574","VA","Monroe","Amherst","51","9","37.57","-79.23","A","GD"
"24576","VA","Naruna","Campbell","51","31","37.09","-78.9","A","POB"
"24577","VA","Nathalie","Halifax","51","83","36.95","-78.98","A","GD"
"24578","VA","Natural Bridge","Rockbridge","51","163","37.65","-79.54","A","GD"
"24579","VA","Natural Bridge Station","Rockbridge","51","163","37.59","-79.51","A","GD"
"24580","VA","Nelson","Mecklenburg","51","117","36.57","-78.68","A","GD"
"24581","VA","Norwood","Nelson","51","125","37.65","-78.79","A","GD"
"24586","VA","Ringgold","Pittsylvania","51","143","36.6","-79.29","A","GD"
"24588","VA","Rustburg","Campbell","51","31","37.27","-79.12","A","GD"
"24589","VA","Scottsburg","Halifax","51","83","36.76","-78.76","A","GD"
"24590","VA","Scottsville","Albemarle","51","3","37.8","-78.47","A","GD"
"24592","VA","South Boston","Halifax","51","83","36.7","-78.93","A","GD"
"24593","VA","Spout Spring","Appomattox","51","11","37.33","-78.91","A","GD"
"24594","VA","Sutherlin","Pittsylvania","51","143","36.63","-79.19","A","GD"
"24595","VA","Sweet Briar","Amherst","51","9","37.56","-79.08","A","POB"
"24597","VA","Vernon Hill","Halifax","51","83","36.78","-79.1","A","GD"
"24598","VA","Virgilina","Halifax","51","83","36.61","-78.76","A","GD"
"24599","VA","Wingina","Buckingham","51","29","37.64","-78.72","A","GD"
"24601","VA","Amonate","Tazewell","51","185","37.18","-81.65","A","POB"
"24602","VA","Bandy","Tazewell","51","185","37.18","-81.66","A","GD"
"24603","VA","Big Rock","Buchanan","51","27","37.35","-82.19","A","GD"
"24604","VA","Bishop","Tazewell","51","185","37.21","-81.57","A","POB"
"24605","VA","Bluefield","Tazewell","51","185","37.24","-81.33","A","GD"
"24606","VA","Boissevain","Tazewell","51","185","37.29","-81.39","A","POB"
"24607","VA","Breaks","Dickenson","51","51","37.3","-82.27","A","POB"
"24608","VA","Burkes Garden","Tazewell","51","185","37.11","-81.53","A","POB"
"24609","VA","Cedar Bluff","Tazewell","51","185","37.05","-81.79","A","GD"
"24612","VA","Doran","Tazewell","51","185","37.09","-81.84","A","POB"
"24613","VA","Falls Mills","Tazewell","51","185","37.27","-81.32","A","GD"
"24614","VA","Grundy","Buchanan","51","27","37.3","-82.08","A","GD"
"24619","VA","Horsepen","Tazewell","51","185","37.22","-81.52","A","POB"
"24620","VA","Hurley","Buchanan","51","27","37.42","-82.02","A","GD"
"24622","VA","Jewell Ridge","Tazewell","51","185","37.21","-81.8","A","GD"
"24624","VA","Keen Mountain","Buchanan","51","27","37.2","-81.99","A","POB"
"24627","VA","Mavisdale","Buchanan","51","27","37.18","-82.22","A","POB"
"24628","VA","Maxie","Buchanan","51","27","37.29","-82.21","A","GD"
"24630","VA","North Tazewell","Tazewell","51","185","37.16","-81.49","A","GD"
"24631","VA","Oakwood","Buchanan","51","27","37.21","-82","A","GD"
"24634","VA","Pilgrims Knob","Buchanan","51","27","37.26","-81.91","A","GD"
"24635","VA","Pocahontas","Tazewell","51","185","37.31","-81.35","A","POB"
"24637","VA","Pounding Mill","Tazewell","51","185","37.07","-81.71","A","GD"
"24639","VA","Raven","Buchanan","51","27","37.15","-81.89","A","GD"
"24640","VA","Red Ash","Tazewell","51","185","37.11","-81.87","A","POB"
"24641","VA","Richlands","Tazewell","51","185","37.1","-81.8","A","GD"
"24646","VA","Rowe","Buchanan","51","27","37.15","-82.03","A","GD"
"24647","VA","Shortt Gap","Buchanan","51","27","37.16","-81.87","A","POB"
"24649","VA","Swords Creek","Russell","51","167","37.07","-81.9","A","GD"
"24651","VA","Tazewell","Tazewell","51","185","37.1","-81.51","A","GD"
"24656","VA","Vansant","Buchanan","51","27","37.18","-82.1","A","GD"
"24657","VA","Whitewood","Buchanan","51","27","37.22","-81.86","A","GD"
"24658","VA","Wolford","Buchanan","51","27","37.35","-81.99","A","POB"
