"ZIPCode","State","City","County","StateFIPS","CountyFIPS","Latitude","Longitude","Preference","Type"
"40003","KY","Bagdad","Shelby","21","211","38.28","-85.04","A","GD"
"40004","KY","Bardstown","Nelson","21","179","37.81","-85.46","A","GD"
"40006","KY","Bedford","Trimble","21","223","38.6","-85.32","A","GD"
"40007","KY","Bethlehem","Henry","21","103","38.46","-85","A","GD"
"40008","KY","Bloomfield","Nelson","21","179","37.92","-85.27","A","GD"
"40009","KY","Bradfordsville","Marion","21","155","37.47","-85.12","A","GD"
"40010","KY","Buckner","Oldham","21","185","38.37","-85.44","A","GD"
"40011","KY","Campbellsburg","Henry","21","103","38.53","-85.19","A","GD"
"40012","KY","Chaplin","Nelson","21","179","37.9","-85.19","A","GD"
"40013","KY","Coxs Creek","Nelson","21","179","37.94","-85.47","A","GD"
"40014","KY","Crestwood","Oldham","21","185","38.34","-85.45","A","GD"
"40018","KY","Eastwood","Jefferson","21","111","38.27","-85.41","A","POB"
"40019","KY","Eminence","Henry","21","103","38.37","-85.18","A","GD"
"40020","KY","Fairfield","Nelson","21","179","37.93","-85.38","A","POB"
"40022","KY","Finchville","Shelby","21","211","38.15","-85.32","A","GD"
"40023","KY","Fisherville","Jefferson","21","111","38.17","-85.43","A","GD"
"40025","KY","Glenview","Jefferson","21","111","38.3","-85.65","A","POB"
"40026","KY","Goshen","Oldham","21","185","38.41","-85.56","A","GD"
"40027","KY","Harrods Creek","Jefferson","21","111","38.32","-85.63","A","POB"
"40031","KY","La Grange","Oldham","21","185","38.41","-85.39","A","GD"
"40032","KY","La Grange","Oldham","21","185","38.42","-85.39","A","PVT"
"40033","KY","Lebanon","Marion","21","155","37.56","-85.25","A","GD"
"40036","KY","Lockport","Henry","21","103","38.43","-84.99","A","GD"
"40037","KY","Loretto","Marion","21","155","37.65","-85.4","A","GD"
"40040","KY","Mackville","Washington","21","229","37.75","-85.05","A","GD"
"40041","KY","Masonic Home","Jefferson","21","111","38.26","-85.66","A","POB"
"40045","KY","Milton","Trimble","21","223","38.7","-85.36","A","GD"
"40046","KY","Mount Eden","Spencer","21","215","38.02","-85.17","A","GD"
"40047","KY","Mount Washington","Bullitt","21","29","38.04","-85.56","A","GD"
"40048","KY","Nazareth","Nelson","21","179","37.85","-85.47","A","POB"
"40049","KY","Nerinx","Marion","21","155","37.66","-85.4","A","POB"
"40050","KY","New Castle","Henry","21","103","38.44","-85.17","A","GD"
"40051","KY","New Haven","Nelson","21","179","37.65","-85.58","A","GD"
"40052","KY","New Hope","Nelson","21","179","37.6","-85.5","A","GD"
"40055","KY","Pendleton","Henry","21","103","38.49","-85.32","A","GD"
"40056","KY","Pewee Valley","Oldham","21","185","38.3","-85.49","A","GD"
"40057","KY","Pleasureville","Henry","21","103","38.38","-85.06","A","GD"
"40058","KY","Port Royal","Henry","21","103","38.43","-85.17","A","POB"
"40059","KY","Prospect","Jefferson","21","111","38.35","-85.59","A","GD"
"40060","KY","Raywick","Marion","21","155","37.54","-85.44","A","GD"
"40061","KY","Saint Catharine","Washington","21","229","37.69","-85.26","A","POB"
"40062","KY","Saint Francis","Marion","21","155","37.6","-85.43","A","GD"
"40063","KY","Saint Mary","Marion","21","155","37.57","-85.34","A","POB"
"40065","KY","Shelbyville","Shelby","21","211","38.21","-85.22","A","GD"
"40066","KY","Shelbyville","Shelby","21","211","38.21","-85.22","A","POB"
"40067","KY","Simpsonville","Shelby","21","211","38.21","-85.36","A","GD"
"40068","KY","Smithfield","Henry","21","103","38.4","-85.27","A","GD"
"40069","KY","Springfield","Washington","21","229","37.71","-85.23","A","GD"
"40070","KY","Sulphur","Henry","21","103","38.48","-85.26","A","GD"
"40071","KY","Taylorsville","Spencer","21","215","38.05","-85.35","A","GD"
"40075","KY","Turners Station","Henry","21","103","38.58","-85.13","A","GD"
"40076","KY","Waddy","Shelby","21","211","38.12","-85.07","A","GD"
"40077","KY","Westport","Oldham","21","185","38.48","-85.47","A","GD"
"40078","KY","Willisburg","Washington","21","229","37.85","-85.16","A","GD"
"40104","KY","Battletown","Meade","21","163","38.11","-86.34","A","GD"
"40107","KY","Boston","Nelson","21","179","37.76","-85.65","A","GD"
"40108","KY","Brandenburg","Meade","21","163","37.97","-86.14","A","GD"
"40109","KY","Brooks","Bullitt","21","29","38.06","-85.74","A","GD"
"40110","KY","Clermont","Bullitt","21","29","37.93","-85.66","A","POB"
"40111","KY","Cloverport","Breckinridge","21","27","37.82","-86.63","A","GD"
"40115","KY","Custer","Breckinridge","21","27","37.74","-86.24","A","GD"
"40117","KY","Ekron","Meade","21","163","37.92","-86.14","A","GD"
"40118","KY","Fairdale","Jefferson","21","111","38.11","-85.76","A","GD"
"40119","KY","Falls Of Rough","Grayson","21","85","37.6","-86.52","A","GD"
"40121","KY","Fort Knox","Hardin","21","93","37.9","-85.95","A","GD"
"40122","KY","Fort Knox","Hardin","21","93","37.9","-85.95","A","GD"
"40129","KY","Hillview","Bullitt","21","29","38.08","-85.66","A","POB"
"40140","KY","Garfield","Breckinridge","21","27","37.72","-86.28","A","GD"
"40142","KY","Guston","Meade","21","163","37.89","-86.2","A","GD"
"40143","KY","Hardinsburg","Breckinridge","21","27","37.76","-86.5","A","GD"
"40144","KY","Harned","Breckinridge","21","27","37.73","-86.39","A","GD"
"40145","KY","Hudson","Breckinridge","21","27","37.63","-86.3","A","GD"
"40146","KY","Irvington","Breckinridge","21","27","37.86","-86.32","A","GD"
"40150","KY","Lebanon Junction","Bullitt","21","29","37.85","-85.73","A","GD"
"40152","KY","Mc Daniels","Breckinridge","21","27","37.63","-86.44","A","GD"
"40153","KY","Mc Quady","Breckinridge","21","27","37.71","-86.52","A","POB"
"40155","KY","Muldraugh","Meade","21","163","37.94","-85.99","A","GD"
"40157","KY","Payneville","Meade","21","163","38.03","-86.41","A","GD"
"40159","KY","Radcliff","Hardin","21","93","37.82","-85.94","A","POB"
"40160","KY","Radcliff","Hardin","21","93","37.83","-85.94","A","GD"
"40161","KY","Rhodelia","Meade","21","163","38","-86.39","A","GD"
"40162","KY","Rineyville","Hardin","21","93","37.75","-85.98","A","GD"
"40165","KY","Shepherdsville","Bullitt","21","29","38","-85.69","A","GD"
"40166","KY","Shepherdsville","Bullitt","21","29","37.99","-85.72","A","PVT"
"40170","KY","Stephensport","Breckinridge","21","27","37.97","-86.51","A","GD"
"40171","KY","Union Star","Breckinridge","21","27","37.98","-86.45","A","GD"
"40175","KY","Vine Grove","Hardin","21","93","37.83","-86.03","A","GD"
"40176","KY","Webster","Breckinridge","21","27","37.92","-86.35","A","GD"
"40177","KY","West Point","Hardin","21","93","38","-85.94","A","GD"
"40178","KY","Westview","Breckinridge","21","27","37.65","-86.41","A","GD"
"40201","KY","Louisville","Jefferson","21","111","38.24","-85.77","A","POB"
"40202","KY","Louisville","Jefferson","21","111","38.25","-85.75","A","GD"
"40203","KY","Louisville","Jefferson","21","111","38.25","-85.76","A","GD"
"40204","KY","Louisville","Jefferson","21","111","38.24","-85.73","A","GD"
"40205","KY","Louisville","Jefferson","21","111","38.22","-85.69","A","GD"
"40206","KY","Louisville","Jefferson","21","111","38.26","-85.7","A","GD"
"40207","KY","Louisville","Jefferson","21","111","38.26","-85.65","A","GD"
"40208","KY","Louisville","Jefferson","21","111","38.22","-85.76","A","GD"
"40209","KY","Louisville","Jefferson","21","111","38.19","-85.75","A","GD"
"40210","KY","Louisville","Jefferson","21","111","38.23","-85.79","A","GD"
"40211","KY","Louisville","Jefferson","21","111","38.24","-85.81","A","GD"
"40212","KY","Louisville","Jefferson","21","111","38.26","-85.8","A","GD"
"40213","KY","Louisville","Jefferson","21","111","38.19","-85.72","A","GD"
"40214","KY","Louisville","Jefferson","21","111","38.16","-85.78","A","GD"
"40215","KY","Louisville","Jefferson","21","111","38.19","-85.78","A","GD"
"40216","KY","Louisville","Jefferson","21","111","38.19","-85.83","A","GD"
"40217","KY","Louisville","Jefferson","21","111","38.22","-85.74","A","GD"
"40218","KY","Louisville","Jefferson","21","111","38.19","-85.66","A","GD"
"40219","KY","Louisville","Jefferson","21","111","38.14","-85.68","A","GD"
"40220","KY","Louisville","Jefferson","21","111","38.22","-85.62","A","GD"
"40221","KY","Louisville","Jefferson","21","111","38.19","-85.75","A","POB"
"40222","KY","Louisville","Jefferson","21","111","38.26","-85.61","A","GD"
"40223","KY","Louisville","Jefferson","21","111","38.26","-85.55","A","GD"
"40224","KY","Louisville","Jefferson","21","111","38.23","-85.58","A","POB"
"40225","KY","Louisville","Jefferson","21","111","38.19","-85.65","A","PVT"
"40228","KY","Louisville","Jefferson","21","111","38.14","-85.63","A","GD"
"40229","KY","Louisville","Jefferson","21","111","38.09","-85.67","A","GD"
"40231","KY","Louisville","Jefferson","21","111","38.2","-85.7","A","POB"
"40232","KY","Louisville","Jefferson","21","111","38.18","-85.72","A","POB"
"40233","KY","Louisville","Jefferson","21","111","38.2","-85.7","A","POB"
"40241","KY","Louisville","Jefferson","21","111","38.31","-85.58","A","GD"
"40242","KY","Louisville","Jefferson","21","111","38.28","-85.59","A","GD"
"40243","KY","Louisville","Jefferson","21","111","38.24","-85.54","A","GD"
"40245","KY","Louisville","Jefferson","21","111","38.27","-85.47","A","GD"
"40250","KY","Louisville","Jefferson","21","111","38.22","-85.62","A","POB"
"40251","KY","Louisville","Jefferson","21","111","38.25","-85.8","A","POB"
"40252","KY","Louisville","Jefferson","21","111","38.26","-85.61","A","POB"
"40253","KY","Louisville","Jefferson","21","111","38.24","-85.53","A","POB"
"40255","KY","Louisville","Jefferson","21","111","38.22","-85.68","A","POB"
"40256","KY","Louisville","Jefferson","21","111","38.19","-85.81","A","POB"
"40257","KY","Louisville","Jefferson","21","111","38.25","-85.63","A","POB"
"40258","KY","Louisville","Jefferson","21","111","38.14","-85.87","A","GD"
"40259","KY","Louisville","Jefferson","21","111","38.25","-85.76","A","POB"
"40261","KY","Louisville","Jefferson","21","111","38.19","-85.65","A","POB"
"40266","KY","Louisville","Jefferson","21","111","38.13","-85.9","A","PVT"
"40268","KY","Louisville","Jefferson","21","111","38.15","-85.87","A","POB"
"40269","KY","Louisville","Jefferson","21","111","38.16","-85.51","A","POB"
"40270","KY","Louisville","Jefferson","21","111","38.25","-85.76","A","POB"
"40272","KY","Louisville","Jefferson","21","111","38.09","-85.86","A","GD"
"40280","KY","Louisville","Jefferson","21","111","38.25","-85.69","A","PVT"
"40281","KY","Louisville","Jefferson","21","111","38.15","-85.87","A","PVT"
"40282","KY","Louisville","Jefferson","21","111","38.13","-85.9","A","PVT"
"40283","KY","Louisville","Jefferson","21","111","38.13","-85.89","A","PVT"
"40285","KY","Louisville","Jefferson","21","111","38.18","-85.72","A","POB"
"40287","KY","Louisville","Jefferson","21","111","38.22","-85.68","A","PVT"
"40289","KY","Louisville","Jefferson","21","111","38.26","-85.76","A","PVT"
"40290","KY","Louisville","Jefferson","21","111","38.2","-85.7","A","POB"
"40291","KY","Louisville","Jefferson","21","111","38.14","-85.59","A","GD"
"40292","KY","Louisville","Jefferson","21","111","38.23","-85.67","A","PVT"
"40293","KY","Louisville","Jefferson","21","111","38.26","-85.76","A","GD"
"40294","KY","Louisville","Jefferson","21","111","38.26","-85.76","A","PVT"
"40295","KY","Louisville","Jefferson","21","111","38.25","-85.76","A","POB"
"40296","KY","Louisville","Jefferson","21","111","38.25","-85.76","A","PVT"
"40297","KY","Louisville","Jefferson","21","111","38.25","-85.76","A","PVT"
"40298","KY","Louisville","Jefferson","21","111","38.26","-85.75","A","POB"
"40299","KY","Louisville","Jefferson","21","111","38.18","-85.55","A","GD"
"40310","KY","Burgin","Mercer","21","167","37.75","-84.77","A","POB"
"40311","KY","Carlisle","Nicholas","21","181","38.32","-84.03","A","GD"
"40312","KY","Clay City","Powell","21","197","37.86","-83.93","A","GD"
"40313","KY","Clearfield","Rowan","21","205","38.15","-83.42","A","GD"
"40316","KY","Denniston","Menifee","21","165","37.92","-83.52","A","GD"
"40317","KY","Elliottville","Rowan","21","205","38.19","-83.27","A","POB"
"40319","KY","Farmers","Rowan","21","205","38.14","-83.54","A","POB"
"40322","KY","Frenchburg","Menifee","21","165","37.94","-83.63","A","GD"
"40324","KY","Georgetown","Scott","21","209","38.22","-84.55","A","GD"
"40328","KY","Gravel Switch","Marion","21","155","37.56","-85.03","A","GD"
"40330","KY","Harrodsburg","Mercer","21","167","37.77","-84.85","A","GD"
"40334","KY","Hope","Bath","21","11","38.02","-83.76","A","GD"
"40336","KY","Irvine","Estill","21","65","37.7","-83.98","A","GD"
"40337","KY","Jeffersonville","Montgomery","21","173","37.96","-83.84","A","GD"
"40339","KY","Keene","Jessamine","21","113","37.94","-84.64","A","POB"
"40340","KY","Nicholasville","Jessamine","21","113","37.88","-84.58","A","POB"
"40342","KY","Lawrenceburg","Anderson","21","5","38.01","-84.95","A","GD"
"40346","KY","Means","Menifee","21","165","37.97","-83.75","A","GD"
"40347","KY","Midway","Woodford","21","239","38.16","-84.7","A","GD"
"40348","KY","Millersburg","Bourbon","21","17","38.3","-84.15","A","POB"
"40350","KY","Moorefield","Nicholas","21","181","38.3","-83.87","A","GD"
"40351","KY","Morehead","Rowan","21","205","38.19","-83.44","A","GD"
"40353","KY","Mount Sterling","Montgomery","21","173","38.06","-83.94","A","GD"
"40355","KY","New Liberty","Owen","21","187","38.62","-84.89","A","GD"
"40356","KY","Nicholasville","Jessamine","21","113","37.89","-84.57","A","GD"
"40357","KY","North Middletown","Bourbon","21","17","38.14","-84.11","A","POB"
"40358","KY","Olympia","Bath","21","11","38.06","-83.68","A","GD"
"40359","KY","Owenton","Owen","21","187","38.47","-84.81","A","GD"
"40360","KY","Owingsville","Bath","21","11","38.15","-83.77","A","GD"
"40361","KY","Paris","Bourbon","21","17","38.21","-84.23","A","GD"
"40362","KY","Paris","Bourbon","21","17","38.21","-84.26","A","POB"
"40363","KY","Perry Park","Owen","21","187","38.51","-85.01","A","POB"
"40366","KY","Preston","Bath","21","11","38.08","-83.76","A","POB"
"40370","KY","Sadieville","Scott","21","209","38.4","-84.54","A","GD"
"40371","KY","Salt Lick","Bath","21","11","38.08","-83.61","A","GD"
"40372","KY","Salvisa","Mercer","21","167","37.91","-84.87","A","GD"
"40374","KY","Sharpsburg","Bath","21","11","38.21","-83.92","A","GD"
"40376","KY","Slade","Powell","21","197","37.78","-83.69","A","GD"
"40379","KY","Stamping Ground","Scott","21","209","38.31","-84.68","A","GD"
"40380","KY","Stanton","Powell","21","197","37.83","-83.81","A","GD"
"40383","KY","Versailles","Woodford","21","239","38.04","-84.73","A","GD"
"40384","KY","Versailles","Woodford","21","239","38.05","-84.73","A","PVT"
"40385","KY","Waco","Madison","21","151","37.74","-84.13","A","GD"
"40387","KY","Wellington","Menifee","21","165","37.94","-83.49","A","GD"
"40390","KY","Wilmore","Jessamine","21","113","37.86","-84.66","A","GD"
"40391","KY","Winchester","Clark","21","49","37.98","-84.16","A","GD"
"40392","KY","Winchester","Clark","21","49","37.99","-84.18","A","POB"
"40402","KY","Annville","Jackson","21","109","37.29","-83.98","A","GD"
"40403","KY","Berea","Madison","21","151","37.58","-84.28","A","GD"
"40404","KY","Berea","Madison","21","151","37.57","-84.29","A","PVT"
"40405","KY","Bighill","Madison","21","151","37.55","-84.21","A","POB"
"40409","KY","Brodhead","Rockcastle","21","203","37.37","-84.43","A","GD"
"40410","KY","Bryantsville","Garrard","21","79","37.71","-84.65","A","POB"
"40419","KY","Crab Orchard","Lincoln","21","137","37.45","-84.5","A","GD"
"40422","KY","Danville","Boyle","21","21","37.64","-84.78","A","GD"
"40423","KY","Danville","Boyle","21","21","37.64","-84.77","A","POB"
"40434","KY","Gray Hawk","Jackson","21","109","37.39","-83.94","A","POB"
"40437","KY","Hustonville","Lincoln","21","137","37.45","-84.83","A","GD"
"40440","KY","Junction City","Boyle","21","21","37.58","-84.8","A","GD"
"40442","KY","Kings Mountain","Lincoln","21","137","37.35","-84.72","A","GD"
"40444","KY","Lancaster","Garrard","21","79","37.66","-84.6","A","GD"
"40445","KY","Livingston","Rockcastle","21","203","37.3","-84.2","A","GD"
"40446","KY","Lancaster","Garrard","21","79","37.62","-84.58","A","PVT"
"40447","KY","Mc Kee","Jackson","21","109","37.45","-84.02","A","GD"
"40448","KY","Mc Kinney","Lincoln","21","137","37.45","-84.76","A","POB"
"40452","KY","Mitchellsburg","Boyle","21","21","37.6","-84.96","A","POB"
"40456","KY","Mount Vernon","Rockcastle","21","203","37.36","-84.33","A","GD"
"40460","KY","Orlando","Rockcastle","21","203","37.39","-84.25","A","GD"
"40461","KY","Paint Lick","Garrard","21","79","37.59","-84.41","A","GD"
"40464","KY","Parksville","Boyle","21","21","37.55","-84.93","A","GD"
"40468","KY","Perryville","Boyle","21","21","37.65","-84.97","A","GD"
"40472","KY","Ravenna","Estill","21","65","37.7","-83.9","A","GD"
"40473","KY","Renfro Valley","Rockcastle","21","203","37.39","-84.33","A","POB"
"40475","KY","Richmond","Madison","21","151","37.76","-84.3","A","GD"
"40476","KY","Richmond","Madison","21","151","37.75","-84.29","A","POB"
"40481","KY","Sandgap","Jackson","21","109","37.45","-84.09","A","GD"
"40484","KY","Stanford","Lincoln","21","137","37.52","-84.67","A","GD"
"40486","KY","Tyner","Jackson","21","109","37.37","-83.88","A","GD"
"40488","KY","Waneta","Jackson","21","109","37.47","-84.04","A","POB"
"40489","KY","Waynesburg","Lincoln","21","137","37.36","-84.63","A","GD"
"40492","KY","Wildie","Rockcastle","21","203","37.42","-84.3","A","POB"
"40502","KY","Lexington","Fayette","21","67","38.02","-84.48","A","GD"
"40503","KY","Lexington","Fayette","21","67","38.01","-84.53","A","GD"
"40504","KY","Lexington","Fayette","21","67","38.04","-84.54","A","GD"
"40505","KY","Lexington","Fayette","21","67","38.06","-84.46","A","GD"
"40506","KY","Lexington","Fayette","21","67","38.03","-84.51","A","PVT"
"40507","KY","Lexington","Fayette","21","67","38.05","-84.5","A","GD"
"40508","KY","Lexington","Fayette","21","67","38.05","-84.49","A","GD"
"40509","KY","Lexington","Fayette","21","67","38.01","-84.41","A","GD"
"40510","KY","Lexington","Fayette","21","67","38.06","-84.6","A","GD"
"40511","KY","Lexington","Fayette","21","67","38.1","-84.51","A","GD"
"40512","KY","Lexington","Fayette","21","67","38.14","-84.47","A","POB"
"40513","KY","Lexington","Fayette","21","67","38.01","-84.58","A","GD"
"40514","KY","Lexington","Fayette","21","67","37.98","-84.56","A","GD"
"40515","KY","Lexington","Fayette","21","67","37.96","-84.47","A","GD"
"40516","KY","Lexington","Fayette","21","67","38.07","-84.39","A","GD"
"40517","KY","Lexington","Fayette","21","67","37.98","-84.49","A","GD"
"40522","KY","Lexington","Fayette","21","67","38.02","-84.49","A","POB"
"40523","KY","Lexington","Fayette","21","67","37.99","-84.52","A","POB"
"40524","KY","Lexington","Fayette","21","67","37.99","-84.54","A","POB"
"40526","KY","Lexington","Fayette","21","67","38.04","-84.51","A","PVT"
"40533","KY","Lexington","Fayette","21","67","38.04","-84.54","A","POB"
"40536","KY","Lexington","Fayette","21","67","38.03","-84.51","A","PVT"
"40544","KY","Lexington","Fayette","21","67","38.04","-84.54","A","POB"
"40546","KY","Lexington","Fayette","21","67","38.04","-84.51","A","PVT"
"40550","KY","Lexington","Fayette","21","67","38.14","-84.47","A","PVT"
"40555","KY","Lexington","Fayette","21","67","37.98","-84.43","A","POB"
"40574","KY","Lexington","Fayette","21","67","38.14","-84.47","A","POB"
"40575","KY","Lexington","Fayette","21","67","38.14","-84.47","A","POB"
"40576","KY","Lexington","Fayette","21","67","38.14","-84.47","A","POB"
"40577","KY","Lexington","Fayette","21","67","38.07","-84.51","A","POB"
"40578","KY","Lexington","Fayette","21","67","38.08","-84.5","A","POB"
"40579","KY","Lexington","Fayette","21","67","38.14","-84.47","A","POB"
"40580","KY","Lexington","Fayette","21","67","38.14","-84.47","A","POB"
"40581","KY","Lexington","Fayette","21","67","38.14","-84.47","A","POB"
"40582","KY","Lexington","Fayette","21","67","38.14","-84.47","A","POB"
"40583","KY","Lexington","Fayette","21","67","38.14","-84.47","A","POB"
"40588","KY","Lexington","Fayette","21","67","38.05","-84.5","A","POB"
"40591","KY","Lexington","Fayette","21","67","38.05","-84.5","A","POB"
"40598","KY","Lexington","Fayette","21","67","38.05","-84.5","A","PVT"
"40601","KY","Frankfort","Franklin","21","73","38.2","-84.87","A","GD"
"40602","KY","Frankfort","Franklin","21","73","38.21","-84.82","A","POB"
"40603","KY","Frankfort","Franklin","21","73","38.2","-84.83","A","POB"
"40604","KY","Frankfort","Franklin","21","73","38.17","-84.87","A","POB"
"40618","KY","Frankfort","Franklin","21","73","38.18","-84.9","A","PVT"
"40619","KY","Frankfort","Franklin","21","73","38.18","-84.9","A","PVT"
"40620","KY","Frankfort","Franklin","21","73","38.18","-84.9","A","PVT"
"40621","KY","Frankfort","Franklin","21","73","38.2","-84.87","A","PVT"
"40622","KY","Frankfort","Franklin","21","73","38.2","-84.87","A","PVT"
"40701","KY","Corbin","Whitley","21","235","36.94","-84.11","A","GD"
"40702","KY","Corbin","Whitley","21","235","36.95","-84.09","A","POB"
"40724","KY","Bush","Laurel","21","125","37.09","-83.88","A","POB"
"40729","KY","East Bernstadt","Laurel","21","125","37.22","-84.14","A","GD"
"40730","KY","Emlyn","Whitley","21","235","36.7","-84.15","A","POB"
"40734","KY","Gray","Knox","21","121","36.93","-83.98","A","GD"
"40737","KY","Keavy","Laurel","21","125","37","-84.13","A","GD"
"40740","KY","Lily","Laurel","21","125","37.02","-84.05","A","GD"
"40741","KY","London","Laurel","21","125","37.14","-84.09","A","GD"
"40742","KY","London","Laurel","21","125","37.09","-84.15","A","POB"
"40743","KY","London","Laurel","21","125","37.08","-84.12","A","POB"
"40744","KY","London","Laurel","21","125","37.06","-84.09","A","GD"
"40745","KY","London","Laurel","21","125","37.09","-84.15","A","POB"
"40750","KY","London","Laurel","21","125","37.13","-84.08","A","PVT"
"40755","KY","Pittsburg","Laurel","21","125","37.16","-84.1","A","POB"
"40759","KY","Rockholds","Whitley","21","235","36.83","-84.06","A","GD"
"40763","KY","Siler","Whitley","21","235","36.69","-83.93","A","GD"
"40769","KY","Williamsburg","Whitley","21","235","36.72","-84.15","A","GD"
"40771","KY","Woodbine","Knox","21","121","36.88","-84.06","A","GD"
"40801","KY","Ages Brookside","Harlan","21","95","36.86","-83.25","A","POB"
"40803","KY","Asher","Leslie","21","131","36.99","-83.39","A","POB"
"40806","KY","Baxter","Harlan","21","95","36.87","-83.32","A","GD"
"40807","KY","Benham","Harlan","21","95","36.96","-82.95","A","POB"
"40808","KY","Big Laurel","Harlan","21","95","36.98","-83.25","A","GD"
"40810","KY","Bledsoe","Harlan","21","95","36.92","-83.33","A","GD"
"40813","KY","Calvin","Bell","21","13","36.74","-83.6","A","GD"
"40815","KY","Cawood","Harlan","21","95","36.78","-83.24","A","GD"
"40816","KY","Chappell","Leslie","21","131","37","-83.32","A","GD"
"40818","KY","Coalgood","Harlan","21","95","36.81","-83.25","A","GD"
"40819","KY","Coldiron","Harlan","21","95","36.83","-83.48","A","GD"
"40820","KY","Cranks","Harlan","21","95","36.76","-83.17","A","GD"
"40823","KY","Cumberland","Harlan","21","95","36.97","-82.99","A","GD"
"40824","KY","Dayhoit","Harlan","21","95","36.84","-83.38","A","POB"
"40826","KY","Eolia","Letcher","21","133","37.05","-82.79","A","GD"
"40827","KY","Essie","Leslie","21","131","37.03","-83.49","A","GD"
"40828","KY","Evarts","Harlan","21","95","36.88","-83.16","A","GD"
"40829","KY","Grays Knob","Harlan","21","95","36.81","-83.3","A","POB"
"40830","KY","Gulston","Harlan","21","95","36.77","-83.33","A","GD"
"40831","KY","Harlan","Harlan","21","95","36.82","-83.32","A","GD"
"40840","KY","Helton","Leslie","21","131","36.92","-83.42","A","GD"
"40843","KY","Holmes Mill","Harlan","21","95","36.87","-82.98","A","GD"
"40844","KY","Hoskinston","Leslie","21","131","37.07","-83.38","A","POB"
"40845","KY","Hulen","Bell","21","13","36.79","-83.52","A","GD"
"40847","KY","Kenvir","Harlan","21","95","36.85","-83.16","A","POB"
"40849","KY","Lejunior","Harlan","21","95","36.89","-83.13","A","POB"
"40854","KY","Loyall","Harlan","21","95","36.85","-83.35","A","POB"
"40855","KY","Lynch","Harlan","21","95","36.96","-82.91","A","POB"
"40856","KY","Miracle","Bell","21","13","36.73","-83.56","A","GD"
"40858","KY","Mozelle","Leslie","21","131","37.01","-83.4","A","GD"
"40862","KY","Partridge","Letcher","21","133","37.01","-82.88","A","GD"
"40863","KY","Pathfork","Harlan","21","95","36.75","-83.45","A","GD"
"40865","KY","Putney","Harlan","21","95","36.91","-83.22","A","GD"
"40868","KY","Stinnett","Leslie","21","131","37.1","-83.42","A","GD"
"40870","KY","Totz","Harlan","21","95","36.93","-83.14","A","GD"
"40873","KY","Wallins Creek","Harlan","21","95","36.83","-83.41","A","GD"
"40874","KY","Warbranch","Leslie","21","131","36.99","-83.45","A","GD"
"40902","KY","Arjay","Bell","21","13","36.83","-83.63","A","GD"
"40903","KY","Artemus","Knox","21","121","36.82","-83.83","A","GD"
"40906","KY","Barbourville","Knox","21","121","36.86","-83.88","A","GD"
"40913","KY","Beverly","Bell","21","13","36.94","-83.53","A","GD"
"40914","KY","Big Creek","Clay","21","51","37.12","-83.56","A","GD"
"40915","KY","Bimble","Knox","21","121","36.88","-83.82","A","GD"
"40921","KY","Bryants Store","Knox","21","121","36.78","-83.91","A","GD"
"40923","KY","Cannon","Knox","21","121","36.92","-83.85","A","GD"
"40927","KY","Closplint","Harlan","21","95","36.89","-83.05","A","GD"
"40930","KY","Dewitt","Knox","21","121","36.87","-83.73","A","POB"
"40932","KY","Fall Rock","Clay","21","51","37.22","-83.79","A","POB"
"40935","KY","Flat Lick","Knox","21","121","36.86","-83.75","A","GD"
"40939","KY","Fourmile","Bell","21","13","36.79","-83.74","A","GD"
"40940","KY","Frakes","Bell","21","13","36.61","-83.92","A","GD"
"40941","KY","Garrard","Clay","21","51","37.13","-83.74","A","POB"
"40943","KY","Girdler","Knox","21","121","36.95","-83.84","A","GD"
"40944","KY","Goose Rock","Clay","21","51","37.09","-83.69","A","POB"
"40946","KY","Green Road","Knox","21","121","36.99","-83.82","A","GD"
"40949","KY","Heidrick","Knox","21","121","36.88","-83.88","A","GD"
"40951","KY","Hima","Clay","21","51","37.12","-83.78","A","POB"
"40953","KY","Hinkle","Knox","21","121","36.93","-83.83","A","GD"
"40955","KY","Ingram","Bell","21","13","36.76","-83.78","A","POB"
"40958","KY","Kettle Island","Bell","21","13","36.8","-83.59","A","GD"
"40962","KY","Manchester","Clay","21","51","37.17","-83.76","A","GD"
"40964","KY","Mary Alice","Harlan","21","95","36.78","-83.33","A","GD"
"40965","KY","Middlesboro","Bell","21","13","36.62","-83.72","A","GD"
"40972","KY","Oneida","Clay","21","51","37.27","-83.62","A","GD"
"40977","KY","Pineville","Bell","21","13","36.74","-83.72","A","GD"
"40979","KY","Roark","Leslie","21","131","37.01","-83.51","A","GD"
"40981","KY","Saul","Perry","21","193","37.35","-83.48","A","POB"
"40982","KY","Scalf","Knox","21","121","36.93","-83.7","A","GD"
"40983","KY","Sextons Creek","Clay","21","51","37.33","-83.75","A","GD"
"40988","KY","Stoney Fork","Bell","21","13","36.84","-83.52","A","GD"
"40995","KY","Trosper","Knox","21","121","36.76","-83.82","A","GD"
"40997","KY","Walker","Knox","21","121","36.89","-83.69","A","GD"
"41001","KY","Alexandria","Campbell","21","37","38.94","-84.39","A","GD"
"41002","KY","Augusta","Bracken","21","23","38.76","-83.99","A","GD"
"41003","KY","Berry","Harrison","21","97","38.53","-84.39","A","GD"
"41004","KY","Brooksville","Bracken","21","23","38.68","-84.1","A","GD"
"41005","KY","Burlington","Boone","21","15","39.02","-84.75","A","GD"
"41006","KY","Butler","Pendleton","21","191","38.78","-84.35","A","GD"
"41007","KY","California","Campbell","21","37","38.9","-84.29","A","GD"
"41008","KY","Carrollton","Carroll","21","41","38.67","-85.17","A","GD"
"41010","KY","Corinth","Grant","21","81","38.49","-84.61","A","GD"
"41011","KY","Covington","Kenton","21","117","39.07","-84.52","A","GD"
"41012","KY","Covington","Kenton","21","117","39.07","-84.53","A","POB"
"41014","KY","Covington","Kenton","21","117","39.07","-84.5","A","GD"
"41015","KY","Latonia","Kenton","21","117","39.01","-84.49","A","GD"
"41016","KY","Covington","Kenton","21","117","39.09","-84.55","A","GD"
"41017","KY","Ft Mitchell","Kenton","21","117","39.03","-84.56","A","GD"
"41018","KY","Erlanger","Kenton","21","117","39.01","-84.6","A","GD"
"41019","KY","Covington","Kenton","21","117","39.07","-84.53","A","PVT"
"41021","KY","Hebron","Boone","21","15","39.03","-84.62","A","PVT"
"41022","KY","Florence","Boone","21","15","38.99","-84.64","A","POB"
"41025","KY","Erlanger","Kenton","21","117","39.06","-84.63","A","PVT"
"41030","KY","Crittenden","Grant","21","81","38.79","-84.6","A","GD"
"41031","KY","Cynthiana","Harrison","21","97","38.4","-84.29","A","GD"
"41033","KY","De Mossville","Pendleton","21","191","38.78","-84.46","A","GD"
"41034","KY","Dover","Mason","21","161","38.72","-83.89","A","GD"
"41035","KY","Dry Ridge","Grant","21","81","38.72","-84.65","A","GD"
"41037","KY","Elizaville","Fleming","21","69","38.42","-83.83","A","POB"
"41039","KY","Ewing","Fleming","21","69","38.41","-83.88","A","GD"
"41040","KY","Falmouth","Pendleton","21","191","38.66","-84.33","A","GD"
"41041","KY","Flemingsburg","Fleming","21","69","38.42","-83.73","A","GD"
"41042","KY","Florence","Boone","21","15","38.99","-84.65","A","GD"
"41043","KY","Foster","Bracken","21","23","38.78","-84.19","A","GD"
"41044","KY","Germantown","Bracken","21","23","38.62","-83.98","A","GD"
"41045","KY","Ghent","Carroll","21","41","38.73","-85.03","A","GD"
"41046","KY","Glencoe","Gallatin","21","77","38.72","-84.81","A","GD"
"41048","KY","Hebron","Boone","21","15","39.08","-84.69","A","GD"
"41049","KY","Hillsboro","Fleming","21","69","38.27","-83.65","A","GD"
"41051","KY","Independence","Kenton","21","117","38.95","-84.55","A","GD"
"41052","KY","Jonesville","Grant","21","81","38.66","-84.78","A","GD"
"41053","KY","Kenton","Kenton","21","117","38.86","-84.46","A","POB"
"41054","KY","Mason","Grant","21","81","38.58","-84.59","A","POB"
"41055","KY","Mayslick","Mason","21","161","38.51","-83.85","A","GD"
"41056","KY","Maysville","Mason","21","161","38.62","-83.76","A","GD"
"41059","KY","Melbourne","Campbell","21","37","39.01","-84.35","A","GD"
"41061","KY","Milford","Bracken","21","23","38.58","-84.16","A","POB"
"41062","KY","Minerva","Mason","21","161","38.7","-83.92","A","POB"
"41063","KY","Morning View","Kenton","21","117","38.85","-84.49","A","GD"
"41064","KY","Mount Olivet","Robertson","21","201","38.51","-84.05","A","GD"
"41065","KY","Muses Mills","Fleming","21","69","38.35","-83.53","A","POB"
"41071","KY","Newport","Campbell","21","37","39.08","-84.49","A","GD"
"41072","KY","Newport","Campbell","21","37","39.08","-84.48","A","POB"
"41073","KY","Bellevue","Campbell","21","37","39.1","-84.48","A","GD"
"41074","KY","Dayton","Campbell","21","37","39.11","-84.47","A","GD"
"41075","KY","Fort Thomas","Campbell","21","37","39.07","-84.45","A","GD"
"41076","KY","Newport","Campbell","21","37","39.02","-84.44","A","GD"
"41080","KY","Petersburg","Boone","21","15","39.06","-84.84","A","GD"
"41081","KY","Plummers Landing","Fleming","21","69","38.31","-83.57","A","POB"
"41083","KY","Sanders","Carroll","21","41","38.68","-84.96","A","GD"
"41085","KY","Silver Grove","Campbell","21","37","39.03","-84.39","A","POB"
"41086","KY","Sparta","Gallatin","21","77","38.71","-84.88","A","GD"
"41091","KY","Union","Boone","21","15","38.93","-84.7","A","GD"
"41092","KY","Verona","Boone","21","15","38.81","-84.69","A","GD"
"41093","KY","Wallingford","Fleming","21","69","38.39","-83.56","A","GD"
"41094","KY","Walton","Boone","21","15","38.88","-84.62","A","GD"
"41095","KY","Warsaw","Gallatin","21","77","38.78","-84.86","A","GD"
"41096","KY","Washington","Mason","21","161","38.62","-83.81","A","POB"
"41097","KY","Williamstown","Grant","21","81","38.63","-84.57","A","GD"
"41098","KY","Worthville","Carroll","21","41","38.59","-85.04","A","GD"
"41099","KY","Newport","Campbell","21","37","39.04","-84.47","A","PVT"
"41101","KY","Ashland","Boyd","21","19","38.47","-82.64","A","GD"
"41102","KY","Ashland","Boyd","21","19","38.44","-82.7","A","GD"
"41105","KY","Ashland","Boyd","21","19","38.43","-82.67","A","POB"
"41114","KY","Ashland","Boyd","21","19","38.46","-82.64","A","PVT"
"41121","KY","Argillite","Greenup","21","89","38.46","-82.83","A","GD"
"41124","KY","Blaine","Lawrence","21","127","38.03","-82.84","A","GD"
"41128","KY","Carter","Carter","21","43","38.43","-83.13","A","POB"
"41129","KY","Catlettsburg","Boyd","21","19","38.34","-82.62","A","GD"
"41132","KY","Denton","Carter","21","43","38.25","-82.84","A","GD"
"41135","KY","Emerson","Lewis","21","135","38.37","-83.29","A","GD"
"41139","KY","Flatwoods","Greenup","21","89","38.52","-82.72","A","GD"
"41141","KY","Garrison","Lewis","21","135","38.58","-83.15","A","GD"
"41142","KY","Grahn","Carter","21","43","38.29","-83.08","A","POB"
"41143","KY","Grayson","Carter","21","43","38.32","-82.95","A","GD"
"41144","KY","Greenup","Greenup","21","89","38.56","-82.86","A","GD"
"41146","KY","Hitchins","Carter","21","43","38.27","-82.9","A","GD"
"41149","KY","Isonville","Elliott","21","63","38.08","-83.04","A","GD"
"41159","KY","Martha","Lawrence","21","127","38","-82.95","A","GD"
"41160","KY","Mazie","Lawrence","21","127","38.03","-82.86","A","GD"
"41164","KY","Olive Hill","Carter","21","43","38.29","-83.18","A","GD"
"41166","KY","Quincy","Lewis","21","135","38.64","-83.11","A","GD"
"41168","KY","Rush","Boyd","21","19","38.32","-82.78","A","GD"
"41169","KY","Russell","Greenup","21","89","38.53","-82.72","A","GD"
"41171","KY","Sandy Hook","Elliott","21","63","38.09","-83.09","A","GD"
"41173","KY","Soldier","Carter","21","43","38.26","-83.3","A","POB"
"41174","KY","South Portsmouth","Greenup","21","89","38.71","-83.03","A","GD"
"41175","KY","South Shore","Greenup","21","89","38.69","-82.94","A","GD"
"41179","KY","Vanceburg","Lewis","21","135","38.54","-83.37","A","GD"
"41180","KY","Webbville","Lawrence","21","127","38.14","-82.85","A","GD"
"41181","KY","Willard","Carter","21","43","38.21","-82.9","A","POB"
"41183","KY","Worthington","Greenup","21","89","38.55","-82.74","A","GD"
"41189","KY","Tollesboro","Lewis","21","135","38.55","-83.55","A","GD"
"41201","KY","Adams","Lawrence","21","127","38.06","-82.74","A","GD"
"41203","KY","Beauty","Martin","21","159","37.84","-82.43","A","GD"
"41204","KY","Boons Camp","Johnson","21","115","37.82","-82.69","A","GD"
"41214","KY","Debord","Martin","21","159","37.81","-82.59","A","GD"
"41216","KY","East Point","Johnson","21","115","37.73","-82.8","A","GD"
"41219","KY","Flatgap","Johnson","21","115","37.92","-82.89","A","GD"
"41222","KY","Hagerhill","Johnson","21","115","37.78","-82.83","A","GD"
"41224","KY","Inez","Martin","21","159","37.86","-82.54","A","GD"
"41226","KY","Keaton","Johnson","21","115","37.99","-82.95","A","GD"
"41230","KY","Louisa","Lawrence","21","127","38.08","-82.64","A","GD"
"41231","KY","Lovely","Martin","21","159","37.81","-82.4","A","GD"
"41232","KY","Lowmansville","Lawrence","21","127","37.92","-82.74","A","GD"
"41234","KY","Meally","Johnson","21","115","37.8","-82.74","A","GD"
"41238","KY","Oil Springs","Johnson","21","115","37.86","-82.95","A","GD"
"41240","KY","Paintsville","Johnson","21","115","37.83","-82.78","A","GD"
"41250","KY","Pilgrim","Martin","21","159","37.74","-82.47","A","GD"
"41254","KY","River","Johnson","21","115","37.89","-82.72","A","GD"
"41255","KY","Sitka","Johnson","21","115","37.92","-82.84","A","GD"
"41256","KY","Staffordsville","Johnson","21","115","37.83","-82.86","A","GD"
"41257","KY","Stambaugh","Johnson","21","115","37.93","-82.81","A","GD"
"41260","KY","Thelma","Johnson","21","115","37.83","-82.76","A","GD"
"41262","KY","Tomahawk","Martin","21","159","37.87","-82.6","A","GD"
"41263","KY","Tutor Key","Johnson","21","115","37.84","-82.76","A","GD"
"41264","KY","Ulysses","Lawrence","21","127","37.95","-82.67","A","GD"
"41265","KY","Van Lear","Johnson","21","115","37.75","-82.71","A","GD"
"41267","KY","Warfield","Martin","21","159","37.86","-82.42","A","GD"
"41268","KY","West Van Lear","Johnson","21","115","37.79","-82.78","A","POB"
"41271","KY","Williamsport","Johnson","21","115","37.83","-82.73","A","GD"
"41274","KY","Wittensville","Johnson","21","115","37.86","-82.81","A","GD"
"41301","KY","Campton","Wolfe","21","237","37.72","-83.51","A","GD"
"41310","KY","Bays","Breathitt","21","25","37.62","-83.21","A","GD"
"41311","KY","Beattyville","Lee","21","129","37.58","-83.7","A","GD"
"41314","KY","Booneville","Owsley","21","189","37.43","-83.68","A","GD"
"41317","KY","Clayhole","Breathitt","21","25","37.45","-83.19","A","GD"
"41332","KY","Hazel Green","Wolfe","21","237","37.79","-83.37","A","GD"
"41339","KY","Jackson","Breathitt","21","25","37.53","-83.32","A","GD"
"41347","KY","Lone","Lee","21","129","37.53","-83.6","A","POB"
"41348","KY","Lost Creek","Breathitt","21","25","37.43","-83.32","A","GD"
"41351","KY","Mistletoe","Owsley","21","189","37.32","-83.58","A","GD"
"41352","KY","Mize","Morgan","21","175","37.82","-83.33","A","GD"
"41360","KY","Pine Ridge","Wolfe","21","237","37.78","-83.63","A","GD"
"41364","KY","Ricetown","Owsley","21","189","37.4","-83.61","A","GD"
"41365","KY","Rogers","Wolfe","21","237","37.71","-83.64","A","GD"
"41366","KY","Rousseau","Breathitt","21","25","37.59","-83.23","A","GD"
"41367","KY","Rowdy","Perry","21","193","37.42","-83.21","A","GD"
"41368","KY","Saint Helens","Lee","21","129","37.58","-83.65","A","POB"
"41385","KY","Vancleve","Breathitt","21","25","37.64","-83.38","A","GD"
"41386","KY","Vincent","Owsley","21","189","37.45","-83.81","A","GD"
"41390","KY","Whick","Breathitt","21","25","37.41","-83.38","A","GD"
"41397","KY","Zoe","Lee","21","129","37.69","-83.67","A","GD"
"41408","KY","Cannel City","Morgan","21","175","37.79","-83.28","A","GD"
"41413","KY","Crockett","Morgan","21","175","37.99","-83.09","A","POB"
"41421","KY","Elkfork","Morgan","21","175","37.99","-83.18","A","GD"
"41425","KY","Ezel","Morgan","21","175","37.88","-83.44","A","GD"
"41426","KY","Falcon","Magoffin","21","153","37.78","-83.01","A","POB"
"41451","KY","Malone","Morgan","21","175","37.87","-83.26","A","POB"
"41464","KY","Royalton","Magoffin","21","153","37.67","-83","A","GD"
"41465","KY","Salyersville","Magoffin","21","153","37.74","-83.09","A","GD"
"41472","KY","West Liberty","Morgan","21","175","37.93","-83.23","A","GD"
"41477","KY","Wrigley","Morgan","21","175","37.99","-83.3","A","POB"
"41501","KY","Pikeville","Pike","21","195","37.48","-82.53","A","GD"
"41502","KY","Pikeville","Pike","21","195","37.48","-82.52","A","POB"
"41503","KY","South Williamson","Pike","21","195","37.67","-82.28","A","GD"
"41512","KY","Ashcamp","Pike","21","195","37.25","-82.48","A","GD"
"41513","KY","Belcher","Pike","21","195","37.36","-82.35","A","GD"
"41514","KY","Belfry","Pike","21","195","37.65","-82.3","A","GD"
"41517","KY","Burdine","Letcher","21","133","37.19","-82.6","A","GD"
"41519","KY","Canada","Pike","21","195","37.6","-82.33","A","GD"
"41520","KY","Dorton","Pike","21","195","37.28","-82.58","A","POB"
"41522","KY","Elkhorn City","Pike","21","195","37.31","-82.39","A","GD"
"41524","KY","Fedscreek","Pike","21","195","37.4","-82.25","A","GD"
"41526","KY","Fords Branch","Pike","21","195","37.43","-82.51","A","POB"
"41527","KY","Forest Hills","Pike","21","195","37.64","-82.28","A","GD"
"41528","KY","Freeburn","Pike","21","195","37.56","-82.15","A","GD"
"41531","KY","Hardy","Pike","21","195","37.61","-82.23","A","GD"
"41534","KY","Hellier","Pike","21","195","37.27","-82.49","A","GD"
"41535","KY","Huddy","Pike","21","195","37.6","-82.28","A","GD"
"41537","KY","Jenkins","Letcher","21","133","37.21","-82.62","A","GD"
"41538","KY","Jonancy","Pike","21","195","37.32","-82.59","A","POB"
"41539","KY","Kimper","Pike","21","195","37.5","-82.35","A","GD"
"41540","KY","Lick Creek","Pike","21","195","37.39","-82.33","A","GD"
"41542","KY","Lookout","Pike","21","195","37.31","-82.47","A","POB"
"41543","KY","Mc Andrews","Pike","21","195","37.56","-82.27","A","GD"
"41544","KY","Mc Carr","Pike","21","195","37.61","-82.17","A","GD"
"41547","KY","Majestic","Pike","21","195","37.55","-82.1","A","GD"
"41548","KY","Mouthcard","Pike","21","195","37.37","-82.25","A","GD"
"41549","KY","Myra","Pike","21","195","37.29","-82.59","A","POB"
"41553","KY","Phelps","Pike","21","195","37.5","-82.16","A","GD"
"41554","KY","Phyllis","Pike","21","195","37.45","-82.32","A","GD"
"41555","KY","Pinsonfork","Pike","21","195","37.54","-82.26","A","GD"
"41557","KY","Raccoon","Pike","21","195","37.5","-82.45","A","GD"
"41558","KY","Ransom","Pike","21","195","37.54","-82.21","A","GD"
"41559","KY","Regina","Pike","21","195","37.37","-82.4","A","GD"
"41560","KY","Robinson Creek","Pike","21","195","37.4","-82.57","A","GD"
"41561","KY","Rockhouse","Pike","21","195","37.33","-82.45","A","POB"
"41562","KY","Shelbiana","Pike","21","195","37.42","-82.47","A","GD"
"41563","KY","Shelby Gap","Pike","21","195","37.23","-82.54","A","GD"
"41564","KY","Sidney","Pike","21","195","37.61","-82.36","A","GD"
"41566","KY","Steele","Pike","21","195","37.4","-82.21","A","GD"
"41567","KY","Stone","Pike","21","195","37.58","-82.28","A","GD"
"41568","KY","Stopover","Pike","21","195","37.5","-82.06","A","GD"
"41571","KY","Varney","Pike","21","195","37.64","-82.45","A","GD"
"41572","KY","Virgie","Pike","21","195","37.32","-82.62","A","GD"
"41601","KY","Allen","Floyd","21","71","37.61","-82.72","A","GD"
"41602","KY","Auxier","Floyd","21","71","37.74","-82.75","A","GD"
"41603","KY","Banner","Floyd","21","71","37.57","-82.7","A","GD"
"41604","KY","Beaver","Floyd","21","71","37.38","-82.66","A","GD"
"41605","KY","Betsy Layne","Floyd","21","71","37.55","-82.63","A","GD"
"41606","KY","Bevinsville","Floyd","21","71","37.36","-82.73","A","GD"
"41607","KY","Blue River","Floyd","21","71","37.63","-82.84","A","GD"
"41612","KY","Bypro","Floyd","21","71","37.36","-82.72","A","GD"
"41615","KY","Dana","Floyd","21","71","37.55","-82.69","A","GD"
"41616","KY","David","Floyd","21","71","37.59","-82.87","A","GD"
"41619","KY","Drift","Floyd","21","71","37.49","-82.75","A","GD"
"41621","KY","Dwale","Floyd","21","71","37.62","-82.73","A","GD"
"41622","KY","Eastern","Floyd","21","71","37.52","-82.81","A","GD"
"41630","KY","Garrett","Floyd","21","71","37.47","-82.86","A","GD"
"41631","KY","Grethel","Floyd","21","71","37.47","-82.66","A","GD"
"41632","KY","Gunlock","Magoffin","21","153","37.56","-82.93","A","GD"
"41635","KY","Harold","Floyd","21","71","37.51","-82.63","A","GD"
"41636","KY","Hi Hat","Floyd","21","71","37.39","-82.73","A","GD"
"41640","KY","Hueysville","Floyd","21","71","37.48","-82.91","A","GD"
"41642","KY","Ivel","Floyd","21","71","37.59","-82.66","A","GD"
"41643","KY","Lackey","Floyd","21","71","37.46","-82.84","A","GD"
"41645","KY","Langley","Floyd","21","71","37.54","-82.79","A","GD"
"41647","KY","Mc Dowell","Floyd","21","71","37.45","-82.73","A","GD"
"41649","KY","Martin","Floyd","21","71","37.57","-82.76","A","GD"
"41650","KY","Melvin","Floyd","21","71","37.35","-82.69","A","GD"
"41651","KY","Minnie","Floyd","21","71","37.48","-82.75","A","GD"
"41653","KY","Prestonsburg","Floyd","21","71","37.67","-82.76","A","GD"
"41655","KY","Printer","Floyd","21","71","37.51","-82.72","A","GD"
"41659","KY","Stanville","Floyd","21","71","37.57","-82.64","A","GD"
"41660","KY","Teaberry","Floyd","21","71","37.43","-82.64","A","GD"
"41663","KY","Tram","Floyd","21","71","37.57","-82.65","A","GD"
"41666","KY","Wayland","Floyd","21","71","37.45","-82.81","A","GD"
"41667","KY","Weeksbury","Floyd","21","71","37.31","-82.7","A","GD"
"41669","KY","Wheelwright","Floyd","21","71","37.33","-82.72","A","GD"
"41701","KY","Hazard","Perry","21","193","37.28","-83.19","A","GD"
"41702","KY","Hazard","Perry","21","193","37.25","-83.19","A","POB"
"41712","KY","Ary","Perry","21","193","37.37","-83.13","A","GD"
"41713","KY","Avawam","Perry","21","193","37.22","-83.28","A","POB"
"41714","KY","Bear Branch","Leslie","21","131","37.17","-83.52","A","GD"
"41719","KY","Bonnyman","Perry","21","193","37.3","-83.25","A","GD"
"41721","KY","Buckhorn","Perry","21","193","37.32","-83.49","A","GD"
"41722","KY","Bulan","Perry","21","193","37.35","-83.11","A","GD"
"41723","KY","Busy","Perry","21","193","37.28","-83.31","A","GD"
"41725","KY","Carrie","Knott","21","119","37.33","-83.04","A","POB"
"41727","KY","Chavies","Perry","21","193","37.38","-83.29","A","GD"
"41729","KY","Combs","Perry","21","193","37.27","-83.21","A","GD"
"41731","KY","Cornettsville","Perry","21","193","37.11","-83.08","A","GD"
"41735","KY","Delphia","Perry","21","193","37.04","-83.1","A","GD"
"41736","KY","Dice","Perry","21","193","37.38","-83.21","A","POB"
"41739","KY","Dwarf","Perry","21","193","37.34","-83.13","A","POB"
"41740","KY","Emmalena","Knott","21","119","37.36","-83.05","A","GD"
"41743","KY","Fisty","Knott","21","119","37.36","-83.11","A","POB"
"41745","KY","Gays Creek","Perry","21","193","37.33","-83.44","A","GD"
"41746","KY","Happy","Perry","21","193","37.21","-83.1","A","GD"
"41749","KY","Hyden","Leslie","21","131","37.19","-83.4","A","GD"
"41751","KY","Jeff","Perry","21","193","37.21","-83.13","A","GD"
"41754","KY","Krypton","Perry","21","193","37.3","-83.32","A","GD"
"41759","KY","Sassafras","Knott","21","119","37.22","-83.04","A","GD"
"41760","KY","Scuddy","Perry","21","193","37.2","-83.08","A","GD"
"41762","KY","Sizerock","Leslie","21","131","37.26","-83.48","A","GD"
"41763","KY","Slemp","Perry","21","193","37.05","-83.14","A","GD"
"41764","KY","Smilax","Leslie","21","131","37.12","-83.25","A","GD"
"41766","KY","Thousandsticks","Leslie","21","131","37.18","-83.47","A","GD"
"41772","KY","Vest","Knott","21","119","37.43","-83.07","A","GD"
"41773","KY","Vicco","Perry","21","193","37.21","-83.04","A","GD"
"41774","KY","Viper","Perry","21","193","37.16","-83.14","A","GD"
"41775","KY","Wendover","Leslie","21","131","37.1","-83.34","A","GD"
"41776","KY","Wooton","Leslie","21","131","37.15","-83.3","A","GD"
"41777","KY","Yeaddiss","Leslie","21","131","37.07","-83.23","A","GD"
"41778","KY","Yerkes","Perry","21","193","37.28","-83.3","A","POB"
"41804","KY","Blackey","Letcher","21","133","37.14","-82.99","A","GD"
"41810","KY","Cromona","Letcher","21","133","37.18","-82.69","A","POB"
"41812","KY","Deane","Letcher","21","133","37.24","-82.75","A","GD"
"41815","KY","Ermine","Letcher","21","133","37.15","-82.8","A","GD"
"41817","KY","Garner","Knott","21","119","37.36","-82.93","A","GD"
"41819","KY","Gordon","Letcher","21","133","36.99","-83.06","A","GD"
"41821","KY","Hallie","Letcher","21","133","37.09","-83.01","A","GD"
"41822","KY","Hindman","Knott","21","119","37.33","-82.99","A","GD"
"41824","KY","Isom","Letcher","21","133","37.19","-82.89","A","GD"
"41825","KY","Jackhorn","Letcher","21","133","37.22","-82.7","A","GD"
"41826","KY","Jeremiah","Letcher","21","133","37.17","-82.92","A","GD"
"41828","KY","Kite","Knott","21","119","37.31","-82.79","A","GD"
"41831","KY","Leburn","Knott","21","119","37.39","-82.96","A","GD"
"41832","KY","Letcher","Letcher","21","133","37.15","-82.96","A","GD"
"41833","KY","Linefork","Letcher","21","133","37.03","-82.99","A","GD"
"41834","KY","Littcarr","Knott","21","119","37.23","-82.95","A","GD"
"41835","KY","Mc Roberts","Letcher","21","133","37.21","-82.67","A","GD"
"41836","KY","Mallie","Knott","21","119","37.26","-82.91","A","GD"
"41837","KY","Mayking","Letcher","21","133","37.14","-82.76","A","GD"
"41838","KY","Millstone","Letcher","21","133","37.17","-82.75","A","GD"
"41839","KY","Mousie","Knott","21","119","37.4","-82.89","A","GD"
"41840","KY","Neon","Letcher","21","133","37.19","-82.71","A","GD"
"41843","KY","Pine Top","Knott","21","119","37.27","-82.87","A","GD"
"41844","KY","Pippa Passes","Knott","21","119","37.34","-82.87","A","GD"
"41845","KY","Premium","Letcher","21","133","37.13","-82.91","A","GD"
"41847","KY","Redfox","Knott","21","119","37.22","-82.95","A","GD"
"41848","KY","Roxana","Letcher","21","133","37.11","-82.95","A","GD"
"41849","KY","Seco","Letcher","21","133","37.17","-82.73","A","POB"
"41855","KY","Thornton","Letcher","21","133","37.17","-82.77","A","GD"
"41858","KY","Whitesburg","Letcher","21","133","37.13","-82.84","A","GD"
"41859","KY","Dema","Knott","21","119","37.4","-82.79","A","GD"
"41861","KY","Raven","Knott","21","119","37.4","-82.81","A","GD"
"41862","KY","Topmost","Knott","21","119","37.36","-82.8","A","GD"
"42001","KY","Paducah","Mccracken","21","145","37.07","-88.66","A","GD"
"42002","KY","Paducah","Mccracken","21","145","37.07","-88.63","A","POB"
"42003","KY","Paducah","Mccracken","21","145","37.04","-88.59","A","GD"
"42020","KY","Almo","Calloway","21","35","36.69","-88.29","A","GD"
"42021","KY","Arlington","Carlisle","21","39","36.8","-89.01","A","GD"
"42022","KY","Bandana","Ballard","21","7","37.14","-88.94","A","POB"
"42023","KY","Bardwell","Carlisle","21","39","36.88","-88.98","A","GD"
"42024","KY","Barlow","Ballard","21","7","37.06","-89.05","A","GD"
"42025","KY","Benton","Marshall","21","157","36.86","-88.33","A","GD"
"42027","KY","Boaz","Graves","21","83","36.92","-88.64","A","GD"
"42028","KY","Burna","Livingston","21","139","37.22","-88.35","A","GD"
"42029","KY","Calvert City","Marshall","21","157","37.01","-88.37","A","GD"
"42031","KY","Clinton","Hickman","21","105","36.67","-88.99","A","GD"
"42032","KY","Columbus","Hickman","21","105","36.76","-89.11","A","GD"
"42033","KY","Crayne","Crittenden","21","55","37.27","-88.08","A","POB"
"42035","KY","Cunningham","Carlisle","21","39","36.91","-88.85","A","GD"
"42036","KY","Dexter","Calloway","21","35","36.74","-88.24","A","GD"
"42037","KY","Dycusburg","Crittenden","21","55","37.16","-88.18","A","POB"
"42038","KY","Eddyville","Lyon","21","143","37.05","-88.04","A","GD"
"42039","KY","Fancy Farm","Graves","21","83","36.79","-88.83","A","GD"
"42040","KY","Farmington","Graves","21","83","36.63","-88.5","A","GD"
"42041","KY","Fulton","Fulton","21","75","36.53","-88.89","A","GD"
"42044","KY","Gilbertsville","Marshall","21","157","36.98","-88.28","A","GD"
"42045","KY","Grand Rivers","Livingston","21","139","37.03","-88.25","A","GD"
"42047","KY","Hampton","Livingston","21","139","37.28","-88.38","A","GD"
"42048","KY","Hardin","Marshall","21","157","36.77","-88.24","A","GD"
"42049","KY","Hazel","Calloway","21","35","36.52","-88.35","A","GD"
"42050","KY","Hickman","Fulton","21","75","36.55","-89.2","A","GD"
"42051","KY","Hickory","Graves","21","83","36.85","-88.64","A","GD"
"42053","KY","Kevil","Mccracken","21","145","37.11","-88.86","A","GD"
"42054","KY","Kirksey","Calloway","21","35","36.72","-88.45","A","GD"
"42055","KY","Kuttawa","Lyon","21","143","37.06","-88.14","A","GD"
"42056","KY","La Center","Ballard","21","7","37.09","-88.99","A","GD"
"42058","KY","Ledbetter","Livingston","21","139","37.05","-88.48","A","GD"
"42060","KY","Lovelaceville","Ballard","21","7","36.97","-88.83","A","POB"
"42061","KY","Lowes","Graves","21","83","36.88","-88.77","A","POB"
"42063","KY","Lynnville","Graves","21","83","36.56","-88.57","A","POB"
"42064","KY","Marion","Crittenden","21","55","37.33","-88.08","A","GD"
"42066","KY","Mayfield","Graves","21","83","36.74","-88.63","A","GD"
"42069","KY","Melber","Graves","21","83","36.92","-88.76","A","GD"
"42070","KY","Milburn","Carlisle","21","39","36.8","-88.9","A","POB"
"42071","KY","Murray","Calloway","21","35","36.61","-88.29","A","GD"
"42076","KY","New Concord","Calloway","21","35","36.56","-88.09","A","GD"
"42078","KY","Salem","Livingston","21","139","37.28","-88.25","A","GD"
"42079","KY","Sedalia","Graves","21","83","36.57","-88.59","A","GD"
"42081","KY","Smithland","Livingston","21","139","37.2","-88.4","A","GD"
"42082","KY","Symsonia","Graves","21","83","36.92","-88.49","A","GD"
"42083","KY","Tiline","Livingston","21","139","37.16","-88.29","A","GD"
"42085","KY","Water Valley","Graves","21","83","36.57","-88.81","A","GD"
"42086","KY","West Paducah","Mccracken","21","145","37.09","-88.77","A","GD"
"42087","KY","Wickliffe","Ballard","21","7","36.97","-89.05","A","GD"
"42088","KY","Wingo","Graves","21","83","36.62","-88.75","A","GD"
"42101","KY","Bowling Green","Warren","21","227","37.01","-86.46","A","GD"
"42102","KY","Bowling Green","Warren","21","227","37","-86.42","A","POB"
"42103","KY","Bowling Green","Warren","21","227","36.97","-86.39","A","GD"
"42104","KY","Bowling Green","Warren","21","227","36.93","-86.45","A","GD"
"42120","KY","Adolphus","Allen","21","3","36.67","-86.25","A","GD"
"42122","KY","Alvaton","Warren","21","227","36.89","-86.37","A","GD"
"42123","KY","Austin","Barren","21","9","36.82","-86","A","GD"
"42124","KY","Beaumont","Metcalfe","21","169","36.87","-85.64","A","GD"
"42127","KY","Cave City","Barren","21","9","37.13","-85.95","A","GD"
"42128","KY","Bowling Green","Warren","21","227","36.99","-86.44","A","POB"
"42129","KY","Edmonton","Metcalfe","21","169","37","-85.6","A","GD"
"42130","KY","Eighty Eight","Barren","21","9","36.93","-85.79","A","GD"
"42131","KY","Etoile","Barren","21","9","36.81","-85.91","A","GD"
"42133","KY","Fountain Run","Monroe","21","171","36.72","-85.97","A","GD"
"42134","KY","Franklin","Simpson","21","213","36.72","-86.57","A","GD"
"42135","KY","Franklin","Simpson","21","213","36.71","-86.58","A","POB"
"42140","KY","Gamaliel","Monroe","21","171","36.65","-85.81","A","GD"
"42141","KY","Glasgow","Barren","21","9","36.97","-85.92","A","GD"
"42142","KY","Glasgow","Barren","21","9","37","-85.91","A","POB"
"42151","KY","Hestand","Monroe","21","171","36.64","-85.56","A","GD"
"42152","KY","Hiseville","Barren","21","9","37.1","-85.82","A","POB"
"42153","KY","Holland","Allen","21","3","36.66","-86.07","A","GD"
"42154","KY","Knob Lick","Metcalfe","21","169","37.06","-85.73","A","GD"
"42156","KY","Lucas","Barren","21","9","36.85","-86.05","A","GD"
"42157","KY","Mount Hermon","Monroe","21","171","36.79","-85.83","A","GD"
"42159","KY","Oakland","Warren","21","227","37.01","-86.25","A","GD"
"42160","KY","Park City","Barren","21","9","37.07","-86.06","A","GD"
"42163","KY","Rocky Hill","Edmonson","21","61","37.08","-86.13","A","GD"
"42164","KY","Scottsville","Allen","21","3","36.78","-86.17","A","GD"
"42166","KY","Summer Shade","Metcalfe","21","169","36.88","-85.71","A","GD"
"42167","KY","Tompkinsville","Monroe","21","171","36.71","-85.67","A","GD"
"42170","KY","Woodburn","Warren","21","227","36.84","-86.55","A","GD"
"42171","KY","Smiths Grove","Warren","21","227","37.04","-86.17","A","GD"
"42201","KY","Aberdeen","Butler","21","31","37.25","-86.68","A","POB"
"42202","KY","Adairville","Logan","21","141","36.68","-86.85","A","GD"
"42204","KY","Allensville","Todd","21","219","36.71","-87.07","A","GD"
"42206","KY","Auburn","Logan","21","141","36.88","-86.72","A","GD"
"42207","KY","Bee Spring","Edmonson","21","61","37.32","-86.25","A","GD"
"42210","KY","Brownsville","Edmonson","21","61","37.21","-86.25","A","GD"
"42211","KY","Cadiz","Trigg","21","221","36.83","-87.86","A","GD"
"42214","KY","Center","Metcalfe","21","169","37.14","-85.68","A","GD"
"42215","KY","Cerulean","Trigg","21","221","36.98","-87.68","A","GD"
"42216","KY","Clifty","Todd","21","219","36.81","-87.15","A","POB"
"42217","KY","Crofton","Christian","21","47","37.05","-87.46","A","GD"
"42219","KY","Dunbar","Butler","21","31","37.16","-86.75","A","POB"
"42220","KY","Elkton","Todd","21","219","36.88","-87.19","A","GD"
"42221","KY","Fairview","Christian","21","47","36.84","-87.3","A","POB"
"42223","KY","Fort Campbell","Christian","21","47","36.62","-87.45","A","GD"
"42232","KY","Gracey","Christian","21","47","36.86","-87.66","A","GD"
"42234","KY","Guthrie","Todd","21","219","36.67","-87.18","A","GD"
"42236","KY","Herndon","Christian","21","47","36.72","-87.61","A","GD"
"42240","KY","Hopkinsville","Christian","21","47","36.86","-87.48","A","GD"
"42241","KY","Hopkinsville","Christian","21","47","36.87","-87.49","A","POB"
"42252","KY","Jetson","Butler","21","31","37.24","-86.52","A","GD"
"42254","KY","La Fayette","Christian","21","47","36.65","-87.65","A","GD"
"42256","KY","Lewisburg","Logan","21","141","37.03","-86.95","A","GD"
"42259","KY","Mammoth Cave","Edmonson","21","61","37.28","-86.18","A","GD"
"42261","KY","Morgantown","Butler","21","31","37.22","-86.68","A","GD"
"42262","KY","Oak Grove","Christian","21","47","36.67","-87.42","A","GD"
"42265","KY","Olmstead","Logan","21","141","36.74","-87","A","GD"
"42266","KY","Pembroke","Christian","21","47","36.77","-87.35","A","GD"
"42273","KY","Rochester","Butler","21","31","37.21","-86.87","A","GD"
"42274","KY","Rockfield","Warren","21","227","36.94","-86.61","A","GD"
"42275","KY","Roundhill","Edmonson","21","61","37.22","-86.44","A","GD"
"42276","KY","Russellville","Logan","21","141","36.86","-86.89","A","GD"
"42280","KY","Sharon Grove","Todd","21","219","36.94","-87.09","A","GD"
"42285","KY","Sweeden","Edmonson","21","61","37.27","-86.27","A","GD"
"42286","KY","Trenton","Todd","21","219","36.73","-87.27","A","GD"
"42288","KY","Woodbury","Butler","21","31","37.18","-86.63","A","POB"
"42301","KY","Owensboro","Daviess","21","59","37.76","-87.17","A","GD"
"42302","KY","Owensboro","Daviess","21","59","37.76","-87.05","A","POB"
"42303","KY","Owensboro","Daviess","21","59","37.75","-87.08","A","GD"
"42304","KY","Owensboro","Daviess","21","59","37.78","-87.17","A","POB"
"42320","KY","Beaver Dam","Ohio","21","183","37.38","-86.88","A","GD"
"42321","KY","Beech Creek","Muhlenberg","21","177","37.18","-87.06","A","GD"
"42322","KY","Beech Grove","Mclean","21","149","37.62","-87.39","A","POB"
"42323","KY","Beechmont","Muhlenberg","21","177","37.18","-87.03","A","GD"
"42324","KY","Belton","Muhlenberg","21","177","37.12","-87.02","A","GD"
"42325","KY","Bremen","Muhlenberg","21","177","37.33","-87.27","A","GD"
"42326","KY","Browder","Muhlenberg","21","177","37.23","-87.01","A","GD"
"42327","KY","Calhoun","Mclean","21","149","37.58","-87.28","A","GD"
"42328","KY","Centertown","Ohio","21","183","37.41","-87.03","A","GD"
"42330","KY","Central City","Muhlenberg","21","177","37.31","-87.12","A","GD"
"42332","KY","Cleaton","Muhlenberg","21","177","37.25","-87.09","A","POB"
"42333","KY","Cromwell","Ohio","21","183","37.35","-86.77","A","GD"
"42334","KY","Curdsville","Daviess","21","59","37.73","-87.33","A","POB"
"42337","KY","Drakesboro","Muhlenberg","21","177","37.25","-87.03","A","GD"
"42338","KY","Dundee","Ohio","21","183","37.56","-86.77","A","GD"
"42339","KY","Dunmor","Muhlenberg","21","177","37.1","-86.95","A","GD"
"42343","KY","Fordsville","Ohio","21","183","37.64","-86.69","A","GD"
"42344","KY","Graham","Muhlenberg","21","177","37.26","-87.31","A","GD"
"42345","KY","Greenville","Muhlenberg","21","177","37.17","-87.18","A","GD"
"42347","KY","Hartford","Ohio","21","183","37.5","-86.89","A","GD"
"42348","KY","Hawesville","Hancock","21","91","37.88","-86.76","A","GD"
"42349","KY","Horse Branch","Ohio","21","183","37.43","-86.67","A","GD"
"42350","KY","Island","Mclean","21","149","37.45","-87.16","A","GD"
"42351","KY","Lewisport","Hancock","21","91","37.92","-86.89","A","GD"
"42352","KY","Livermore","Mclean","21","149","37.51","-87.12","A","GD"
"42354","KY","Mc Henry","Ohio","21","183","37.38","-86.93","A","GD"
"42355","KY","Maceo","Daviess","21","59","37.86","-86.99","A","GD"
"42356","KY","Maple Mount","Daviess","21","59","37.69","-87.32","A","POB"
"42361","KY","Olaton","Ohio","21","183","37.52","-86.68","A","GD"
"42364","KY","Hawesville","Hancock","21","91","37.75","-86.81","A","POB"
"42366","KY","Philpot","Daviess","21","59","37.72","-86.95","A","GD"
"42367","KY","Powderly","Muhlenberg","21","177","37.24","-87.16","A","GD"
"42368","KY","Reynolds Station","Ohio","21","183","37.7","-86.75","A","GD"
"42369","KY","Rockport","Ohio","21","183","37.34","-87","A","GD"
"42370","KY","Rosine","Ohio","21","183","37.45","-86.74","A","POB"
"42371","KY","Rumsey","Mclean","21","149","37.49","-87.29","A","GD"
"42372","KY","Sacramento","Mclean","21","149","37.4","-87.28","A","GD"
"42374","KY","South Carrollton","Muhlenberg","21","177","37.33","-87.14","A","POB"
"42376","KY","Utica","Daviess","21","59","37.61","-87.08","A","GD"
"42377","KY","West Louisville","Daviess","21","59","37.7","-87.29","A","POB"
"42378","KY","Whitesville","Daviess","21","59","37.67","-86.86","A","GD"
"42402","KY","Baskett","Henderson","21","101","37.87","-87.46","A","POB"
"42404","KY","Clay","Webster","21","233","37.47","-87.84","A","GD"
"42406","KY","Corydon","Henderson","21","101","37.74","-87.71","A","GD"
"42408","KY","Dawson Springs","Hopkins","21","107","37.18","-87.68","A","GD"
"42409","KY","Dixon","Webster","21","233","37.54","-87.69","A","GD"
"42410","KY","Earlington","Hopkins","21","107","37.27","-87.51","A","GD"
"42411","KY","Fredonia","Caldwell","21","33","37.22","-88.02","A","GD"
"42413","KY","Hanson","Hopkins","21","107","37.43","-87.48","A","GD"
"42419","KY","Henderson","Henderson","21","101","37.83","-87.59","A","POB"
"42420","KY","Henderson","Henderson","21","101","37.83","-87.56","A","GD"
"42431","KY","Madisonville","Hopkins","21","107","37.33","-87.5","A","GD"
"42436","KY","Manitou","Hopkins","21","107","37.41","-87.57","A","GD"
"42437","KY","Morganfield","Union","21","225","37.68","-87.91","A","GD"
"42440","KY","Mortons Gap","Hopkins","21","107","37.24","-87.47","A","POB"
"42441","KY","Nebo","Hopkins","21","107","37.36","-87.67","A","GD"
"42442","KY","Nortonville","Hopkins","21","107","37.18","-87.46","A","GD"
"42444","KY","Poole","Webster","21","233","37.64","-87.64","A","POB"
"42445","KY","Princeton","Caldwell","21","33","37.12","-87.88","A","GD"
"42450","KY","Providence","Webster","21","233","37.4","-87.76","A","GD"
"42451","KY","Reed","Henderson","21","101","37.88","-87.38","A","GD"
"42452","KY","Robards","Henderson","21","101","37.68","-87.54","A","GD"
"42453","KY","Saint Charles","Hopkins","21","107","37.18","-87.6","A","GD"
"42455","KY","Sebree","Webster","21","233","37.6","-87.53","A","GD"
"42456","KY","Slaughters","Webster","21","233","37.51","-87.49","A","GD"
"42457","KY","Smith Mills","Henderson","21","101","37.81","-87.77","A","POB"
"42458","KY","Spottsville","Henderson","21","101","37.85","-87.42","A","GD"
"42459","KY","Sturgis","Union","21","225","37.55","-87.99","A","GD"
"42460","KY","Sullivan","Union","21","225","37.49","-87.94","A","POB"
"42461","KY","Uniontown","Union","21","225","37.78","-87.92","A","GD"
"42462","KY","Waverly","Union","21","225","37.73","-87.8","A","GD"
"42463","KY","Wheatcroft","Webster","21","233","37.49","-87.86","A","POB"
"42464","KY","White Plains","Hopkins","21","107","37.19","-87.38","A","GD"
"42501","KY","Somerset","Pulaski","21","199","37.06","-84.56","A","GD"
"42502","KY","Somerset","Pulaski","21","199","37.09","-84.6","A","POB"
"42503","KY","Somerset","Pulaski","21","199","37.11","-84.59","A","GD"
"42516","KY","Bethelridge","Casey","21","45","37.22","-84.79","A","GD"
"42518","KY","Bronston","Pulaski","21","199","36.95","-84.62","A","GD"
"42519","KY","Burnside","Pulaski","21","199","36.96","-84.55","A","GD"
"42528","KY","Dunnville","Casey","21","45","37.2","-85.01","A","GD"
"42533","KY","Ferguson","Pulaski","21","199","37.07","-84.6","A","GD"
"42539","KY","Liberty","Casey","21","45","37.3","-84.95","A","GD"
"42541","KY","Middleburg","Casey","21","45","37.38","-84.8","A","GD"
"42544","KY","Nancy","Pulaski","21","199","37.02","-84.8","A","GD"
"42553","KY","Science Hill","Pulaski","21","199","37.18","-84.67","A","GD"
"42558","KY","Tateville","Pulaski","21","199","37.15","-84.63","A","POB"
"42564","KY","West Somerset","Pulaski","21","199","37.09","-84.6","A","POB"
"42565","KY","Windsor","Casey","21","45","37.14","-84.91","A","GD"
"42566","KY","Yosemite","Casey","21","45","37.3","-84.8","A","GD"
"42567","KY","Eubank","Pulaski","21","199","37.26","-84.62","A","GD"
"42602","KY","Albany","Clinton","21","53","36.62","-85.21","A","GD"
"42603","KY","Alpha","Clinton","21","53","36.77","-85.02","A","GD"
"42629","KY","Jamestown","Russell","21","207","36.95","-85.1","A","GD"
"42631","KY","Marshes Siding","Mccreary","21","147","36.74","-84.48","A","POB"
"42633","KY","Monticello","Wayne","21","231","36.81","-84.85","A","GD"
"42634","KY","Parkers Lake","Mccreary","21","147","36.86","-84.43","A","GD"
"42635","KY","Pine Knot","Mccreary","21","147","36.66","-84.42","A","GD"
"42638","KY","Revelo","Mccreary","21","147","36.67","-84.47","A","POB"
"42642","KY","Russell Springs","Russell","21","207","37.05","-85.05","A","GD"
"42647","KY","Stearns","Mccreary","21","147","36.71","-84.56","A","GD"
"42649","KY","Strunk","Mccreary","21","147","36.63","-84.42","A","GD"
"42653","KY","Whitley City","Mccreary","21","147","36.77","-84.47","A","GD"
"42701","KY","Elizabethtown","Hardin","21","93","37.71","-85.86","A","GD"
"42702","KY","Elizabethtown","Hardin","21","93","37.69","-85.86","A","POB"
"42712","KY","Big Clifty","Grayson","21","85","37.56","-86.15","A","GD"
"42713","KY","Bonnieville","Hart","21","99","37.38","-85.89","A","GD"
"42715","KY","Breeding","Adair","21","1","36.95","-85.41","A","GD"
"42716","KY","Buffalo","Larue","21","123","37.48","-85.61","A","GD"
"42717","KY","Burkesville","Cumberland","21","57","36.77","-85.38","A","GD"
"42718","KY","Campbellsville","Taylor","21","217","37.36","-85.36","A","GD"
"42719","KY","Campbellsville","Taylor","21","217","37.34","-85.34","A","POB"
"42720","KY","Cane Valley","Adair","21","1","37.17","-85.32","A","POB"
"42721","KY","Caneyville","Grayson","21","85","37.41","-86.5","A","GD"
"42722","KY","Canmer","Hart","21","99","37.28","-85.72","A","GD"
"42724","KY","Cecilia","Hardin","21","93","37.65","-86.01","A","GD"
"42726","KY","Clarkson","Grayson","21","85","37.42","-86.17","A","GD"
"42728","KY","Columbia","Adair","21","1","37.12","-85.29","A","GD"
"42729","KY","Cub Run","Hart","21","99","37.31","-86.13","A","GD"
"42732","KY","Eastview","Hardin","21","93","37.6","-86.09","A","GD"
"42733","KY","Elk Horn","Taylor","21","217","37.33","-85.17","A","GD"
"42740","KY","Glendale","Hardin","21","93","37.6","-85.92","A","GD"
"42741","KY","Glens Fork","Adair","21","1","37","-85.24","A","GD"
"42742","KY","Gradyville","Adair","21","1","37.05","-85.44","A","GD"
"42743","KY","Greensburg","Green","21","87","37.23","-85.52","A","GD"
"42746","KY","Hardyville","Hart","21","99","37.21","-85.73","A","GD"
"42748","KY","Hodgenville","Larue","21","123","37.57","-85.72","A","GD"
"42749","KY","Horse Cave","Hart","21","99","37.18","-85.89","A","GD"
"42753","KY","Knifley","Adair","21","1","37.23","-85.19","A","GD"
"42754","KY","Leitchfield","Grayson","21","85","37.48","-86.3","A","GD"
"42755","KY","Leitchfield","Grayson","21","85","37.48","-86.29","A","POB"
"42757","KY","Magnolia","Larue","21","123","37.42","-85.72","A","GD"
"42758","KY","Mannsville","Taylor","21","217","37.37","-85.2","A","POB"
"42759","KY","Marrowbone","Cumberland","21","57","36.83","-85.51","A","POB"
"42762","KY","Millwood","Grayson","21","85","37.45","-86.4","A","GD"
"42764","KY","Mount Sherman","Larue","21","123","37.44","-85.63","A","GD"
"42765","KY","Munfordville","Hart","21","99","37.29","-85.91","A","GD"
"42776","KY","Sonora","Hardin","21","93","37.52","-85.89","A","GD"
"42782","KY","Summersville","Green","21","87","37.35","-85.64","A","GD"
"42784","KY","Upton","Hardin","21","93","37.46","-85.91","A","GD"
"42788","KY","White Mills","Hardin","21","93","37.54","-86.04","A","GD"
