"ZIPCode","State","City","County","StateFIPS","CountyFIPS","Latitude","Longitude","Preference","Type"
"68001","NE","Abie","Butler","31","23","41.33","-96.95","A","POB"
"68002","NE","Arlington","Washington","31","177","41.49","-96.34","A","GD"
"68003","NE","Ashland","Saunders","31","155","41.07","-96.37","A","GD"
"68004","NE","Bancroft","Cuming","31","39","42.01","-96.62","A","GD"
"68005","NE","Bellevue","Sarpy","31","153","41.15","-95.9","A","GD"
"68007","NE","Bennington","Douglas","31","55","41.35","-96.17","A","GD"
"68008","NE","Blair","Washington","31","177","41.54","-96.14","A","GD"
"68009","NE","Blair","Washington","31","177","41.56","-96.25","A","POB"
"68010","NE","Boys Town","Douglas","31","55","41.26","-96.13","A","POB"
"68014","NE","Bruno","Butler","31","23","41.28","-96.96","A","GD"
"68015","NE","Cedar Bluffs","Saunders","31","155","41.39","-96.64","A","GD"
"68016","NE","Cedar Creek","Cass","31","25","41.04","-96.11","A","POB"
"68017","NE","Ceresco","Saunders","31","155","41.07","-96.65","A","GD"
"68018","NE","Colon","Saunders","31","155","41.31","-96.62","A","GD"
"68019","NE","Craig","Burt","31","21","41.78","-96.37","A","GD"
"68020","NE","Decatur","Burt","31","21","41.99","-96.26","A","GD"
"68022","NE","Elkhorn","Douglas","31","55","41.27","-96.24","A","GD"
"68023","NE","Fort Calhoun","Washington","31","177","41.45","-96.03","A","GD"
"68025","NE","Fremont","Dodge","31","53","41.43","-96.49","A","GD"
"68026","NE","Fremont","Dodge","31","53","41.44","-96.49","A","POB"
"68028","NE","Gretna","Sarpy","31","153","41.12","-96.25","A","GD"
"68029","NE","Herman","Washington","31","177","41.66","-96.27","A","GD"
"68030","NE","Homer","Dakota","31","43","42.32","-96.46","A","GD"
"68031","NE","Hooper","Dodge","31","53","41.63","-96.53","A","GD"
"68033","NE","Ithaca","Saunders","31","155","41.14","-96.51","A","GD"
"68034","NE","Kennard","Washington","31","177","41.46","-96.21","A","GD"
"68036","NE","Linwood","Butler","31","23","41.4","-96.96","A","GD"
"68037","NE","Louisville","Cass","31","25","41","-96.14","A","GD"
"68038","NE","Lyons","Burt","31","21","41.95","-96.47","A","GD"
"68039","NE","Macy","Thurston","31","173","42.11","-96.34","A","GD"
"68040","NE","Malmo","Saunders","31","155","41.29","-96.74","A","GD"
"68041","NE","Mead","Saunders","31","155","41.23","-96.49","A","GD"
"68042","NE","Memphis","Saunders","31","155","41.1","-96.44","A","GD"
"68044","NE","Nickerson","Dodge","31","53","41.54","-96.46","A","GD"
"68045","NE","Oakland","Burt","31","21","41.83","-96.48","A","GD"
"68046","NE","Papillion","Sarpy","31","153","41.15","-96.05","A","GD"
"68047","NE","Pender","Thurston","31","173","42.11","-96.73","A","GD"
"68048","NE","Plattsmouth","Cass","31","25","41","-95.91","A","GD"
"68050","NE","Prague","Saunders","31","155","41.31","-96.84","A","GD"
"68055","NE","Rosalie","Thurston","31","173","42.05","-96.49","A","GD"
"68056","NE","St Columbans","Sarpy","31","153","41.09","-96.05","A","GD"
"68057","NE","Scribner","Dodge","31","53","41.66","-96.7","A","GD"
"68058","NE","South Bend","Cass","31","25","41","-96.25","A","POB"
"68059","NE","Springfield","Sarpy","31","153","41.06","-96.15","A","GD"
"68061","NE","Tekamah","Burt","31","21","41.79","-96.22","A","GD"
"68062","NE","Thurston","Thurston","31","173","42.18","-96.68","A","GD"
"68063","NE","Uehling","Dodge","31","53","41.73","-96.5","A","POB"
"68064","NE","Valley","Douglas","31","55","41.33","-96.35","A","GD"
"68065","NE","Valparaiso","Saunders","31","155","41.08","-96.85","A","GD"
"68066","NE","Wahoo","Saunders","31","155","41.2","-96.62","A","GD"
"68067","NE","Walthill","Thurston","31","173","42.15","-96.49","A","GD"
"68068","NE","Washington","Washington","31","177","41.4","-96.21","A","GD"
"68069","NE","Waterloo","Douglas","31","55","41.25","-96.31","A","GD"
"68070","NE","Weston","Saunders","31","155","41.21","-96.79","A","GD"
"68071","NE","Winnebago","Thurston","31","173","42.23","-96.47","A","GD"
"68072","NE","Winslow","Dodge","31","53","41.61","-96.51","A","POB"
"68073","NE","Yutan","Saunders","31","155","41.25","-96.4","A","GD"
"68101","NE","Omaha","Douglas","31","55","41.26","-95.93","A","POB"
"68102","NE","Omaha","Douglas","31","55","41.26","-95.94","A","GD"
"68103","NE","Omaha","Douglas","31","55","41.26","-95.94","A","POB"
"68104","NE","Omaha","Douglas","31","55","41.29","-96","A","GD"
"68105","NE","Omaha","Douglas","31","55","41.24","-95.96","A","GD"
"68106","NE","Omaha","Douglas","31","55","41.24","-96","A","GD"
"68107","NE","Omaha","Douglas","31","55","41.21","-95.96","A","GD"
"68108","NE","Omaha","Douglas","31","55","41.24","-95.93","A","GD"
"68109","NE","Omaha","Douglas","31","55","41.24","-95.93","A","POB"
"68110","NE","Omaha","Douglas","31","55","41.29","-95.93","A","GD"
"68111","NE","Omaha","Douglas","31","55","41.29","-95.96","A","GD"
"68112","NE","Omaha","Douglas","31","55","41.34","-95.96","A","GD"
"68113","NE","Offutt Afb","Sarpy","31","153","41.12","-95.92","A","GD"
"68114","NE","Omaha","Douglas","31","55","41.26","-96.05","A","GD"
"68116","NE","Omaha","Douglas","31","55","41.3","-96.16","A","GD"
"68117","NE","Omaha","Douglas","31","55","41.21","-96","A","GD"
"68118","NE","Omaha","Douglas","31","55","41.26","-96.18","A","GD"
"68119","NE","Omaha","Douglas","31","55","41.31","-95.91","A","POB"
"68120","NE","Omaha","Douglas","31","55","41.28","-95.95","A","POB"
"68122","NE","Omaha","Douglas","31","55","41.34","-96.05","A","GD"
"68123","NE","Bellevue","Sarpy","31","153","41.12","-95.95","A","GD"
"68124","NE","Omaha","Douglas","31","55","41.24","-96.05","A","GD"
"68127","NE","Omaha","Douglas","31","55","41.2","-96.05","A","GD"
"68128","NE","La Vista","Sarpy","31","153","41.18","-96.06","A","GD"
"68130","NE","Omaha","Douglas","31","55","41.24","-96.19","A","GD"
"68131","NE","Omaha","Douglas","31","55","41.26","-95.96","A","GD"
"68132","NE","Omaha","Douglas","31","55","41.27","-96","A","GD"
"68133","NE","Papillion","Sarpy","31","153","41.14","-96","A","GD"
"68134","NE","Omaha","Douglas","31","55","41.3","-96.05","A","GD"
"68135","NE","Omaha","Douglas","31","55","41.2","-96.19","A","GD"
"68136","NE","Omaha","Sarpy","31","153","41.18","-96.18","A","GD"
"68137","NE","Omaha","Douglas","31","55","41.21","-96.12","A","GD"
"68138","NE","Omaha","Sarpy","31","153","41.17","-96.14","A","GD"
"68139","NE","Omaha","Douglas","31","55","41.22","-96.12","A","POB"
"68142","NE","Omaha","Douglas","31","55","41.36","-96.1","A","GD"
"68144","NE","Omaha","Douglas","31","55","41.23","-96.11","A","GD"
"68145","NE","Omaha","Douglas","31","55","41.23","-96.09","A","POB"
"68147","NE","Bellevue","Sarpy","31","153","41.18","-95.95","A","GD"
"68152","NE","Omaha","Douglas","31","55","41.35","-96","A","GD"
"68154","NE","Omaha","Douglas","31","55","41.27","-96.11","A","GD"
"68155","NE","Omaha","Douglas","31","55","41.24","-95.96","A","POB"
"68157","NE","Omaha","Sarpy","31","153","41.18","-95.99","A","GD"
"68164","NE","Omaha","Douglas","31","55","41.3","-96.11","A","GD"
"68172","NE","Omaha","Douglas","31","55","41.26","-96.12","A","PVT"
"68175","NE","Omaha","Douglas","31","55","41.27","-95.97","A","PVT"
"68176","NE","Omaha","Douglas","31","55","41.26","-95.94","A","GD"
"68178","NE","Omaha","Douglas","31","55","41.27","-95.95","A","PVT"
"68179","NE","Omaha","Douglas","31","55","41.26","-95.93","A","PVT"
"68180","NE","Omaha","Douglas","31","55","41.24","-96.05","A","PVT"
"68182","NE","Omaha","Douglas","31","55","41.26","-96.01","A","PVT"
"68183","NE","Omaha","Douglas","31","55","41.26","-95.94","A","PVT"
"68197","NE","Omaha","Douglas","31","55","41.26","-95.94","A","PVT"
"68198","NE","Omaha","Douglas","31","55","41.26","-96.01","A","PVT"
"68301","NE","Adams","Gage","31","67","40.47","-96.52","A","GD"
"68303","NE","Alexandria","Thayer","31","169","40.25","-97.41","A","GD"
"68304","NE","Alvo","Cass","31","25","40.87","-96.39","A","GD"
"68305","NE","Auburn","Nemaha","31","127","40.38","-95.85","A","GD"
"68307","NE","Avoca","Cass","31","25","40.79","-96.13","A","GD"
"68309","NE","Barneston","Gage","31","67","40.05","-96.57","A","GD"
"68310","NE","Beatrice","Gage","31","67","40.26","-96.74","A","GD"
"68313","NE","Beaver Crossing","Seward","31","159","40.78","-97.27","A","GD"
"68314","NE","Bee","Seward","31","159","41.02","-97.05","A","GD"
"68315","NE","Belvidere","Thayer","31","169","40.25","-97.55","A","GD"
"68316","NE","Benedict","York","31","185","41.01","-97.61","A","GD"
"68317","NE","Bennet","Lancaster","31","109","40.68","-96.51","A","GD"
"68318","NE","Blue Springs","Gage","31","67","40.15","-96.66","A","GD"
"68319","NE","Bradshaw","York","31","185","40.91","-97.76","A","GD"
"68320","NE","Brock","Nemaha","31","127","40.48","-95.96","A","GD"
"68321","NE","Brownville","Nemaha","31","127","40.39","-95.67","A","GD"
"68322","NE","Bruning","Thayer","31","169","40.34","-97.55","A","GD"
"68323","NE","Burchard","Pawnee","31","133","40.14","-96.38","A","GD"
"68324","NE","Burr","Otoe","31","131","40.55","-96.3","A","GD"
"68325","NE","Byron","Thayer","31","169","40.04","-97.78","A","GD"
"68326","NE","Carleton","Thayer","31","169","40.29","-97.68","A","GD"
"68327","NE","Chester","Thayer","31","169","40.02","-97.62","A","GD"
"68328","NE","Clatonia","Gage","31","67","40.47","-96.84","A","GD"
"68329","NE","Cook","Johnson","31","97","40.51","-96.16","A","GD"
"68330","NE","Cordova","Seward","31","159","40.72","-97.35","A","POB"
"68331","NE","Cortland","Gage","31","67","40.48","-96.7","A","GD"
"68332","NE","Crab Orchard","Johnson","31","97","40.33","-96.4","A","GD"
"68333","NE","Crete","Saline","31","151","40.62","-96.96","A","GD"
"68335","NE","Davenport","Thayer","31","169","40.29","-97.81","A","GD"
"68336","NE","Davey","Lancaster","31","109","40.94","-96.67","A","GD"
"68337","NE","Dawson","Richardson","31","147","40.1","-95.83","A","GD"
"68338","NE","Daykin","Jefferson","31","95","40.3","-97.27","A","GD"
"68339","NE","Denton","Lancaster","31","109","40.74","-96.85","A","GD"
"68340","NE","Deshler","Thayer","31","169","40.12","-97.73","A","GD"
"68341","NE","De Witt","Saline","31","151","40.39","-96.9","A","GD"
"68342","NE","Diller","Jefferson","31","95","40.1","-96.95","A","GD"
"68343","NE","Dorchester","Saline","31","151","40.63","-97.13","A","GD"
"68344","NE","Douglas","Otoe","31","131","40.58","-96.4","A","GD"
"68345","NE","Du Bois","Pawnee","31","133","40.04","-96.02","A","GD"
"68346","NE","Dunbar","Otoe","31","131","40.67","-96.03","A","GD"
"68347","NE","Eagle","Cass","31","25","40.81","-96.43","A","GD"
"68348","NE","Elk Creek","Johnson","31","97","40.29","-96.14","A","GD"
"68349","NE","Elmwood","Cass","31","25","40.84","-96.3","A","GD"
"68350","NE","Endicott","Jefferson","31","95","40.07","-97.08","A","GD"
"68351","NE","Exeter","Fillmore","31","59","40.65","-97.43","A","GD"
"68352","NE","Fairbury","Jefferson","31","95","40.15","-97.21","A","GD"
"68354","NE","Fairmont","Fillmore","31","59","40.63","-97.58","A","GD"
"68355","NE","Falls City","Richardson","31","147","40.08","-95.59","A","GD"
"68357","NE","Filley","Gage","31","67","40.3","-96.55","A","GD"
"68358","NE","Firth","Lancaster","31","109","40.53","-96.61","A","GD"
"68359","NE","Friend","Saline","31","151","40.64","-97.29","A","GD"
"68360","NE","Garland","Seward","31","159","40.95","-96.97","A","GD"
"68361","NE","Geneva","Fillmore","31","59","40.52","-97.6","A","GD"
"68362","NE","Gilead","Thayer","31","169","40.15","-97.42","A","POB"
"68364","NE","Goehner","Seward","31","159","40.83","-97.22","A","POB"
"68365","NE","Grafton","Fillmore","31","59","40.62","-97.72","A","GD"
"68366","NE","Greenwood","Cass","31","25","40.96","-96.43","A","GD"
"68367","NE","Gresham","York","31","185","41.03","-97.39","A","GD"
"68368","NE","Hallam","Lancaster","31","109","40.55","-96.81","A","GD"
"68370","NE","Hebron","Thayer","31","169","40.15","-97.57","A","GD"
"68371","NE","Henderson","York","31","185","40.76","-97.78","A","GD"
"68372","NE","Hickman","Lancaster","31","109","40.61","-96.62","A","GD"
"68375","NE","Hubbell","Thayer","31","169","40.03","-97.47","A","GD"
"68376","NE","Humboldt","Richardson","31","147","40.17","-95.95","A","GD"
"68377","NE","Jansen","Jefferson","31","95","40.21","-97.02","A","GD"
"68378","NE","Johnson","Nemaha","31","127","40.39","-96.02","A","GD"
"68379","NE","Julian","Nemaha","31","127","40.52","-95.87","A","GD"
"68380","NE","Lewiston","Pawnee","31","133","40.24","-96.4","A","GD"
"68381","NE","Liberty","Gage","31","67","40.07","-96.49","A","GD"
"68382","NE","Lorton","Otoe","31","131","40.6","-96.02","A","GD"
"68401","NE","Mc Cool Junction","York","31","185","40.74","-97.59","A","GD"
"68402","NE","Malcolm","Lancaster","31","109","40.91","-96.86","A","GD"
"68403","NE","Manley","Cass","31","25","40.92","-96.17","A","POB"
"68404","NE","Martell","Lancaster","31","109","40.61","-96.75","A","GD"
"68405","NE","Milford","Seward","31","159","40.77","-97.06","A","GD"
"68406","NE","Milligan","Fillmore","31","59","40.5","-97.39","A","GD"
"68407","NE","Murdock","Cass","31","25","40.92","-96.26","A","GD"
"68409","NE","Murray","Cass","31","25","40.92","-95.94","A","GD"
"68410","NE","Nebraska City","Otoe","31","131","40.67","-95.87","A","GD"
"68413","NE","Nehawka","Cass","31","25","40.83","-96","A","GD"
"68414","NE","Nemaha","Nemaha","31","127","40.31","-95.67","A","GD"
"68415","NE","Odell","Gage","31","67","40.06","-96.81","A","GD"
"68416","NE","Ohiowa","Fillmore","31","59","40.41","-97.45","A","GD"
"68417","NE","Otoe","Otoe","31","131","40.73","-96.09","A","GD"
"68418","NE","Palmyra","Otoe","31","131","40.7","-96.39","A","GD"
"68419","NE","Panama","Lancaster","31","109","40.6","-96.51","A","POB"
"68420","NE","Pawnee City","Pawnee","31","133","40.11","-96.18","A","GD"
"68421","NE","Peru","Nemaha","31","127","40.49","-95.73","A","GD"
"68422","NE","Pickrell","Gage","31","67","40.39","-96.7","A","GD"
"68423","NE","Pleasant Dale","Seward","31","159","40.82","-96.94","A","GD"
"68424","NE","Plymouth","Jefferson","31","95","40.29","-97.01","A","GD"
"68428","NE","Raymond","Lancaster","31","109","40.97","-96.81","A","GD"
"68429","NE","Reynolds","Thayer","31","169","40.05","-97.31","A","GD"
"68430","NE","Roca","Lancaster","31","109","40.67","-96.67","A","GD"
"68431","NE","Rulo","Richardson","31","147","40.06","-95.43","A","GD"
"68433","NE","Salem","Richardson","31","147","40.05","-95.74","A","GD"
"68434","NE","Seward","Seward","31","159","40.91","-97.12","A","GD"
"68436","NE","Shickley","Fillmore","31","59","40.42","-97.74","A","GD"
"68437","NE","Shubert","Richardson","31","147","40.24","-95.65","A","GD"
"68438","NE","Sprague","Lancaster","31","109","40.63","-96.75","A","POB"
"68439","NE","Staplehurst","Seward","31","159","41","-97.21","A","GD"
"68440","NE","Steele City","Jefferson","31","95","40.04","-97.02","A","GD"
"68441","NE","Steinauer","Pawnee","31","133","40.22","-96.23","A","GD"
"68442","NE","Stella","Richardson","31","147","40.24","-95.77","A","GD"
"68443","NE","Sterling","Johnson","31","97","40.45","-96.37","A","GD"
"68444","NE","Strang","Fillmore","31","59","40.41","-97.58","A","GD"
"68445","NE","Swanton","Saline","31","151","40.38","-97.08","A","GD"
"68446","NE","Syracuse","Otoe","31","131","40.66","-96.18","A","GD"
"68447","NE","Table Rock","Pawnee","31","133","40.19","-96.08","A","GD"
"68448","NE","Talmage","Otoe","31","131","40.54","-96.02","A","GD"
"68450","NE","Tecumseh","Johnson","31","97","40.37","-96.2","A","GD"
"68452","NE","Ong","Clay","31","35","40.4","-97.84","A","GD"
"68453","NE","Tobias","Saline","31","151","40.41","-97.34","A","GD"
"68454","NE","Unadilla","Otoe","31","131","40.69","-96.28","A","GD"
"68455","NE","Union","Cass","31","25","40.83","-95.9","A","GD"
"68456","NE","Utica","Seward","31","159","40.91","-97.32","A","GD"
"68457","NE","Verdon","Richardson","31","147","40.15","-95.71","A","GD"
"68458","NE","Virginia","Gage","31","67","40.24","-96.51","A","GD"
"68460","NE","Waco","York","31","185","40.88","-97.44","A","GD"
"68461","NE","Walton","Lancaster","31","109","40.76","-96.53","A","GD"
"68462","NE","Waverly","Lancaster","31","109","40.93","-96.52","A","GD"
"68463","NE","Weeping Water","Cass","31","25","40.87","-96.15","A","GD"
"68464","NE","Western","Saline","31","151","40.41","-97.19","A","GD"
"68465","NE","Wilber","Saline","31","151","40.49","-97","A","GD"
"68466","NE","Wymore","Gage","31","67","40.08","-96.65","A","GD"
"68467","NE","York","York","31","185","40.87","-97.59","A","GD"
"68501","NE","Lincoln","Lancaster","31","109","40.82","-96.78","A","POB"
"68502","NE","Lincoln","Lancaster","31","109","40.79","-96.7","A","GD"
"68503","NE","Lincoln","Lancaster","31","109","40.82","-96.68","A","GD"
"68504","NE","Lincoln","Lancaster","31","109","40.85","-96.66","A","GD"
"68505","NE","Lincoln","Lancaster","31","109","40.83","-96.62","A","GD"
"68506","NE","Lincoln","Lancaster","31","109","40.79","-96.64","A","GD"
"68507","NE","Lincoln","Lancaster","31","109","40.85","-96.63","A","GD"
"68508","NE","Lincoln","Lancaster","31","109","40.81","-96.71","A","GD"
"68509","NE","Lincoln","Lancaster","31","109","40.82","-96.71","A","POB"
"68510","NE","Lincoln","Lancaster","31","109","40.81","-96.65","A","GD"
"68512","NE","Lincoln","Lancaster","31","109","40.74","-96.7","A","GD"
"68514","NE","Lincoln","Lancaster","31","109","40.9","-96.64","A","GD"
"68516","NE","Lincoln","Lancaster","31","109","40.75","-96.65","A","GD"
"68517","NE","Lincoln","Lancaster","31","109","40.92","-96.61","A","GD"
"68520","NE","Lincoln","Lancaster","31","109","40.8","-96.58","A","GD"
"68521","NE","Lincoln","Lancaster","31","109","40.86","-96.71","A","GD"
"68522","NE","Lincoln","Lancaster","31","109","40.79","-96.75","A","GD"
"68523","NE","Lincoln","Lancaster","31","109","40.74","-96.76","A","GD"
"68524","NE","Lincoln","Lancaster","31","109","40.86","-96.79","A","GD"
"68526","NE","Lincoln","Lancaster","31","109","40.74","-96.59","A","GD"
"68527","NE","Lincoln","Lancaster","31","109","40.85","-96.53","A","GD"
"68528","NE","Lincoln","Lancaster","31","109","40.82","-96.78","A","GD"
"68529","NE","Lincoln","Lancaster","31","109","40.85","-96.61","A","POB"
"68531","NE","Lincoln","Lancaster","31","109","40.9","-96.72","A","GD"
"68532","NE","Lincoln","Lancaster","31","109","40.79","-96.84","A","GD"
"68542","NE","Lincoln","Lancaster","31","109","40.79","-96.7","A","POB"
"68544","NE","Lincoln","Lancaster","31","109","40.82","-96.71","A","PVT"
"68583","NE","Lincoln","Lancaster","31","109","40.83","-96.66","A","POB"
"68588","NE","Lincoln","Lancaster","31","109","40.82","-96.71","A","POB"
"68601","NE","Columbus","Platte","31","141","41.44","-97.37","A","GD"
"68602","NE","Columbus","Platte","31","141","41.45","-97.31","A","POB"
"68620","NE","Albion","Boone","31","11","41.71","-98.02","A","GD"
"68621","NE","Ames","Dodge","31","53","41.47","-96.62","A","GD"
"68622","NE","Bartlett","Wheeler","31","183","41.92","-98.52","A","GD"
"68623","NE","Belgrade","Boone","31","11","41.45","-98.12","A","GD"
"68624","NE","Bellwood","Butler","31","23","41.36","-97.23","A","GD"
"68626","NE","Brainard","Butler","31","23","41.17","-96.99","A","GD"
"68627","NE","Cedar Rapids","Boone","31","11","41.56","-98.15","A","GD"
"68628","NE","Clarks","Merrick","31","121","41.21","-97.84","A","GD"
"68629","NE","Clarkson","Colfax","31","37","41.71","-97.13","A","GD"
"68631","NE","Creston","Platte","31","141","41.7","-97.36","A","GD"
"68632","NE","David City","Butler","31","23","41.26","-97.13","A","GD"
"68633","NE","Dodge","Dodge","31","53","41.7","-96.89","A","GD"
"68634","NE","Duncan","Platte","31","141","41.39","-97.49","A","POB"
"68635","NE","Dwight","Butler","31","23","41.08","-97.01","A","GD"
"68636","NE","Elgin","Antelope","31","3","42.01","-98.13","A","GD"
"68637","NE","Ericson","Wheeler","31","183","41.78","-98.64","A","GD"
"68638","NE","Fullerton","Nance","31","125","41.37","-97.97","A","GD"
"68640","NE","Genoa","Nance","31","125","41.46","-97.76","A","GD"
"68641","NE","Howells","Colfax","31","37","41.73","-97.01","A","GD"
"68642","NE","Humphrey","Platte","31","141","41.69","-97.5","A","GD"
"68643","NE","Leigh","Colfax","31","37","41.7","-97.25","A","GD"
"68644","NE","Lindsay","Platte","31","141","41.71","-97.69","A","GD"
"68647","NE","Monroe","Platte","31","141","41.51","-97.61","A","GD"
"68648","NE","Morse Bluff","Saunders","31","155","41.42","-96.78","A","GD"
"68649","NE","North Bend","Dodge","31","53","41.48","-96.79","A","GD"
"68651","NE","Osceola","Polk","31","143","41.2","-97.57","A","GD"
"68652","NE","Petersburg","Boone","31","11","41.86","-98.04","A","GD"
"68653","NE","Platte Center","Platte","31","141","41.54","-97.49","A","GD"
"68654","NE","Polk","Polk","31","143","41.07","-97.78","A","GD"
"68655","NE","Primrose","Boone","31","11","41.63","-98.24","A","GD"
"68658","NE","Rising City","Butler","31","23","41.2","-97.29","A","GD"
"68659","NE","Rogers","Colfax","31","37","41.53","-96.93","A","GD"
"68660","NE","Saint Edward","Boone","31","11","41.57","-97.87","A","GD"
"68661","NE","Schuyler","Colfax","31","37","41.46","-97.06","A","GD"
"68662","NE","Shelby","Polk","31","143","41.2","-97.42","A","GD"
"68663","NE","Silver Creek","Merrick","31","121","41.3","-97.69","A","GD"
"68664","NE","Snyder","Dodge","31","53","41.7","-96.79","A","POB"
"68665","NE","Spalding","Greeley","31","77","41.69","-98.39","A","GD"
"68666","NE","Stromsburg","Polk","31","143","41.11","-97.61","A","GD"
"68667","NE","Surprise","Butler","31","23","41.11","-97.31","A","GD"
"68669","NE","Ulysses","Butler","31","23","41.08","-97.22","A","GD"
"68701","NE","Norfolk","Madison","31","119","42.03","-97.42","A","GD"
"68702","NE","Norfolk","Madison","31","119","42.03","-97.42","A","POB"
"68710","NE","Allen","Dixon","31","51","42.43","-96.85","A","GD"
"68711","NE","Amelia","Holt","31","89","42.16","-99.02","A","GD"
"68713","NE","Atkinson","Holt","31","89","42.56","-98.94","A","GD"
"68714","NE","Bassett","Rock","31","149","42.48","-99.54","A","GD"
"68715","NE","Battle Creek","Madison","31","119","41.98","-97.61","A","GD"
"68716","NE","Beemer","Cuming","31","39","41.93","-96.82","A","GD"
"68717","NE","Belden","Cedar","31","27","42.41","-97.22","A","GD"
"68718","NE","Bloomfield","Knox","31","107","42.65","-97.69","A","GD"
"68719","NE","Bristow","Boyd","31","15","43.03","-98.55","A","GD"
"68720","NE","Brunswick","Antelope","31","3","42.34","-98.01","A","GD"
"68722","NE","Butte","Boyd","31","15","42.93","-98.86","A","GD"
"68723","NE","Carroll","Wayne","31","179","42.29","-97.2","A","GD"
"68724","NE","Center","Knox","31","107","42.63","-97.87","A","GD"
"68725","NE","Chambers","Holt","31","89","42.2","-98.76","A","GD"
"68726","NE","Clearwater","Antelope","31","3","42.18","-98.2","A","GD"
"68727","NE","Coleridge","Cedar","31","27","42.51","-97.21","A","GD"
"68728","NE","Concord","Dixon","31","51","42.38","-96.96","A","GD"
"68729","NE","Creighton","Knox","31","107","42.47","-97.91","A","GD"
"68730","NE","Crofton","Knox","31","107","42.79","-97.53","A","GD"
"68731","NE","Dakota City","Dakota","31","43","42.42","-96.45","A","GD"
"68732","NE","Dixon","Dixon","31","51","42.48","-96.98","A","GD"
"68733","NE","Emerson","Dakota","31","43","42.28","-96.73","A","GD"
"68734","NE","Emmet","Holt","31","89","42.47","-98.8","A","GD"
"68735","NE","Ewing","Holt","31","89","42.2","-98.41","A","GD"
"68736","NE","Fordyce","Cedar","31","27","42.75","-97.38","A","GD"
"68738","NE","Hadar","Pierce","31","139","42.11","-97.45","A","POB"
"68739","NE","Hartington","Cedar","31","27","42.63","-97.26","A","GD"
"68740","NE","Hoskins","Wayne","31","179","42.14","-97.31","A","GD"
"68741","NE","Hubbard","Dakota","31","43","42.37","-96.58","A","GD"
"68742","NE","Inman","Holt","31","89","42.37","-98.52","A","GD"
"68743","NE","Jackson","Dakota","31","43","42.46","-96.6","A","GD"
"68745","NE","Laurel","Cedar","31","27","42.44","-97.09","A","GD"
"68746","NE","Lynch","Boyd","31","15","42.81","-98.44","A","GD"
"68747","NE","Mclean","Pierce","31","139","42.39","-97.48","A","GD"
"68748","NE","Madison","Madison","31","119","41.84","-97.45","A","GD"
"68749","NE","Magnet","Cedar","31","27","42.46","-97.47","A","POB"
"68751","NE","Maskell","Dixon","31","51","42.69","-96.98","A","GD"
"68752","NE","Meadow Grove","Madison","31","119","42.01","-97.73","A","GD"
"68753","NE","Mills","Keya Paha","31","103","42.9","-99.46","A","GD"
"68755","NE","Naper","Boyd","31","15","42.94","-99.12","A","GD"
"68756","NE","Neligh","Antelope","31","3","42.16","-98.01","A","GD"
"68757","NE","Newcastle","Dixon","31","51","42.65","-96.92","A","GD"
"68758","NE","Newman Grove","Madison","31","119","41.78","-97.78","A","GD"
"68759","NE","Newport","Keya Paha","31","103","42.7","-99.31","A","GD"
"68760","NE","Niobrara","Knox","31","107","42.77","-98.05","A","GD"
"68761","NE","Oakdale","Antelope","31","3","42.07","-97.96","A","GD"
"68763","NE","Oneill","Holt","31","89","42.52","-98.61","A","GD"
"68764","NE","Orchard","Antelope","31","3","42.38","-98.23","A","GD"
"68765","NE","Osmond","Pierce","31","139","42.34","-97.61","A","GD"
"68766","NE","Page","Holt","31","89","42.41","-98.41","A","GD"
"68767","NE","Pierce","Pierce","31","139","42.2","-97.54","A","GD"
"68768","NE","Pilger","Stanton","31","167","41.99","-97.07","A","GD"
"68769","NE","Plainview","Pierce","31","139","42.34","-97.79","A","GD"
"68770","NE","Ponca","Dixon","31","51","42.56","-96.76","A","GD"
"68771","NE","Randolph","Cedar","31","27","42.38","-97.36","A","GD"
"68773","NE","Royal","Antelope","31","3","42.36","-98.12","A","GD"
"68774","NE","Saint Helena","Cedar","31","27","42.82","-97.28","A","GD"
"68776","NE","South Sioux City","Dakota","31","43","42.46","-96.42","A","GD"
"68777","NE","Spencer","Boyd","31","15","42.85","-98.68","A","GD"
"68778","NE","Springview","Keya Paha","31","103","42.85","-99.82","A","GD"
"68779","NE","Stanton","Stanton","31","167","41.96","-97.21","A","GD"
"68780","NE","Stuart","Holt","31","89","42.61","-99.13","A","GD"
"68781","NE","Tilden","Madison","31","119","42.04","-97.85","A","GD"
"68783","NE","Verdigre","Knox","31","107","42.61","-98.12","A","GD"
"68784","NE","Wakefield","Dixon","31","51","42.25","-96.88","A","GD"
"68785","NE","Waterbury","Dixon","31","51","42.44","-96.73","A","GD"
"68786","NE","Wausa","Knox","31","107","42.5","-97.56","A","GD"
"68787","NE","Wayne","Wayne","31","179","42.23","-97.02","A","GD"
"68788","NE","West Point","Cuming","31","39","41.84","-96.72","A","GD"
"68789","NE","Winnetoon","Knox","31","107","42.54","-97.99","A","GD"
"68790","NE","Winside","Wayne","31","179","42.17","-97.16","A","GD"
"68791","NE","Wisner","Cuming","31","39","42","-96.92","A","GD"
"68792","NE","Wynot","Cedar","31","27","42.74","-97.13","A","GD"
"68801","NE","Grand Island","Hall","31","79","40.92","-98.33","A","GD"
"68802","NE","Grand Island","Hall","31","79","40.91","-98.35","A","POB"
"68803","NE","Grand Island","Hall","31","79","40.93","-98.38","A","GD"
"68810","NE","Alda","Hall","31","79","40.87","-98.47","A","GD"
"68812","NE","Amherst","Buffalo","31","19","40.89","-99.28","A","GD"
"68813","NE","Anselmo","Custer","31","41","41.66","-99.82","A","GD"
"68814","NE","Ansley","Custer","31","41","41.32","-99.41","A","GD"
"68815","NE","Arcadia","Valley","31","175","41.42","-99.14","A","GD"
"68816","NE","Archer","Merrick","31","121","41.17","-98.13","A","GD"
"68817","NE","Ashton","Sherman","31","163","41.26","-98.77","A","GD"
"68818","NE","Aurora","Hamilton","31","81","40.84","-98","A","GD"
"68820","NE","Boelus","Howard","31","93","41.1","-98.71","A","GD"
"68821","NE","Brewster","Blaine","31","9","41.94","-99.84","A","GD"
"68822","NE","Broken Bow","Custer","31","41","41.41","-99.64","A","GD"
"68823","NE","Burwell","Garfield","31","71","41.82","-99.11","A","GD"
"68824","NE","Cairo","Hall","31","79","40.98","-98.58","A","GD"
"68825","NE","Callaway","Custer","31","41","41.28","-99.94","A","GD"
"68826","NE","Central City","Merrick","31","121","41.13","-98","A","GD"
"68827","NE","Chapman","Merrick","31","121","41.03","-98.17","A","GD"
"68828","NE","Comstock","Custer","31","41","41.56","-99.25","A","GD"
"68831","NE","Dannebrog","Howard","31","93","41.12","-98.57","A","GD"
"68832","NE","Doniphan","Hall","31","79","40.78","-98.37","A","GD"
"68833","NE","Dunning","Blaine","31","9","41.85","-100.15","A","GD"
"68834","NE","Eddyville","Dawson","31","47","41.04","-99.65","A","GD"
"68835","NE","Elba","Howard","31","93","41.33","-98.61","A","GD"
"68836","NE","Elm Creek","Buffalo","31","19","40.7","-99.37","A","GD"
"68837","NE","Elyria","Valley","31","175","41.66","-99.06","A","GD"
"68838","NE","Farwell","Howard","31","93","41.21","-98.67","A","GD"
"68840","NE","Gibbon","Buffalo","31","19","40.73","-98.88","A","GD"
"68841","NE","Giltner","Hamilton","31","81","40.77","-98.16","A","GD"
"68842","NE","Greeley","Greeley","31","77","41.55","-98.51","A","GD"
"68843","NE","Hampton","Hamilton","31","81","40.89","-97.89","A","GD"
"68844","NE","Hazard","Sherman","31","163","41.07","-99.06","A","GD"
"68845","NE","Kearney","Buffalo","31","19","40.71","-99.12","A","GD"
"68846","NE","Hordville","Hamilton","31","81","41.07","-97.89","A","GD"
"68847","NE","Kearney","Buffalo","31","19","40.71","-99.06","A","GD"
"68848","NE","Kearney","Buffalo","31","19","40.7","-99.07","A","POB"
"68849","NE","Kearney","Buffalo","31","19","40.7","-99.1","A","PVT"
"68850","NE","Lexington","Dawson","31","47","40.78","-99.74","A","GD"
"68852","NE","Litchfield","Sherman","31","163","41.17","-99.13","A","GD"
"68853","NE","Loup City","Sherman","31","163","41.28","-98.97","A","GD"
"68854","NE","Marquette","Hamilton","31","81","41.02","-98","A","GD"
"68855","NE","Mason City","Custer","31","41","41.17","-99.32","A","GD"
"68856","NE","Merna","Custer","31","41","41.49","-99.81","A","GD"
"68858","NE","Miller","Buffalo","31","19","40.97","-99.38","A","GD"
"68859","NE","North Loup","Valley","31","175","41.49","-98.8","A","GD"
"68860","NE","Oconto","Custer","31","41","41.15","-99.76","A","GD"
"68861","NE","Odessa","Buffalo","31","19","40.7","-99.26","A","GD"
"68862","NE","Ord","Valley","31","175","41.6","-98.94","A","GD"
"68863","NE","Overton","Dawson","31","47","40.74","-99.53","A","GD"
"68864","NE","Palmer","Merrick","31","121","41.24","-98.24","A","GD"
"68865","NE","Phillips","Hamilton","31","81","40.9","-98.2","A","GD"
"68866","NE","Pleasanton","Buffalo","31","19","40.98","-99.12","A","GD"
"68869","NE","Ravenna","Buffalo","31","19","41.01","-98.89","A","GD"
"68870","NE","Riverdale","Buffalo","31","19","40.81","-99.17","A","GD"
"68871","NE","Rockville","Sherman","31","163","41.12","-98.83","A","GD"
"68872","NE","Saint Libory","Howard","31","93","41.08","-98.33","A","GD"
"68873","NE","Saint Paul","Howard","31","93","41.23","-98.46","A","GD"
"68874","NE","Sargent","Custer","31","41","41.63","-99.41","A","GD"
"68875","NE","Scotia","Greeley","31","77","41.48","-98.69","A","GD"
"68876","NE","Shelton","Buffalo","31","19","40.78","-98.74","A","GD"
"68878","NE","Sumner","Dawson","31","47","40.98","-99.51","A","GD"
"68879","NE","Taylor","Loup","31","115","41.83","-99.49","A","GD"
"68881","NE","Westerville","Custer","31","41","41.42","-99.35","A","GD"
"68882","NE","Wolbach","Greeley","31","77","41.41","-98.41","A","GD"
"68883","NE","Wood River","Hall","31","79","40.82","-98.6","A","GD"
"68901","NE","Hastings","Adams","31","1","40.59","-98.37","A","GD"
"68902","NE","Hastings","Adams","31","1","40.59","-98.39","A","POB"
"68920","NE","Alma","Harlan","31","83","40.14","-99.36","A","GD"
"68922","NE","Arapahoe","Furnas","31","65","40.32","-99.9","A","GD"
"68923","NE","Atlanta","Phelps","31","137","40.37","-99.47","A","POB"
"68924","NE","Axtell","Kearney","31","99","40.49","-99.12","A","GD"
"68925","NE","Ayr","Adams","31","1","40.43","-98.44","A","GD"
"68926","NE","Beaver City","Furnas","31","65","40.11","-99.84","A","GD"
"68927","NE","Bertrand","Phelps","31","137","40.55","-99.62","A","GD"
"68928","NE","Bladen","Webster","31","181","40.3","-98.6","A","GD"
"68929","NE","Bloomington","Franklin","31","61","40.12","-99.05","A","GD"
"68930","NE","Blue Hill","Webster","31","181","40.3","-98.42","A","GD"
"68932","NE","Campbell","Franklin","31","61","40.3","-98.73","A","GD"
"68933","NE","Clay Center","Clay","31","35","40.52","-98.04","A","GD"
"68934","NE","Deweese","Clay","31","35","40.35","-98.14","A","GD"
"68935","NE","Edgar","Clay","31","35","40.37","-97.96","A","GD"
"68936","NE","Edison","Furnas","31","65","40.32","-99.77","A","GD"
"68937","NE","Elwood","Gosper","31","73","40.63","-99.86","A","GD"
"68938","NE","Fairfield","Clay","31","35","40.42","-98.11","A","GD"
"68939","NE","Franklin","Franklin","31","61","40.1","-98.96","A","GD"
"68940","NE","Funk","Phelps","31","137","40.53","-99.24","A","GD"
"68941","NE","Glenvil","Clay","31","35","40.47","-98.29","A","GD"
"68942","NE","Guide Rock","Webster","31","181","40.1","-98.32","A","GD"
"68943","NE","Hardy","Nuckolls","31","129","40.04","-97.91","A","GD"
"68944","NE","Harvard","Clay","31","35","40.63","-98.09","A","GD"
"68945","NE","Heartwell","Kearney","31","99","40.57","-98.78","A","GD"
"68946","NE","Hendley","Furnas","31","65","40.12","-99.99","A","GD"
"68947","NE","Hildreth","Franklin","31","61","40.31","-99.06","A","GD"
"68948","NE","Holbrook","Furnas","31","65","40.32","-100.02","A","GD"
"68949","NE","Holdrege","Phelps","31","137","40.44","-99.38","A","GD"
"68950","NE","Holstein","Adams","31","1","40.47","-98.66","A","GD"
"68952","NE","Inavale","Webster","31","181","40.09","-98.67","A","GD"
"68954","NE","Inland","Clay","31","35","40.6","-98.23","A","GD"
"68955","NE","Juniata","Adams","31","1","40.6","-98.52","A","GD"
"68956","NE","Kenesaw","Adams","31","1","40.63","-98.68","A","GD"
"68957","NE","Lawrence","Nuckolls","31","129","40.28","-98.25","A","GD"
"68958","NE","Loomis","Phelps","31","137","40.52","-99.5","A","GD"
"68959","NE","Minden","Kearney","31","99","40.49","-98.94","A","GD"
"68960","NE","Naponee","Franklin","31","61","40.09","-99.14","A","GD"
"68961","NE","Nelson","Nuckolls","31","129","40.2","-98.04","A","GD"
"68964","NE","Oak","Nuckolls","31","129","40.23","-97.9","A","GD"
"68966","NE","Orleans","Harlan","31","83","40.15","-99.47","A","GD"
"68967","NE","Oxford","Furnas","31","65","40.25","-99.63","A","GD"
"68969","NE","Ragan","Harlan","31","83","40.31","-99.29","A","POB"
"68970","NE","Red Cloud","Webster","31","181","40.1","-98.51","A","GD"
"68971","NE","Republican City","Harlan","31","83","40.11","-99.24","A","GD"
"68972","NE","Riverton","Franklin","31","61","40.11","-98.79","A","GD"
"68973","NE","Roseland","Adams","31","1","40.46","-98.56","A","GD"
"68974","NE","Ruskin","Nuckolls","31","129","40.14","-97.87","A","GD"
"68975","NE","Saronville","Clay","31","35","40.61","-97.95","A","GD"
"68976","NE","Smithfield","Gosper","31","73","40.58","-99.73","A","GD"
"68977","NE","Stamford","Harlan","31","83","40.09","-99.63","A","GD"
"68978","NE","Superior","Nuckolls","31","129","40.04","-98.08","A","GD"
"68979","NE","Sutton","Clay","31","35","40.6","-97.86","A","GD"
"68980","NE","Trumbull","Clay","31","35","40.69","-98.26","A","GD"
"68981","NE","Upland","Franklin","31","61","40.28","-98.9","A","GD"
"68982","NE","Wilcox","Kearney","31","99","40.34","-99.18","A","GD"
"69001","NE","Mc Cook","Red Willow","31","145","40.22","-100.64","A","GD"
"69020","NE","Bartley","Red Willow","31","145","40.23","-100.31","A","GD"
"69021","NE","Benkelman","Dundy","31","57","40.1","-101.54","A","GD"
"69022","NE","Cambridge","Furnas","31","65","40.33","-100.19","A","GD"
"69023","NE","Champion","Chase","31","29","40.49","-101.9","A","GD"
"69024","NE","Culbertson","Hitchcock","31","87","40.24","-100.85","A","GD"
"69025","NE","Curtis","Frontier","31","63","40.63","-100.51","A","GD"
"69026","NE","Danbury","Red Willow","31","145","40.04","-100.43","A","GD"
"69027","NE","Enders","Chase","31","29","40.43","-101.54","A","GD"
"69028","NE","Eustis","Frontier","31","63","40.66","-100.04","A","GD"
"69029","NE","Farnam","Dawson","31","47","40.69","-100.24","A","GD"
"69030","NE","Haigler","Dundy","31","57","40.1","-101.93","A","GD"
"69032","NE","Hayes Center","Hayes","31","85","40.54","-101.01","A","GD"
"69033","NE","Imperial","Chase","31","29","40.53","-101.68","A","GD"
"69034","NE","Indianola","Red Willow","31","145","40.23","-100.42","A","GD"
"69036","NE","Lebanon","Red Willow","31","145","40.05","-100.28","A","GD"
"69037","NE","Max","Dundy","31","57","40.15","-101.4","A","GD"
"69038","NE","Maywood","Frontier","31","63","40.63","-100.71","A","GD"
"69039","NE","Moorefield","Frontier","31","63","40.65","-100.37","A","GD"
"69040","NE","Palisade","Hitchcock","31","87","40.35","-101.12","A","GD"
"69041","NE","Parks","Dundy","31","57","40.13","-101.74","A","GD"
"69042","NE","Stockville","Frontier","31","63","40.51","-100.38","A","GD"
"69043","NE","Stratton","Hitchcock","31","87","40.15","-101.23","A","GD"
"69044","NE","Trenton","Hitchcock","31","87","40.16","-101.03","A","GD"
"69045","NE","Wauneta","Chase","31","29","40.46","-101.38","A","GD"
"69046","NE","Wilsonville","Furnas","31","65","40.09","-100.09","A","GD"
"69101","NE","North Platte","Lincoln","31","111","41.13","-100.78","A","GD"
"69103","NE","North Platte","Lincoln","31","111","41.14","-100.77","A","POB"
"69120","NE","Arnold","Custer","31","41","41.41","-100.2","A","GD"
"69121","NE","Arthur","Arthur","31","5","41.58","-101.66","A","GD"
"69122","NE","Big Springs","Deuel","31","49","41.08","-102.1","A","GD"
"69123","NE","Brady","Lincoln","31","111","41.02","-100.37","A","GD"
"69125","NE","Broadwater","Morrill","31","123","41.6","-102.86","A","GD"
"69127","NE","Brule","Keith","31","101","41.12","-101.89","A","GD"
"69128","NE","Bushnell","Kimball","31","105","41.21","-103.91","A","GD"
"69129","NE","Chappell","Deuel","31","49","41.1","-102.43","A","GD"
"69130","NE","Cozad","Dawson","31","47","40.86","-99.97","A","GD"
"69131","NE","Dalton","Cheyenne","31","33","41.4","-102.99","A","GD"
"69132","NE","Dickens","Lincoln","31","111","40.87","-101","A","GD"
"69133","NE","Dix","Kimball","31","105","41.21","-103.47","A","GD"
"69134","NE","Elsie","Perkins","31","135","40.84","-101.37","A","GD"
"69135","NE","Elsmere","Cherry","31","31","42.21","-100.23","A","GD"
"69138","NE","Gothenburg","Dawson","31","47","40.95","-100.16","A","GD"
"69140","NE","Grant","Perkins","31","135","40.85","-101.75","A","GD"
"69141","NE","Gurley","Cheyenne","31","33","41.3","-103","A","GD"
"69142","NE","Halsey","Thomas","31","171","41.9","-100.3","A","GD"
"69143","NE","Hershey","Lincoln","31","111","41.17","-101.03","A","GD"
"69144","NE","Keystone","Keith","31","101","41.24","-101.6","A","GD"
"69145","NE","Kimball","Kimball","31","105","41.23","-103.66","A","GD"
"69146","NE","Lemoyne","Keith","31","101","41.31","-101.77","A","GD"
"69147","NE","Lewellen","Garden","31","69","41.35","-102.08","A","GD"
"69148","NE","Lisco","Garden","31","69","41.54","-102.61","A","GD"
"69149","NE","Lodgepole","Cheyenne","31","33","41.19","-102.69","A","GD"
"69150","NE","Madrid","Perkins","31","135","40.85","-101.54","A","GD"
"69151","NE","Maxwell","Lincoln","31","111","41.05","-100.55","A","GD"
"69152","NE","Mullen","Hooker","31","91","42.21","-101.13","A","GD"
"69153","NE","Ogallala","Keith","31","101","41.12","-101.7","A","GD"
"69154","NE","Oshkosh","Garden","31","69","41.4","-102.35","A","GD"
"69155","NE","Paxton","Keith","31","101","41.12","-101.38","A","GD"
"69156","NE","Potter","Cheyenne","31","33","41.27","-103.32","A","GD"
"69157","NE","Purdum","Blaine","31","9","42.04","-100.17","A","GD"
"69160","NE","Sidney","Cheyenne","31","33","41.14","-102.98","A","PVT"
"69161","NE","Seneca","Thomas","31","171","42.08","-100.8","A","GD"
"69162","NE","Sidney","Cheyenne","31","33","41.14","-103","A","GD"
"69163","NE","Stapleton","Logan","31","113","41.48","-100.54","A","GD"
"69165","NE","Sutherland","Lincoln","31","111","41.15","-101.16","A","GD"
"69166","NE","Thedford","Thomas","31","171","42.08","-100.58","A","GD"
"69167","NE","Tryon","Mcpherson","31","117","41.6","-100.95","A","GD"
"69168","NE","Venango","Perkins","31","135","40.76","-102","A","GD"
"69169","NE","Wallace","Lincoln","31","111","40.82","-101.18","A","GD"
"69170","NE","Wellfleet","Lincoln","31","111","40.78","-100.73","A","GD"
"69171","NE","Willow Island","Dawson","31","47","40.89","-100.07","A","GD"
"69190","NE","Oshkosh","Garden","31","69","41.41","-102.34","A","PVT"
"69201","NE","Valentine","Cherry","31","31","43.13","-100.47","A","GD"
"69210","NE","Ainsworth","Brown","31","17","42.54","-99.86","A","GD"
"69211","NE","Cody","Cherry","31","31","42.84","-101.32","A","GD"
"69212","NE","Crookston","Cherry","31","31","43.08","-100.77","A","GD"
"69214","NE","Johnstown","Brown","31","17","42.6","-100.07","A","GD"
"69216","NE","Kilgore","Cherry","31","31","43.04","-100.97","A","GD"
"69217","NE","Long Pine","Brown","31","17","42.51","-99.7","A","GD"
"69218","NE","Merriman","Cherry","31","31","42.82","-101.65","A","GD"
"69219","NE","Nenzel","Cherry","31","31","42.69","-101.13","A","GD"
"69220","NE","Sparks","Cherry","31","31","42.89","-100.2","A","GD"
"69221","NE","Wood Lake","Cherry","31","31","42.61","-100.3","A","GD"
"69301","NE","Alliance","Box Butte","31","13","42.12","-102.87","A","GD"
"69331","NE","Angora","Morrill","31","123","41.83","-102.99","A","GD"
"69333","NE","Ashby","Grant","31","75","42.15","-101.98","A","GD"
"69334","NE","Bayard","Morrill","31","123","41.78","-103.32","A","GD"
"69335","NE","Bingham","Sheridan","31","161","42.06","-102.09","A","GD"
"69336","NE","Bridgeport","Morrill","31","123","41.65","-103.11","A","GD"
"69337","NE","Chadron","Dawes","31","45","42.81","-103","A","GD"
"69339","NE","Crawford","Dawes","31","45","42.65","-103.4","A","GD"
"69340","NE","Ellsworth","Sheridan","31","161","42.22","-102.2","A","GD"
"69341","NE","Gering","Scotts Bluff","31","157","41.8","-103.67","A","GD"
"69343","NE","Gordon","Sheridan","31","161","42.77","-102.16","A","GD"
"69345","NE","Harrisburg","Banner","31","7","41.56","-103.72","A","GD"
"69346","NE","Harrison","Sioux","31","165","42.72","-103.8","A","GD"
"69347","NE","Hay Springs","Sheridan","31","161","42.61","-102.66","A","GD"
"69348","NE","Hemingford","Box Butte","31","13","42.33","-103.15","A","GD"
"69350","NE","Hyannis","Grant","31","75","41.99","-101.7","A","GD"
"69351","NE","Lakeside","Sheridan","31","161","42.11","-102.42","A","GD"
"69352","NE","Lyman","Scotts Bluff","31","157","41.86","-104","A","GD"
"69353","NE","Mcgrew","Scotts Bluff","31","157","41.75","-103.42","A","POB"
"69354","NE","Marsland","Dawes","31","45","42.45","-103.35","A","GD"
"69355","NE","Melbeta","Scotts Bluff","31","157","41.78","-103.52","A","POB"
"69356","NE","Minatare","Scotts Bluff","31","157","41.86","-103.47","A","GD"
"69357","NE","Mitchell","Scotts Bluff","31","157","41.94","-103.8","A","GD"
"69358","NE","Morrill","Scotts Bluff","31","157","42","-103.96","A","GD"
"69360","NE","Rushville","Sheridan","31","161","42.73","-102.49","A","GD"
"69361","NE","Scottsbluff","Scotts Bluff","31","157","41.89","-103.65","A","GD"
"69363","NE","Scottsbluff","Scotts Bluff","31","157","41.87","-103.66","A","POB"
"69365","NE","Whiteclay","Sheridan","31","161","42.98","-102.54","A","POB"
"69366","NE","Whitman","Grant","31","75","42.14","-101.56","A","GD"
"69367","NE","Whitney","Dawes","31","45","42.78","-103.28","A","GD"
