"ZIPCode","State","City","County","StateFIPS","CountyFIPS","Latitude","Longitude","Preference","Type"
"30002","GA","Avondale Estates","Dekalb","13","89","33.77","-84.26","A","GD"
"30003","GA","Norcross","Gwinnett","13","135","33.68","-84.01","A","POB"
"30004","GA","Alpharetta","Fulton","13","121","34.12","-84.29","A","GD"
"30005","GA","Alpharetta","Fulton","13","121","34.08","-84.23","A","GD"
"30006","GA","Marietta","Cobb","13","67","33.95","-84.54","A","POB"
"30007","GA","Marietta","Cobb","13","67","33.97","-84.55","A","POB"
"30008","GA","Marietta","Cobb","13","67","33.91","-84.58","A","GD"
"30009","GA","Alpharetta","Fulton","13","121","34.07","-84.3","A","GD"
"30010","GA","Norcross","Gwinnett","13","135","33.97","-84.22","A","POB"
"30011","GA","Auburn","Barrow","13","13","34.02","-83.84","A","GD"
"30012","GA","Conyers","Rockdale","13","247","33.7","-84.02","A","GD"
"30013","GA","Conyers","Rockdale","13","247","33.64","-83.98","A","GD"
"30014","GA","Covington","Newton","13","217","33.59","-83.85","A","GD"
"30015","GA","Covington","Newton","13","217","33.6","-83.85","A","POB"
"30016","GA","Covington","Newton","13","217","33.55","-83.94","A","GD"
"30017","GA","Grayson","Gwinnett","13","135","33.88","-83.97","A","GD"
"30018","GA","Jersey","Walton","13","297","33.72","-83.8","A","POB"
"30019","GA","Dacula","Gwinnett","13","135","33.99","-83.89","A","GD"
"30021","GA","Clarkston","Dekalb","13","89","33.81","-84.24","A","GD"
"30022","GA","Alpharetta","Fulton","13","121","34.03","-84.25","A","GD"
"30023","GA","Alpharetta","Fulton","13","121","34.07","-84.27","A","POB"
"30024","GA","Suwanee","Gwinnett","13","135","34.05","-84.08","A","GD"
"30025","GA","Social Circle","Walton","13","297","33.65","-83.7","A","GD"
"30026","GA","North Metro","Gwinnett","13","135","33.98","-84.15","A","POB"
"30028","GA","Cumming","Forsyth","13","117","34.29","-84.17","A","GD"
"30029","GA","North Metro","Gwinnett","13","135","33.98","-84.15","A","POB"
"30030","GA","Decatur","Dekalb","13","89","33.77","-84.29","A","GD"
"30031","GA","Decatur","Dekalb","13","89","33.77","-84.28","A","POB"
"30032","GA","Decatur","Dekalb","13","89","33.74","-84.26","A","GD"
"30033","GA","Decatur","Dekalb","13","89","33.81","-84.28","A","GD"
"30034","GA","Decatur","Dekalb","13","89","33.69","-84.25","A","GD"
"30035","GA","Decatur","Dekalb","13","89","33.73","-84.21","A","GD"
"30036","GA","Decatur","Dekalb","13","89","33.77","-84.29","A","POB"
"30037","GA","Decatur","Dekalb","13","89","33.69","-84.25","A","POB"
"30038","GA","Lithonia","Dekalb","13","89","33.68","-84.15","A","GD"
"30039","GA","Snellville","Gwinnett","13","135","33.8","-84.04","A","GD"
"30040","GA","Cumming","Forsyth","13","117","34.21","-84.17","A","GD"
"30041","GA","Cumming","Forsyth","13","117","34.19","-84.11","A","GD"
"30042","GA","Lawrenceville","Gwinnett","13","135","33.92","-84.07","A","POB"
"30043","GA","Lawrenceville","Gwinnett","13","135","34","-84.02","A","GD"
"30044","GA","Lawrenceville","Gwinnett","13","135","33.92","-84.07","A","GD"
"30045","GA","Lawrenceville","Gwinnett","13","135","33.94","-83.95","A","GD"
"30046","GA","Lawrenceville","Gwinnett","13","135","33.95","-84","A","GD"
"30047","GA","Lilburn","Gwinnett","13","135","33.87","-84.12","A","GD"
"30048","GA","Lilburn","Gwinnett","13","135","33.9","-84.13","A","POB"
"30049","GA","Lawrenceville","Gwinnett","13","135","33.94","-83.98","A","POB"
"30052","GA","Loganville","Walton","13","297","33.83","-83.9","A","GD"
"30054","GA","Oxford","Newton","13","217","33.66","-83.87","A","GD"
"30055","GA","Mansfield","Newton","13","217","33.5","-83.75","A","GD"
"30056","GA","Newborn","Newton","13","217","33.5","-83.68","A","GD"
"30058","GA","Lithonia","Dekalb","13","89","33.73","-84.12","A","GD"
"30060","GA","Marietta","Cobb","13","67","33.93","-84.54","A","GD"
"30061","GA","Marietta","Cobb","13","67","33.92","-84.55","A","POB"
"30062","GA","Marietta","Cobb","13","67","33.99","-84.48","A","GD"
"30063","GA","Marietta","Cobb","13","67","33.93","-84.52","A","PVT"
"30064","GA","Marietta","Cobb","13","67","33.94","-84.61","A","GD"
"30065","GA","Marietta","Cobb","13","67","34.05","-84.44","A","POB"
"30066","GA","Marietta","Cobb","13","67","34.02","-84.52","A","GD"
"30067","GA","Marietta","Cobb","13","67","33.93","-84.48","A","GD"
"30068","GA","Marietta","Cobb","13","67","33.96","-84.45","A","GD"
"30069","GA","Marietta","Cobb","13","67","33.92","-84.52","A","PVT"
"30070","GA","Porterdale","Newton","13","217","33.57","-83.89","A","POB"
"30071","GA","Norcross","Gwinnett","13","135","33.94","-84.21","A","GD"
"30072","GA","Pine Lake","Dekalb","13","89","33.79","-84.21","A","POB"
"30074","GA","Redan","Dekalb","13","89","33.74","-84.14","A","POB"
"30075","GA","Roswell","Fulton","13","121","34.05","-84.38","A","GD"
"30076","GA","Roswell","Fulton","13","121","34.03","-84.32","A","GD"
"30077","GA","Roswell","Fulton","13","121","34.04","-84.35","A","POB"
"30078","GA","Snellville","Gwinnett","13","135","33.86","-84.02","A","GD"
"30079","GA","Scottdale","Dekalb","13","89","33.79","-84.26","A","GD"
"30080","GA","Smyrna","Cobb","13","67","33.87","-84.5","A","GD"
"30081","GA","Smyrna","Cobb","13","67","33.87","-84.52","A","POB"
"30082","GA","Smyrna","Cobb","13","67","33.86","-84.53","A","GD"
"30083","GA","Stone Mountain","Dekalb","13","89","33.8","-84.19","A","GD"
"30084","GA","Tucker","Dekalb","13","89","33.85","-84.22","A","GD"
"30085","GA","Tucker","Dekalb","13","89","33.85","-84.22","A","POB"
"30086","GA","Stone Mountain","Dekalb","13","89","33.8","-84.1","A","POB"
"30087","GA","Stone Mountain","Dekalb","13","89","33.82","-84.13","A","GD"
"30088","GA","Stone Mountain","Dekalb","13","89","33.76","-84.18","A","GD"
"30090","GA","Marietta","Cobb","13","67","33.97","-84.55","A","GD"
"30091","GA","Norcross","Gwinnett","13","135","33.94","-84.17","A","POB"
"30092","GA","Peachtree Corners","Gwinnett","13","135","33.97","-84.23","A","GD"
"30093","GA","Norcross","Gwinnett","13","135","33.91","-84.18","A","GD"
"30094","GA","Conyers","Rockdale","13","247","33.62","-84.04","A","GD"
"30095","GA","Duluth","Gwinnett","13","135","33.98","-84.15","A","POB"
"30096","GA","Duluth","Gwinnett","13","135","33.98","-84.15","A","GD"
"30097","GA","Duluth","Fulton","13","121","34.02","-84.15","A","GD"
"30098","GA","Duluth","Fulton","13","121","34.03","-84.15","A","PVT"
"30099","GA","Duluth","Gwinnett","13","135","33.98","-84.15","A","PVT"
"30101","GA","Acworth","Cobb","13","67","34.05","-84.69","A","GD"
"30102","GA","Acworth","Cherokee","13","57","34.09","-84.62","A","GD"
"30103","GA","Adairsville","Bartow","13","15","34.37","-84.93","A","GD"
"30104","GA","Aragon","Polk","13","233","34.07","-85.07","A","GD"
"30105","GA","Armuchee","Floyd","13","115","34.43","-85.17","A","GD"
"30106","GA","Austell","Cobb","13","67","33.83","-84.63","A","GD"
"30107","GA","Ball Ground","Cherokee","13","57","34.34","-84.37","A","GD"
"30108","GA","Bowdon","Carroll","13","45","33.53","-85.26","A","GD"
"30109","GA","Bowdon Junction","Carroll","13","45","33.57","-85.08","A","POB"
"30110","GA","Bremen","Haralson","13","143","33.72","-85.14","A","GD"
"30111","GA","Clarkdale","Cobb","13","67","33.81","-84.61","A","POB"
"30112","GA","Carrollton","Carroll","13","45","33.58","-85.09","A","POB"
"30113","GA","Buchanan","Haralson","13","143","33.85","-85.19","A","GD"
"30114","GA","Canton","Cherokee","13","57","34.23","-84.51","A","GD"
"30115","GA","Canton","Cherokee","13","57","34.19","-84.44","A","GD"
"30116","GA","Carrollton","Carroll","13","45","33.56","-85.02","A","GD"
"30117","GA","Carrollton","Carroll","13","45","33.59","-85.11","A","GD"
"30118","GA","Carrollton","Carroll","13","45","33.57","-85.1","A","PVT"
"30119","GA","Carrollton","Carroll","13","45","33.59","-85.13","A","PVT"
"30120","GA","Cartersville","Bartow","13","15","34.17","-84.83","A","GD"
"30121","GA","Cartersville","Bartow","13","15","34.2","-84.78","A","GD"
"30122","GA","Lithia Springs","Douglas","13","97","33.77","-84.63","A","GD"
"30123","GA","Cassville","Bartow","13","15","34.25","-84.86","A","POB"
"30124","GA","Cave Spring","Floyd","13","115","34.13","-85.34","A","GD"
"30125","GA","Cedartown","Polk","13","233","34.01","-85.25","A","GD"
"30126","GA","Mableton","Cobb","13","67","33.82","-84.55","A","GD"
"30127","GA","Powder Springs","Cobb","13","67","33.87","-84.69","A","GD"
"30129","GA","Coosa","Floyd","13","115","34.26","-85.34","A","POB"
"30132","GA","Dallas","Paulding","13","223","33.96","-84.83","A","GD"
"30133","GA","Douglasville","Douglas","13","97","33.74","-84.7","A","POB"
"30134","GA","Douglasville","Douglas","13","97","33.77","-84.76","A","GD"
"30135","GA","Douglasville","Douglas","13","97","33.7","-84.73","A","GD"
"30137","GA","Emerson","Bartow","13","15","34.13","-84.76","A","GD"
"30138","GA","Esom Hill","Polk","13","233","34","-85.27","A","POB"
"30139","GA","Fairmount","Gordon","13","129","34.43","-84.7","A","GD"
"30140","GA","Felton","Haralson","13","143","33.88","-85.22","A","POB"
"30141","GA","Hiram","Paulding","13","223","33.87","-84.77","A","GD"
"30142","GA","Holly Springs","Cherokee","13","57","34.17","-84.5","A","POB"
"30143","GA","Jasper","Pickens","13","227","34.46","-84.42","A","GD"
"30144","GA","Kennesaw","Cobb","13","67","34.03","-84.6","A","GD"
"30145","GA","Kingston","Bartow","13","15","34.22","-84.97","A","GD"
"30146","GA","Lebanon","Cherokee","13","57","34.23","-84.46","A","POB"
"30147","GA","Lindale","Floyd","13","115","34.17","-85.19","A","GD"
"30148","GA","Marble Hill","Pickens","13","227","34.46","-84.26","A","GD"
"30149","GA","Mount Berry","Floyd","13","115","34.3","-85.21","A","POB"
"30150","GA","Mount Zion","Carroll","13","45","33.62","-85.18","A","POB"
"30151","GA","Nelson","Cherokee","13","57","34.38","-84.37","A","POB"
"30152","GA","Kennesaw","Cobb","13","67","34","-84.63","A","GD"
"30153","GA","Rockmart","Polk","13","233","33.99","-85.05","A","GD"
"30154","GA","Douglasville","Douglas","13","97","33.75","-84.75","A","POB"
"30156","GA","Kennesaw","Cobb","13","67","34.03","-84.61","A","POB"
"30157","GA","Dallas","Paulding","13","223","33.9","-84.82","A","GD"
"30160","GA","Kennesaw","Cobb","13","67","34.03","-84.61","A","POB"
"30161","GA","Rome","Floyd","13","115","34.25","-85.16","A","GD"
"30162","GA","Rome","Floyd","13","115","34.25","-85.13","A","POB"
"30163","GA","Rome","Floyd","13","115","34.25","-85.13","A","POB"
"30164","GA","Rome","Floyd","13","115","33.4","-83.83","A","POB"
"30165","GA","Rome","Floyd","13","115","34.28","-85.24","A","GD"
"30168","GA","Austell","Cobb","13","67","33.79","-84.6","A","GD"
"30169","GA","Canton","Cherokee","13","57","34.25","-84.52","A","POB"
"30170","GA","Roopville","Carroll","13","45","33.43","-85.17","A","GD"
"30171","GA","Rydal","Bartow","13","15","34.35","-84.73","A","GD"
"30172","GA","Shannon","Floyd","13","115","34.34","-85.08","A","POB"
"30173","GA","Silver Creek","Floyd","13","115","34.13","-85.15","A","GD"
"30175","GA","Talking Rock","Pickens","13","227","34.54","-84.51","A","GD"
"30176","GA","Tallapoosa","Haralson","13","143","33.75","-85.29","A","GD"
"30177","GA","Tate","Pickens","13","227","34.4","-84.38","A","GD"
"30178","GA","Taylorsville","Bartow","13","15","34.1","-84.97","A","GD"
"30179","GA","Temple","Carroll","13","45","33.75","-85.02","A","GD"
"30180","GA","Villa Rica","Carroll","13","45","33.72","-84.92","A","GD"
"30182","GA","Waco","Haralson","13","143","33.66","-85.23","A","GD"
"30183","GA","Waleska","Cherokee","13","57","34.35","-84.59","A","GD"
"30184","GA","White","Bartow","13","15","34.25","-84.74","A","GD"
"30185","GA","Whitesburg","Carroll","13","45","33.52","-84.92","A","GD"
"30187","GA","Winston","Douglas","13","97","33.67","-84.84","A","GD"
"30188","GA","Woodstock","Cherokee","13","57","34.11","-84.48","A","GD"
"30189","GA","Woodstock","Cherokee","13","57","34.12","-84.56","A","GD"
"30204","GA","Barnesville","Lamar","13","171","33.06","-84.15","A","GD"
"30205","GA","Brooks","Fayette","13","113","33.28","-84.46","A","GD"
"30206","GA","Concord","Pike","13","231","33.09","-84.45","A","GD"
"30212","GA","Experiment","Spalding","13","255","33.27","-84.28","A","POB"
"30213","GA","Fairburn","Fulton","13","121","33.57","-84.6","A","GD"
"30214","GA","Fayetteville","Fayette","13","113","33.49","-84.48","A","GD"
"30215","GA","Fayetteville","Fayette","13","113","33.41","-84.46","A","GD"
"30216","GA","Flovilla","Butts","13","35","33.24","-83.9","A","GD"
"30217","GA","Franklin","Heard","13","149","33.3","-85.11","A","GD"
"30218","GA","Gay","Meriwether","13","199","33.12","-84.57","A","GD"
"30220","GA","Grantville","Coweta","13","77","33.23","-84.82","A","GD"
"30222","GA","Greenville","Meriwether","13","199","33.04","-84.74","A","GD"
"30223","GA","Griffin","Spalding","13","255","33.27","-84.28","A","GD"
"30224","GA","Griffin","Spalding","13","255","33.22","-84.25","A","GD"
"30228","GA","Hampton","Henry","13","151","33.4","-84.3","A","GD"
"30229","GA","Haralson","Coweta","13","77","33.23","-84.57","A","POB"
"30230","GA","Hogansville","Troup","13","285","33.17","-84.92","A","GD"
"30233","GA","Jackson","Butts","13","35","33.3","-83.97","A","GD"
"30234","GA","Jenkinsburg","Butts","13","35","33.32","-84.04","A","GD"
"30236","GA","Jonesboro","Clayton","13","63","33.53","-84.33","A","GD"
"30237","GA","Jonesboro","Clayton","13","63","33.52","-84.35","A","POB"
"30238","GA","Jonesboro","Clayton","13","63","33.5","-84.38","A","GD"
"30240","GA","Lagrange","Troup","13","285","33.03","-85.08","A","GD"
"30241","GA","Lagrange","Troup","13","285","33.03","-84.98","A","GD"
"30248","GA","Locust Grove","Henry","13","151","33.35","-84.11","A","GD"
"30250","GA","Lovejoy","Clayton","13","63","33.44","-84.31","A","POB"
"30251","GA","Luthersville","Meriwether","13","199","33.2","-84.7","A","GD"
"30252","GA","Mcdonough","Henry","13","151","33.46","-84.09","A","GD"
"30253","GA","Mcdonough","Henry","13","151","33.45","-84.18","A","GD"
"30256","GA","Meansville","Pike","13","231","33.02","-84.32","A","GD"
"30257","GA","Milner","Lamar","13","171","33.14","-84.2","A","GD"
"30258","GA","Molena","Pike","13","231","33","-84.47","A","GD"
"30259","GA","Moreland","Coweta","13","77","33.27","-84.75","A","GD"
"30260","GA","Morrow","Clayton","13","63","33.59","-84.33","A","GD"
"30261","GA","Lagrange","Troup","13","285","33.06","-84.89","A","POB"
"30263","GA","Newnan","Coweta","13","77","33.39","-84.82","A","GD"
"30264","GA","Newnan","Coweta","13","77","33.37","-84.81","A","POB"
"30265","GA","Newnan","Coweta","13","77","33.4","-84.72","A","GD"
"30266","GA","Orchard Hill","Spalding","13","255","33.17","-84.21","A","POB"
"30268","GA","Palmetto","Fulton","13","121","33.53","-84.69","A","GD"
"30269","GA","Peachtree City","Fayette","13","113","33.4","-84.57","A","GD"
"30270","GA","Peachtree City","Fayette","13","113","33.4","-84.59","A","PVT"
"30271","GA","Newnan","Coweta","13","77","33.38","-84.79","A","POB"
"30272","GA","Red Oak","Fulton","13","121","33.61","-84.51","A","POB"
"30273","GA","Rex","Clayton","13","63","33.58","-84.27","A","GD"
"30274","GA","Riverdale","Clayton","13","63","33.55","-84.4","A","GD"
"30275","GA","Sargent","Coweta","13","77","33.44","-84.87","A","POB"
"30276","GA","Senoia","Coweta","13","77","33.28","-84.58","A","GD"
"30277","GA","Sharpsburg","Coweta","13","77","33.37","-84.66","A","GD"
"30281","GA","Stockbridge","Henry","13","151","33.55","-84.22","A","GD"
"30284","GA","Sunny Side","Spalding","13","255","33.34","-84.29","A","POB"
"30285","GA","The Rock","Upson","13","293","32.98","-84.25","A","GD"
"30286","GA","Thomaston","Upson","13","293","32.89","-84.33","A","GD"
"30287","GA","Morrow","Clayton","13","63","33.55","-84.4","A","POB"
"30288","GA","Conley","Clayton","13","63","33.65","-84.33","A","GD"
"30289","GA","Turin","Coweta","13","77","33.33","-84.64","A","POB"
"30290","GA","Tyrone","Fayette","13","113","33.48","-84.59","A","GD"
"30291","GA","Union City","Fulton","13","121","33.58","-84.54","A","GD"
"30292","GA","Williamson","Pike","13","231","33.17","-84.38","A","GD"
"30293","GA","Woodbury","Meriwether","13","199","32.97","-84.59","A","GD"
"30294","GA","Ellenwood","Dekalb","13","89","33.63","-84.28","A","GD"
"30295","GA","Zebulon","Pike","13","231","33.09","-84.32","A","GD"
"30296","GA","Riverdale","Clayton","13","63","33.56","-84.44","A","GD"
"30297","GA","Forest Park","Clayton","13","63","33.62","-84.37","A","GD"
"30298","GA","Forest Park","Clayton","13","63","33.62","-84.35","A","POB"
"30301","GA","Atlanta","Fulton","13","121","33.65","-84.39","A","POB"
"30302","GA","Atlanta","Fulton","13","121","33.75","-84.39","A","POB"
"30303","GA","Atlanta","Fulton","13","121","33.75","-84.39","A","GD"
"30304","GA","Atlanta","Fulton","13","121","33.65","-84.39","A","GD"
"30305","GA","Atlanta","Fulton","13","121","33.83","-84.39","A","GD"
"30306","GA","Atlanta","Fulton","13","121","33.79","-84.35","A","GD"
"30307","GA","Atlanta","Fulton","13","121","33.77","-84.34","A","GD"
"30308","GA","Atlanta","Fulton","13","121","33.77","-84.38","A","GD"
"30309","GA","Atlanta","Fulton","13","121","33.79","-84.39","A","GD"
"30310","GA","Atlanta","Fulton","13","121","33.73","-84.42","A","GD"
"30311","GA","Atlanta","Fulton","13","121","33.72","-84.48","A","GD"
"30312","GA","Atlanta","Fulton","13","121","33.75","-84.38","A","GD"
"30313","GA","Atlanta","Fulton","13","121","33.76","-84.4","A","GD"
"30314","GA","Atlanta","Fulton","13","121","33.76","-84.42","A","GD"
"30315","GA","Atlanta","Fulton","13","121","33.71","-84.39","A","GD"
"30316","GA","Atlanta","Fulton","13","121","33.73","-84.34","A","GD"
"30317","GA","Atlanta","Dekalb","13","89","33.75","-84.32","A","GD"
"30318","GA","Atlanta","Fulton","13","121","33.79","-84.44","A","GD"
"30319","GA","Atlanta","Dekalb","13","89","33.87","-84.34","A","GD"
"30320","GA","Atlanta","Fulton","13","121","33.64","-84.43","A","POB"
"30321","GA","Atlanta","Fulton","13","121","33.75","-84.39","A","POB"
"30322","GA","Atlanta","Dekalb","13","89","33.79","-84.33","A","PVT"
"30324","GA","Atlanta","Fulton","13","121","33.82","-84.36","A","GD"
"30325","GA","Atlanta","Fulton","13","121","33.79","-84.45","A","POB"
"30326","GA","Atlanta","Fulton","13","121","33.85","-84.36","A","GD"
"30327","GA","Atlanta","Fulton","13","121","33.86","-84.42","A","GD"
"30328","GA","Atlanta","Fulton","13","121","33.93","-84.38","A","GD"
"30329","GA","Atlanta","Dekalb","13","89","33.83","-84.33","A","GD"
"30331","GA","Atlanta","Fulton","13","121","33.71","-84.52","A","GD"
"30332","GA","Atlanta","Fulton","13","121","33.78","-84.41","A","PVT"
"30333","GA","Atlanta","Dekalb","13","89","33.79","-84.32","A","POB"
"30334","GA","Atlanta","Fulton","13","121","33.75","-84.39","A","GD"
"30336","GA","Atlanta","Fulton","13","121","33.75","-84.55","A","GD"
"30337","GA","Atlanta","Fulton","13","121","33.65","-84.45","A","GD"
"30338","GA","Atlanta","Dekalb","13","89","33.94","-84.32","A","GD"
"30339","GA","Atlanta","Cobb","13","67","33.88","-84.47","A","GD"
"30340","GA","Atlanta","Dekalb","13","89","33.9","-84.25","A","GD"
"30341","GA","Atlanta","Dekalb","13","89","33.89","-84.29","A","GD"
"30342","GA","Atlanta","Fulton","13","121","33.88","-84.37","A","GD"
"30343","GA","Atlanta","Fulton","13","121","33.75","-84.39","A","POB"
"30344","GA","Atlanta","Fulton","13","121","33.68","-84.45","A","GD"
"30345","GA","Atlanta","Dekalb","13","89","33.85","-84.28","A","GD"
"30346","GA","Atlanta","Dekalb","13","89","33.92","-84.34","A","GD"
"30348","GA","Atlanta","Fulton","13","121","33.65","-84.39","A","POB"
"30349","GA","Atlanta","Fulton","13","121","33.61","-84.5","A","GD"
"30350","GA","Atlanta","Fulton","13","121","33.98","-84.34","A","GD"
"30353","GA","Atlanta","Fulton","13","121","33.75","-84.39","A","POB"
"30354","GA","Atlanta","Fulton","13","121","33.66","-84.4","A","GD"
"30355","GA","Atlanta","Fulton","13","121","33.84","-84.37","A","POB"
"30356","GA","Atlanta","Dekalb","13","89","33.95","-84.33","A","POB"
"30357","GA","Atlanta","Fulton","13","121","33.8","-84.39","A","POB"
"30358","GA","Atlanta","Fulton","13","121","33.93","-84.39","A","POB"
"30359","GA","Atlanta","Dekalb","13","89","33.82","-84.32","A","POB"
"30360","GA","Atlanta","Dekalb","13","89","33.93","-84.28","A","GD"
"30361","GA","Atlanta","Fulton","13","121","33.79","-84.38","A","GD"
"30362","GA","Atlanta","Dekalb","13","89","33.9","-84.27","A","POB"
"30363","GA","Atlanta","Fulton","13","121","33.79","-84.4","A","GD"
"30364","GA","Atlanta","Fulton","13","121","33.67","-84.46","A","POB"
"30366","GA","Atlanta","Dekalb","13","89","33.89","-84.29","A","POB"
"30368","GA","Atlanta","Fulton","13","121","33.65","-84.39","A","PVT"
"30369","GA","Atlanta","Fulton","13","121","33.8","-84.47","A","GD"
"30370","GA","Atlanta","Fulton","13","121","33.75","-84.39","A","POB"
"30371","GA","Atlanta","Fulton","13","121","33.76","-84.42","A","POB"
"30374","GA","Atlanta","Fulton","13","121","33.75","-84.39","A","POB"
"30375","GA","Atlanta","Fulton","13","121","33.77","-84.39","A","PVT"
"30377","GA","Atlanta","Fulton","13","121","33.79","-84.45","A","POB"
"30378","GA","Atlanta","Fulton","13","121","33.75","-84.55","A","POB"
"30380","GA","Atlanta","Fulton","13","121","33.65","-84.39","A","PVT"
"30384","GA","Atlanta","Fulton","13","121","33.9","-84.45","A","PVT"
"30385","GA","Atlanta","Fulton","13","121","33.67","-84.44","A","PVT"
"30388","GA","Atlanta","Fulton","13","121","33.65","-84.39","A","PVT"
"30392","GA","Atlanta","Fulton","13","121","33.75","-84.39","A","POB"
"30394","GA","Atlanta","Fulton","13","121","33.75","-84.39","A","POB"
"30396","GA","Atlanta","Fulton","13","121","33.65","-84.39","A","PVT"
"30398","GA","Atlanta","Fulton","13","121","33.65","-84.39","A","PVT"
"30401","GA","Swainsboro","Emanuel","13","107","32.6","-82.34","A","GD"
"30410","GA","Ailey","Montgomery","13","209","32.18","-82.52","A","GD"
"30411","GA","Alamo","Wheeler","13","309","32.12","-82.79","A","GD"
"30412","GA","Alston","Montgomery","13","209","32.08","-82.48","A","POB"
"30413","GA","Bartow","Jefferson","13","163","32.88","-82.51","A","GD"
"30414","GA","Bellville","Evans","13","109","32.15","-81.97","A","POB"
"30415","GA","Brooklet","Bulloch","13","31","32.33","-81.61","A","GD"
"30417","GA","Claxton","Evans","13","109","32.17","-81.91","A","GD"
"30420","GA","Cobbtown","Tattnall","13","267","32.28","-82.16","A","GD"
"30421","GA","Collins","Tattnall","13","267","32.18","-82.11","A","GD"
"30423","GA","Daisy","Evans","13","109","32.15","-81.83","A","POB"
"30424","GA","Dover","Screven","13","251","32.58","-81.72","A","POB"
"30425","GA","Garfield","Emanuel","13","107","32.65","-82.04","A","GD"
"30426","GA","Girard","Burke","13","33","33.02","-81.63","A","GD"
"30427","GA","Glennville","Tattnall","13","267","31.94","-81.93","A","GD"
"30428","GA","Glenwood","Wheeler","13","309","32.22","-82.69","A","GD"
"30429","GA","Hagan","Evans","13","109","32.16","-81.93","A","POB"
"30434","GA","Louisville","Jefferson","13","163","33.01","-82.38","A","GD"
"30436","GA","Lyons","Toombs","13","279","32.18","-82.31","A","GD"
"30438","GA","Manassas","Tattnall","13","267","32.16","-82.02","A","POB"
"30439","GA","Metter","Candler","13","43","32.4","-82.06","A","GD"
"30441","GA","Midville","Burke","13","33","32.81","-82.24","A","GD"
"30442","GA","Millen","Jenkins","13","165","32.8","-81.97","A","GD"
"30445","GA","Mount Vernon","Montgomery","13","209","32.17","-82.58","A","GD"
"30446","GA","Newington","Screven","13","251","32.58","-81.47","A","GD"
"30447","GA","Norristown","Emanuel","13","107","32.51","-82.49","A","POB"
"30448","GA","Nunez","Emanuel","13","107","32.49","-82.36","A","POB"
"30449","GA","Oliver","Screven","13","251","32.52","-81.54","A","POB"
"30450","GA","Portal","Bulloch","13","31","32.56","-81.93","A","GD"
"30451","GA","Pulaski","Candler","13","43","32.39","-81.95","A","POB"
"30452","GA","Register","Bulloch","13","31","32.33","-81.89","A","GD"
"30453","GA","Reidsville","Tattnall","13","267","32.04","-82.13","A","GD"
"30454","GA","Rockledge","Laurens","13","175","32.44","-82.72","A","GD"
"30455","GA","Rocky Ford","Screven","13","251","32.68","-81.81","A","GD"
"30456","GA","Sardis","Burke","13","33","32.98","-81.77","A","GD"
"30457","GA","Soperton","Treutlen","13","283","32.4","-82.58","A","GD"
"30458","GA","Statesboro","Bulloch","13","31","32.41","-81.81","A","GD"
"30459","GA","Statesboro","Bulloch","13","31","32.45","-81.78","A","POB"
"30460","GA","Statesboro","Bulloch","13","31","32.42","-81.78","A","PVT"
"30461","GA","Statesboro","Bulloch","13","31","32.5","-81.72","A","GD"
"30464","GA","Stillmore","Emanuel","13","107","32.44","-82.22","A","POB"
"30467","GA","Sylvania","Screven","13","251","32.77","-81.63","A","GD"
"30470","GA","Tarrytown","Montgomery","13","209","32.33","-82.54","A","GD"
"30471","GA","Twin City","Emanuel","13","107","32.54","-82.17","A","GD"
"30473","GA","Uvalda","Montgomery","13","209","32.02","-82.48","A","GD"
"30474","GA","Vidalia","Toombs","13","279","32.22","-82.42","A","GD"
"30475","GA","Vidalia","Toombs","13","279","32.23","-82.37","A","POB"
"30477","GA","Wadley","Jefferson","13","163","32.87","-82.4","A","GD"
"30499","GA","Reidsville","Tattnall","13","267","32.08","-82.12","A","PVT"
"30501","GA","Gainesville","Hall","13","139","34.31","-83.82","A","GD"
"30502","GA","Chestnut Mountain","Hall","13","139","34.18","-83.91","A","POB"
"30503","GA","Gainesville","Hall","13","139","34.37","-83.82","A","POB"
"30504","GA","Gainesville","Hall","13","139","34.27","-83.87","A","GD"
"30506","GA","Gainesville","Hall","13","139","34.35","-83.9","A","GD"
"30507","GA","Gainesville","Hall","13","139","34.26","-83.78","A","GD"
"30510","GA","Alto","Habersham","13","137","34.45","-83.59","A","GD"
"30511","GA","Baldwin","Banks","13","11","34.46","-83.5","A","GD"
"30512","GA","Blairsville","Union","13","291","34.88","-84","A","GD"
"30513","GA","Blue Ridge","Fannin","13","111","34.86","-84.33","A","GD"
"30514","GA","Blairsville","Union","13","291","34.87","-83.95","A","POB"
"30515","GA","Buford","Gwinnett","13","135","34.13","-84.03","A","POB"
"30516","GA","Bowersville","Hart","13","147","34.37","-83.05","A","GD"
"30517","GA","Braselton","Jackson","13","157","34.12","-83.8","A","GD"
"30518","GA","Buford","Gwinnett","13","135","34.12","-84.02","A","GD"
"30519","GA","Buford","Gwinnett","13","135","34.09","-83.94","A","GD"
"30520","GA","Canon","Franklin","13","119","34.34","-83.08","A","GD"
"30521","GA","Carnesville","Franklin","13","119","34.36","-83.29","A","GD"
"30522","GA","Cherry Log","Gilmer","13","123","34.79","-84.36","A","GD"
"30523","GA","Clarkesville","Habersham","13","137","34.68","-83.52","A","GD"
"30525","GA","Clayton","Rabun","13","241","34.89","-83.39","A","GD"
"30527","GA","Clermont","Hall","13","139","34.48","-83.78","A","GD"
"30528","GA","Cleveland","White","13","311","34.59","-83.77","A","GD"
"30529","GA","Commerce","Jackson","13","157","34.21","-83.47","A","GD"
"30530","GA","Commerce","Banks","13","11","34.22","-83.39","A","GD"
"30531","GA","Cornelia","Habersham","13","137","34.52","-83.55","A","GD"
"30533","GA","Dahlonega","Lumpkin","13","187","34.54","-84","A","GD"
"30534","GA","Dawsonville","Dawson","13","85","34.42","-84.11","A","GD"
"30535","GA","Demorest","Habersham","13","137","34.57","-83.56","A","GD"
"30536","GA","Ellijay","Gilmer","13","123","34.66","-84.38","A","GD"
"30537","GA","Dillard","Rabun","13","241","34.98","-83.35","A","GD"
"30538","GA","Eastanollee","Stephens","13","257","34.51","-83.27","A","GD"
"30539","GA","East Ellijay","Gilmer","13","123","34.68","-84.47","A","POB"
"30540","GA","Ellijay","Gilmer","13","123","34.69","-84.53","A","GD"
"30541","GA","Epworth","Fannin","13","111","34.94","-84.44","A","GD"
"30542","GA","Flowery Branch","Hall","13","139","34.18","-83.91","A","GD"
"30543","GA","Gillsville","Hall","13","139","34.29","-83.65","A","GD"
"30545","GA","Helen","White","13","311","34.71","-83.74","A","GD"
"30546","GA","Hiawassee","Towns","13","281","34.92","-83.73","A","GD"
"30547","GA","Homer","Banks","13","11","34.36","-83.47","A","GD"
"30548","GA","Hoschton","Jackson","13","157","34.09","-83.78","A","GD"
"30549","GA","Jefferson","Jackson","13","157","34.11","-83.59","A","GD"
"30552","GA","Lakemont","Rabun","13","241","34.76","-83.44","A","GD"
"30553","GA","Lavonia","Franklin","13","119","34.46","-83.09","A","GD"
"30554","GA","Lula","Hall","13","139","34.39","-83.66","A","GD"
"30555","GA","Mc Caysville","Fannin","13","111","34.98","-84.39","A","GD"
"30557","GA","Martin","Stephens","13","257","34.49","-83.18","A","GD"
"30558","GA","Maysville","Banks","13","11","34.26","-83.56","A","GD"
"30559","GA","Mineral Bluff","Fannin","13","111","34.94","-84.28","A","GD"
"30560","GA","Morganton","Fannin","13","111","34.89","-84.21","A","GD"
"30562","GA","Mountain City","Rabun","13","241","34.92","-83.38","A","POB"
"30563","GA","Mount Airy","Habersham","13","137","34.56","-83.48","A","GD"
"30564","GA","Murrayville","Hall","13","139","34.47","-83.89","A","GD"
"30565","GA","Nicholson","Jackson","13","157","34.09","-83.42","A","GD"
"30566","GA","Oakwood","Hall","13","139","34.24","-83.89","A","GD"
"30567","GA","Pendergrass","Jackson","13","157","34.17","-83.68","A","GD"
"30568","GA","Rabun Gap","Rabun","13","241","34.95","-83.41","A","GD"
"30571","GA","Sautee Nacoochee","White","13","311","34.7","-83.68","A","GD"
"30572","GA","Suches","Union","13","291","34.74","-84.07","A","GD"
"30573","GA","Tallulah Falls","Rabun","13","241","34.74","-83.4","A","POB"
"30575","GA","Talmo","Jackson","13","157","34.2","-83.72","A","GD"
"30576","GA","Tiger","Rabun","13","241","34.84","-83.45","A","GD"
"30577","GA","Toccoa","Stephens","13","257","34.56","-83.32","A","GD"
"30580","GA","Turnerville","Habersham","13","137","34.69","-83.53","A","POB"
"30581","GA","Wiley","Rabun","13","241","34.8","-83.42","A","POB"
"30582","GA","Young Harris","Towns","13","281","34.96","-83.88","A","GD"
"30597","GA","Dahlonega","Lumpkin","13","187","34.53","-83.98","A","PVT"
"30598","GA","Toccoa Falls","Stephens","13","257","34.59","-83.36","A","POB"
"30599","GA","Commerce","Jackson","13","157","34.21","-83.46","A","PVT"
"30601","GA","Athens","Clarke","13","59","33.98","-83.36","A","GD"
"30602","GA","Athens","Clarke","13","59","33.94","-83.37","A","PVT"
"30603","GA","Athens","Clarke","13","59","33.96","-83.38","A","POB"
"30604","GA","Athens","Clarke","13","59","34","-83.5","A","POB"
"30605","GA","Athens","Clarke","13","59","33.92","-83.34","A","GD"
"30606","GA","Athens","Clarke","13","59","33.94","-83.42","A","GD"
"30607","GA","Athens","Clarke","13","59","34.01","-83.44","A","GD"
"30608","GA","Athens","Clarke","13","59","33.96","-83.38","A","POB"
"30609","GA","Athens","Clarke","13","59","33.95","-83.38","A","PVT"
"30612","GA","Athens","Clarke","13","59","33.96","-83.39","A","POB"
"30619","GA","Arnoldsville","Oglethorpe","13","221","33.87","-83.23","A","GD"
"30620","GA","Bethlehem","Barrow","13","13","33.93","-83.75","A","GD"
"30621","GA","Bishop","Oconee","13","219","33.81","-83.49","A","GD"
"30622","GA","Bogart","Oconee","13","219","33.93","-83.51","A","GD"
"30623","GA","Bostwick","Morgan","13","211","33.74","-83.52","A","POB"
"30624","GA","Bowman","Elbert","13","105","34.2","-83.04","A","GD"
"30625","GA","Buckhead","Morgan","13","211","33.53","-83.32","A","GD"
"30627","GA","Carlton","Madison","13","195","33.99","-82.98","A","GD"
"30628","GA","Colbert","Madison","13","195","34.04","-83.21","A","GD"
"30629","GA","Comer","Madison","13","195","34.07","-83.12","A","GD"
"30630","GA","Crawford","Oglethorpe","13","221","33.9","-83.16","A","GD"
"30631","GA","Crawfordville","Taliaferro","13","265","33.57","-82.88","A","GD"
"30633","GA","Danielsville","Madison","13","195","34.17","-83.25","A","GD"
"30634","GA","Dewy Rose","Elbert","13","105","34.21","-82.94","A","GD"
"30635","GA","Elberton","Elbert","13","105","34.12","-82.82","A","GD"
"30638","GA","Farmington","Oconee","13","219","33.77","-83.42","A","POB"
"30639","GA","Franklin Springs","Franklin","13","119","34.27","-83.18","A","POB"
"30641","GA","Good Hope","Walton","13","297","33.77","-83.56","A","GD"
"30642","GA","Greensboro","Greene","13","133","33.54","-83.2","A","GD"
"30643","GA","Hartwell","Hart","13","147","34.37","-82.92","A","GD"
"30645","GA","High Shoals","Oconee","13","219","33.82","-83.5","A","POB"
"30646","GA","Hull","Madison","13","195","34.06","-83.31","A","GD"
"30647","GA","Ila","Madison","13","195","34.17","-83.29","A","POB"
"30648","GA","Lexington","Oglethorpe","13","221","33.88","-83.05","A","GD"
"30650","GA","Madison","Morgan","13","211","33.59","-83.47","A","GD"
"30655","GA","Monroe","Walton","13","297","33.79","-83.71","A","GD"
"30656","GA","Monroe","Walton","13","297","33.84","-83.72","A","GD"
"30660","GA","Rayle","Wilkes","13","317","33.79","-82.95","A","GD"
"30662","GA","Royston","Franklin","13","119","34.27","-83.13","A","GD"
"30663","GA","Rutledge","Morgan","13","211","33.62","-83.61","A","GD"
"30664","GA","Sharon","Taliaferro","13","265","33.56","-82.8","A","POB"
"30665","GA","Siloam","Greene","13","133","33.53","-83.07","A","POB"
"30666","GA","Statham","Barrow","13","13","33.96","-83.59","A","GD"
"30667","GA","Stephens","Oglethorpe","13","221","33.77","-83.16","A","GD"
"30668","GA","Tignall","Wilkes","13","317","33.92","-82.69","A","GD"
"30669","GA","Union Point","Greene","13","133","33.65","-83.1","A","GD"
"30671","GA","Maxeys","Oglethorpe","13","221","33.77","-83.11","A","POB"
"30673","GA","Washington","Wilkes","13","317","33.73","-82.72","A","GD"
"30677","GA","Watkinsville","Oconee","13","219","33.83","-83.41","A","GD"
"30678","GA","White Plains","Greene","13","133","33.45","-83.08","A","GD"
"30680","GA","Winder","Barrow","13","13","34","-83.71","A","GD"
"30683","GA","Winterville","Clarke","13","59","33.94","-83.27","A","GD"
"30701","GA","Calhoun","Gordon","13","129","34.5","-84.94","A","GD"
"30703","GA","Calhoun","Gordon","13","129","34.5","-84.95","A","POB"
"30705","GA","Chatsworth","Murray","13","213","34.76","-84.77","A","GD"
"30707","GA","Chickamauga","Walker","13","295","34.84","-85.33","A","GD"
"30708","GA","Cisco","Murray","13","213","34.97","-84.68","A","GD"
"30710","GA","Cohutta","Whitfield","13","313","34.94","-84.95","A","GD"
"30711","GA","Crandall","Murray","13","213","34.94","-84.77","A","GD"
"30719","GA","Dalton","Whitfield","13","313","34.77","-84.97","A","POB"
"30720","GA","Dalton","Whitfield","13","313","34.77","-84.99","A","GD"
"30721","GA","Dalton","Whitfield","13","313","34.78","-84.94","A","GD"
"30722","GA","Dalton","Whitfield","13","313","34.76","-84.95","A","POB"
"30724","GA","Eton","Murray","13","213","34.82","-84.76","A","POB"
"30725","GA","Flintstone","Walker","13","295","34.93","-85.35","A","GD"
"30726","GA","Graysville","Catoosa","13","47","34.98","-85.14","A","POB"
"30728","GA","La Fayette","Walker","13","295","34.7","-85.26","A","GD"
"30730","GA","Lyerly","Chattooga","13","55","34.36","-85.42","A","GD"
"30731","GA","Menlo","Chattooga","13","55","34.58","-85.48","A","GD"
"30732","GA","Oakman","Gordon","13","129","34.56","-84.7","A","POB"
"30733","GA","Plainville","Gordon","13","129","34.41","-85.03","A","GD"
"30734","GA","Ranger","Gordon","13","129","34.53","-84.7","A","GD"
"30735","GA","Resaca","Gordon","13","129","34.6","-84.92","A","GD"
"30736","GA","Ringgold","Catoosa","13","47","34.91","-85.15","A","GD"
"30738","GA","Rising Fawn","Dade","13","83","34.8","-85.49","A","GD"
"30739","GA","Rock Spring","Walker","13","295","34.8","-85.22","A","GD"
"30740","GA","Rocky Face","Whitfield","13","313","34.77","-85.05","A","GD"
"30741","GA","Rossville","Walker","13","295","34.96","-85.27","A","GD"
"30742","GA","Fort Oglethorpe","Catoosa","13","47","34.95","-85.25","A","GD"
"30746","GA","Sugar Valley","Gordon","13","129","34.57","-85.02","A","GD"
"30747","GA","Summerville","Chattooga","13","55","34.49","-85.33","A","GD"
"30750","GA","Lookout Mountain","Walker","13","295","34.95","-85.38","A","GD"
"30751","GA","Tennga","Murray","13","213","34.98","-84.74","A","POB"
"30752","GA","Trenton","Dade","13","83","34.89","-85.53","A","GD"
"30753","GA","Trion","Chattooga","13","55","34.57","-85.3","A","GD"
"30755","GA","Tunnel Hill","Whitfield","13","313","34.87","-85.04","A","GD"
"30756","GA","Varnell","Whitfield","13","313","34.9","-84.98","A","POB"
"30757","GA","Wildwood","Dade","13","83","34.96","-85.43","A","GD"
"30802","GA","Appling","Columbia","13","73","33.6","-82.3","A","GD"
"30803","GA","Avera","Jefferson","13","163","33.18","-82.53","A","GD"
"30805","GA","Blythe","Richmond","13","245","33.3","-82.2","A","GD"
"30806","GA","Boneville","Mcduffie","13","189","33.53","-82.51","A","POB"
"30807","GA","Camak","Warren","13","301","33.45","-82.65","A","POB"
"30808","GA","Dearing","Mcduffie","13","189","33.4","-82.41","A","GD"
"30809","GA","Evans","Columbia","13","73","33.56","-82.15","A","GD"
"30810","GA","Gibson","Glascock","13","125","33.23","-82.59","A","GD"
"30811","GA","Gough","Burke","13","33","33.09","-82.23","A","POB"
"30812","GA","Gracewood","Richmond","13","245","33.37","-82.03","A","POB"
"30813","GA","Grovetown","Columbia","13","73","33.46","-82.2","A","GD"
"30814","GA","Harlem","Columbia","13","73","33.42","-82.31","A","GD"
"30815","GA","Hephzibah","Richmond","13","245","33.33","-82.09","A","GD"
"30816","GA","Keysville","Burke","13","33","33.15","-82.17","A","GD"
"30817","GA","Lincolnton","Lincoln","13","181","33.79","-82.45","A","GD"
"30818","GA","Matthews","Jefferson","13","163","33.28","-82.34","A","GD"
"30819","GA","Mesena","Warren","13","301","33.46","-82.59","A","POB"
"30820","GA","Mitchell","Glascock","13","125","33.22","-82.72","A","GD"
"30821","GA","Norwood","Warren","13","301","33.48","-82.73","A","GD"
"30822","GA","Perkins","Jenkins","13","165","32.91","-81.87","A","POB"
"30823","GA","Stapleton","Jefferson","13","163","33.25","-82.45","A","GD"
"30824","GA","Thomson","Mcduffie","13","189","33.49","-82.5","A","GD"
"30828","GA","Warrenton","Warren","13","301","33.39","-82.66","A","GD"
"30830","GA","Waynesboro","Burke","13","33","33.08","-81.98","A","GD"
"30833","GA","Wrens","Jefferson","13","163","33.2","-82.38","A","GD"
"30901","GA","Augusta","Richmond","13","245","33.46","-81.97","A","GD"
"30903","GA","Augusta","Richmond","13","245","33.49","-82.16","A","POB"
"30904","GA","Augusta","Richmond","13","245","33.48","-82.01","A","GD"
"30905","GA","Augusta","Richmond","13","245","33.42","-82.15","A","GD"
"30906","GA","Augusta","Richmond","13","245","33.39","-82.02","A","GD"
"30907","GA","Augusta","Columbia","13","73","33.51","-82.09","A","GD"
"30909","GA","Augusta","Richmond","13","245","33.48","-82.07","A","GD"
"30912","GA","Augusta","Richmond","13","245","33.47","-81.99","A","PVT"
"30914","GA","Augusta","Richmond","13","245","33.47","-82.02","A","POB"
"30916","GA","Augusta","Richmond","13","245","33.42","-82.02","A","POB"
"30917","GA","Augusta","Columbia","13","73","33.52","-82.06","A","POB"
"30919","GA","Augusta","Richmond","13","245","33.47","-82.07","A","POB"
"30999","GA","Augusta","Richmond","13","245","33.46","-81.99","A","PVT"
"31001","GA","Abbeville","Wilcox","13","315","31.98","-83.34","A","GD"
"31002","GA","Adrian","Emanuel","13","107","32.54","-82.58","A","GD"
"31003","GA","Allentown","Wilkinson","13","319","32.59","-83.22","A","POB"
"31004","GA","Bolingbroke","Monroe","13","207","32.94","-83.79","A","POB"
"31005","GA","Bonaire","Houston","13","153","32.56","-83.62","A","GD"
"31006","GA","Butler","Taylor","13","269","32.57","-84.24","A","GD"
"31007","GA","Byromville","Dooly","13","93","32.19","-83.93","A","GD"
"31008","GA","Byron","Peach","13","225","32.64","-83.75","A","GD"
"31009","GA","Cadwell","Laurens","13","175","32.29","-83.01","A","GD"
"31010","GA","Cordele","Crisp","13","81","31.95","-83.78","A","POB"
"31011","GA","Chauncey","Dodge","13","91","32.11","-83.07","A","GD"
"31012","GA","Chester","Dodge","13","91","32.4","-83.16","A","GD"
"31013","GA","Clinchfield","Houston","13","153","32.34","-83.73","A","POB"
"31014","GA","Cochran","Bleckley","13","23","32.39","-83.34","A","GD"
"31015","GA","Cordele","Crisp","13","81","31.95","-83.78","A","GD"
"31016","GA","Culloden","Monroe","13","207","32.84","-84.12","A","GD"
"31017","GA","Danville","Twiggs","13","289","32.61","-83.24","A","GD"
"31018","GA","Davisboro","Washington","13","303","32.97","-82.62","A","GD"
"31019","GA","Dexter","Laurens","13","175","32.42","-83.05","A","GD"
"31020","GA","Dry Branch","Twiggs","13","289","32.72","-83.48","A","GD"
"31021","GA","Dublin","Laurens","13","175","32.53","-82.93","A","GD"
"31022","GA","Dudley","Laurens","13","175","32.52","-83.09","A","GD"
"31023","GA","Eastman","Dodge","13","91","32.2","-83.19","A","GD"
"31024","GA","Eatonton","Putnam","13","237","33.31","-83.36","A","GD"
"31025","GA","Elko","Houston","13","153","32.35","-83.75","A","GD"
"31026","GA","Eatonton","Putnam","13","237","33.3","-83.38","A","PVT"
"31027","GA","East Dublin","Laurens","13","175","32.56","-82.83","A","GD"
"31028","GA","Centerville","Houston","13","153","32.63","-83.68","A","GD"
"31029","GA","Forsyth","Monroe","13","207","33.05","-83.93","A","GD"
"31030","GA","Fort Valley","Peach","13","225","32.56","-83.87","A","GD"
"31031","GA","Gordon","Wilkinson","13","319","32.9","-83.33","A","GD"
"31032","GA","Gray","Jones","13","169","33","-83.57","A","GD"
"31033","GA","Haddock","Jones","13","169","33.05","-83.43","A","GD"
"31034","GA","Hardwick","Baldwin","13","9","33.05","-83.23","A","POB"
"31035","GA","Harrison","Washington","13","303","32.84","-82.71","A","GD"
"31036","GA","Hawkinsville","Pulaski","13","235","32.29","-83.51","A","GD"
"31037","GA","Mc Rae Helena","Telfair","13","271","32.09","-82.91","A","GD"
"31038","GA","Hillsboro","Jasper","13","159","33.16","-83.63","A","GD"
"31039","GA","Howard","Taylor","13","269","32.59","-84.39","A","POB"
"31040","GA","Dublin","Laurens","13","175","32.55","-82.9","A","POB"
"31041","GA","Ideal","Macon","13","193","32.37","-84.18","A","GD"
"31042","GA","Irwinton","Wilkinson","13","319","32.77","-83.17","A","GD"
"31044","GA","Jeffersonville","Twiggs","13","289","32.63","-83.39","A","GD"
"31045","GA","Jewell","Warren","13","301","33.29","-82.78","A","GD"
"31046","GA","Juliette","Monroe","13","207","33.06","-83.8","A","GD"
"31047","GA","Kathleen","Houston","13","153","32.5","-83.63","A","GD"
"31049","GA","Kite","Johnson","13","167","32.69","-82.52","A","GD"
"31050","GA","Knoxville","Crawford","13","79","32.74","-83.95","A","GD"
"31051","GA","Lilly","Dooly","13","93","32.15","-83.88","A","POB"
"31052","GA","Lizella","Bibb","13","21","32.79","-83.81","A","GD"
"31054","GA","Mc Intyre","Wilkinson","13","319","32.87","-83.21","A","GD"
"31055","GA","Mc Rae Helena","Telfair","13","271","32.05","-82.89","A","GD"
"31057","GA","Marshallville","Macon","13","193","32.44","-83.93","A","GD"
"31058","GA","Mauk","Marion","13","197","32.5","-84.42","A","GD"
"31059","GA","Milledgeville","Baldwin","13","9","33.09","-83.24","A","POB"
"31060","GA","Milan","Dodge","13","91","32","-83.06","A","GD"
"31061","GA","Milledgeville","Baldwin","13","9","33.09","-83.24","A","GD"
"31062","GA","Milledgeville","Baldwin","13","9","33.05","-83.22","A","PVT"
"31063","GA","Montezuma","Macon","13","193","32.29","-83.99","A","GD"
"31064","GA","Monticello","Jasper","13","159","33.31","-83.7","A","GD"
"31065","GA","Montrose","Laurens","13","175","32.56","-83.16","A","GD"
"31066","GA","Musella","Crawford","13","79","32.79","-84.01","A","GD"
"31067","GA","Oconee","Washington","13","303","32.86","-82.95","A","POB"
"31068","GA","Oglethorpe","Macon","13","193","32.33","-84.08","A","GD"
"31069","GA","Perry","Houston","13","153","32.45","-83.74","A","GD"
"31070","GA","Pinehurst","Dooly","13","93","32.18","-83.77","A","GD"
"31071","GA","Pineview","Wilcox","13","315","32.12","-83.52","A","GD"
"31072","GA","Pitts","Wilcox","13","315","31.95","-83.56","A","GD"
"31075","GA","Rentz","Laurens","13","175","32.36","-82.97","A","GD"
"31076","GA","Reynolds","Taylor","13","269","32.54","-84.1","A","GD"
"31077","GA","Rhine","Dodge","13","91","31.96","-83.2","A","GD"
"31078","GA","Roberta","Crawford","13","79","32.7","-84.04","A","GD"
"31079","GA","Rochelle","Wilcox","13","315","31.93","-83.46","A","GD"
"31081","GA","Rupert","Taylor","13","269","32.42","-84.28","A","GD"
"31082","GA","Sandersville","Washington","13","303","32.99","-82.86","A","GD"
"31083","GA","Scotland","Telfair","13","271","32.05","-82.82","A","POB"
"31084","GA","Seville","Wilcox","13","315","31.96","-83.6","A","POB"
"31085","GA","Shady Dale","Jasper","13","159","33.42","-83.61","A","GD"
"31086","GA","Smarr","Monroe","13","207","32.98","-83.88","A","POB"
"31087","GA","Sparta","Hancock","13","141","33.25","-83.02","A","GD"
"31088","GA","Warner Robins","Houston","13","153","32.59","-83.66","A","GD"
"31089","GA","Tennille","Washington","13","303","32.89","-82.84","A","GD"
"31090","GA","Toomsboro","Wilkinson","13","319","32.83","-83.07","A","GD"
"31091","GA","Unadilla","Dooly","13","93","32.24","-83.71","A","GD"
"31092","GA","Vienna","Dooly","13","93","32.09","-83.8","A","GD"
"31093","GA","Warner Robins","Houston","13","153","32.64","-83.64","A","GD"
"31094","GA","Warthen","Washington","13","303","33.11","-82.79","A","GD"
"31095","GA","Warner Robins","Houston","13","153","32.62","-83.6","A","POB"
"31096","GA","Wrightsville","Johnson","13","167","32.73","-82.71","A","GD"
"31097","GA","Yatesville","Upson","13","293","32.91","-84.15","A","GD"
"31098","GA","Warner Robins","Houston","13","153","32.61","-83.59","A","GD"
"31099","GA","Warner Robins","Houston","13","153","32.64","-83.63","A","POB"
"31106","GA","Atlanta","Fulton","13","121","33.79","-84.35","A","POB"
"31107","GA","Atlanta","Dekalb","13","89","33.76","-84.35","A","POB"
"31119","GA","Atlanta","Dekalb","13","89","33.86","-84.35","A","POB"
"31126","GA","Atlanta","Fulton","13","121","34","-84.16","A","POB"
"31131","GA","Atlanta","Fulton","13","121","33.71","-84.55","A","POB"
"31136","GA","Atlanta","Fulton","13","121","33.72","-84.59","A","PVT"
"31139","GA","Atlanta","Fulton","13","121","33.88","-84.47","A","POB"
"31141","GA","Atlanta","Dekalb","13","89","33.89","-84.25","A","POB"
"31144","GA","Kennesaw","Cobb","13","67","34.02","-84.62","A","PVT"
"31145","GA","Atlanta","Dekalb","13","89","33.85","-84.28","A","POB"
"31146","GA","Atlanta","Dekalb","13","89","33.93","-84.34","A","POB"
"31150","GA","Atlanta","Fulton","13","121","33.98","-84.33","A","POB"
"31156","GA","Atlanta","Fulton","13","121","33.96","-84.37","A","POB"
"31169","GA","Peachtree City","Fayette","13","113","33.4","-84.6","A","PVT"
"31192","GA","Atlanta","Fulton","13","121","33.62","-84.53","A","PVT"
"31193","GA","Atlanta","Fulton","13","121","33.76","-84.39","A","PVT"
"31195","GA","Atlanta","Fulton","13","121","33.81","-84.48","A","PVT"
"31196","GA","Atlanta","Fulton","13","121","33.81","-84.48","A","PVT"
"31201","GA","Macon","Bibb","13","21","32.83","-83.63","A","GD"
"31202","GA","Macon","Bibb","13","21","32.83","-83.63","A","POB"
"31203","GA","Macon","Bibb","13","21","32.87","-83.69","A","POB"
"31204","GA","Macon","Bibb","13","21","32.84","-83.67","A","GD"
"31205","GA","Macon","Bibb","13","21","32.75","-83.66","A","POB"
"31206","GA","Macon","Bibb","13","21","32.8","-83.67","A","GD"
"31207","GA","Macon","Bibb","13","21","32.83","-83.65","A","PVT"
"31208","GA","Macon","Bibb","13","21","32.83","-83.64","A","POB"
"31209","GA","Macon","Bibb","13","21","32.88","-83.67","A","POB"
"31210","GA","Macon","Bibb","13","21","32.89","-83.72","A","GD"
"31211","GA","Macon","Bibb","13","21","32.88","-83.6","A","GD"
"31213","GA","Macon","Bibb","13","21","32.84","-83.64","A","PVT"
"31216","GA","Macon","Bibb","13","21","32.72","-83.68","A","GD"
"31217","GA","Macon","Bibb","13","21","32.84","-83.56","A","GD"
"31220","GA","Macon","Bibb","13","21","32.86","-83.79","A","GD"
"31221","GA","Macon","Bibb","13","21","32.84","-83.64","A","POB"
"31294","GA","Macon","Bibb","13","21","32.84","-83.63","A","PVT"
"31295","GA","Macon","Bibb","13","21","32.81","-83.57","A","PVT"
"31296","GA","Macon","Bibb","13","21","32.81","-83.57","A","PVT"
"31297","GA","Macon","Bibb","13","21","32.81","-83.69","A","POB"
"31301","GA","Allenhurst","Liberty","13","179","31.76","-81.61","A","GD"
"31302","GA","Bloomingdale","Chatham","13","51","32.12","-81.33","A","GD"
"31303","GA","Clyo","Effingham","13","103","32.5","-81.29","A","GD"
"31304","GA","Crescent","Mcintosh","13","191","31.51","-81.35","A","POB"
"31305","GA","Darien","Mcintosh","13","191","31.39","-81.42","A","GD"
"31307","GA","Eden","Effingham","13","103","32.17","-81.4","A","POB"
"31308","GA","Ellabell","Bryan","13","29","32.17","-81.48","A","GD"
"31309","GA","Fleming","Liberty","13","179","31.89","-81.43","A","GD"
"31310","GA","Hinesville","Liberty","13","179","31.83","-81.6","A","POB"
"31312","GA","Guyton","Effingham","13","103","32.29","-81.38","A","GD"
"31313","GA","Hinesville","Liberty","13","179","31.83","-81.62","A","GD"
"31314","GA","Fort Stewart","Liberty","13","179","31.87","-81.62","A","GD"
"31315","GA","Fort Stewart","Liberty","13","179","31.89","-81.6","A","GD"
"31316","GA","Ludowici","Long","13","183","31.73","-81.75","A","GD"
"31318","GA","Meldrim","Effingham","13","103","32.14","-81.37","A","POB"
"31319","GA","Meridian","Mcintosh","13","191","31.42","-81.42","A","POB"
"31320","GA","Midway","Liberty","13","179","31.79","-81.38","A","GD"
"31321","GA","Pembroke","Bryan","13","29","32.16","-81.66","A","GD"
"31322","GA","Pooler","Chatham","13","51","32.11","-81.25","A","GD"
"31323","GA","Riceboro","Liberty","13","179","31.72","-81.44","A","GD"
"31324","GA","Richmond Hill","Bryan","13","29","31.9","-81.29","A","GD"
"31326","GA","Rincon","Effingham","13","103","32.29","-81.23","A","GD"
"31327","GA","Sapelo Island","Mcintosh","13","191","31.44","-81.27","A","POB"
"31328","GA","Tybee Island","Chatham","13","51","32.01","-80.85","A","GD"
"31329","GA","Springfield","Effingham","13","103","32.39","-81.32","A","GD"
"31331","GA","Townsend","Mcintosh","13","191","31.53","-81.42","A","GD"
"31333","GA","Walthourville","Liberty","13","179","31.77","-81.63","A","POB"
"31401","GA","Savannah","Chatham","13","51","32.07","-81.09","A","GD"
"31402","GA","Savannah","Chatham","13","51","32.08","-81.1","A","POB"
"31403","GA","Savannah","Chatham","13","51","32.05","-81.11","A","POB"
"31404","GA","Savannah","Chatham","13","51","32.05","-81.06","A","GD"
"31405","GA","Savannah","Chatham","13","51","32.04","-81.13","A","GD"
"31406","GA","Savannah","Chatham","13","51","31.99","-81.09","A","GD"
"31407","GA","Port Wentworth","Chatham","13","51","32.17","-81.19","A","GD"
"31408","GA","Savannah","Chatham","13","51","32.11","-81.17","A","GD"
"31409","GA","Savannah","Chatham","13","51","32.02","-81.14","A","POB"
"31410","GA","Savannah","Chatham","13","51","32.02","-80.99","A","GD"
"31411","GA","Savannah","Chatham","13","51","31.93","-81.04","A","GD"
"31412","GA","Savannah","Chatham","13","51","32.08","-81.09","A","POB"
"31414","GA","Savannah","Chatham","13","51","32.05","-81.05","A","POB"
"31415","GA","Savannah","Chatham","13","51","32.08","-81.12","A","GD"
"31416","GA","Savannah","Chatham","13","51","32.01","-81.1","A","POB"
"31418","GA","Savannah","Chatham","13","51","32.15","-81.19","A","POB"
"31419","GA","Savannah","Chatham","13","51","32","-81.22","A","GD"
"31420","GA","Savannah","Chatham","13","51","31.98","-81.15","A","POB"
"31421","GA","Savannah","Chatham","13","51","32.08","-81.12","A","GD"
"31501","GA","Waycross","Ware","13","299","31.22","-82.35","A","GD"
"31502","GA","Waycross","Ware","13","299","31.21","-82.36","A","POB"
"31503","GA","Waycross","Ware","13","299","31.2","-82.39","A","GD"
"31510","GA","Alma","Bacon","13","5","31.56","-82.46","A","GD"
"31512","GA","Ambrose","Coffee","13","69","31.57","-83.02","A","GD"
"31513","GA","Baxley","Appling","13","1","31.77","-82.35","A","GD"
"31515","GA","Baxley","Appling","13","1","31.78","-82.35","A","POB"
"31516","GA","Blackshear","Pierce","13","229","31.31","-82.25","A","GD"
"31518","GA","Bristol","Pierce","13","229","31.51","-82.19","A","GD"
"31519","GA","Broxton","Coffee","13","69","31.66","-82.87","A","GD"
"31520","GA","Brunswick","Glynn","13","127","31.17","-81.49","A","GD"
"31521","GA","Brunswick","Glynn","13","127","31.16","-81.49","A","POB"
"31522","GA","Saint Simons Island","Glynn","13","127","31.19","-81.37","A","GD"
"31523","GA","Brunswick","Glynn","13","127","31.2","-81.6","A","GD"
"31524","GA","Brunswick","Glynn","13","127","31.24","-81.47","A","PVT"
"31525","GA","Brunswick","Glynn","13","127","31.26","-81.5","A","GD"
"31527","GA","Jekyll Island","Glynn","13","127","31.07","-81.43","A","GD"
"31532","GA","Denton","Jeff Davis","13","161","31.72","-82.74","A","GD"
"31533","GA","Douglas","Coffee","13","69","31.53","-82.84","A","GD"
"31534","GA","Douglas","Coffee","13","69","31.51","-82.85","A","POB"
"31535","GA","Douglas","Coffee","13","69","31.46","-82.87","A","GD"
"31537","GA","Folkston","Charlton","13","49","30.87","-82.02","A","GD"
"31539","GA","Hazlehurst","Jeff Davis","13","161","31.84","-82.59","A","GD"
"31542","GA","Hoboken","Brantley","13","25","31.15","-82.14","A","GD"
"31543","GA","Hortense","Brantley","13","25","31.33","-81.84","A","GD"
"31544","GA","Jacksonville","Telfair","13","271","31.85","-82.94","A","GD"
"31545","GA","Jesup","Wayne","13","305","31.63","-81.91","A","GD"
"31546","GA","Jesup","Wayne","13","305","31.55","-81.83","A","GD"
"31547","GA","Kings Bay","Camden","13","39","30.79","-81.57","A","GD"
"31548","GA","Kingsland","Camden","13","39","30.79","-81.68","A","GD"
"31549","GA","Lumber City","Telfair","13","271","31.93","-82.69","A","GD"
"31550","GA","Manor","Ware","13","299","31.12","-82.58","A","GD"
"31551","GA","Mershon","Pierce","13","229","31.49","-82.27","A","GD"
"31552","GA","Millwood","Ware","13","299","31.29","-82.62","A","GD"
"31553","GA","Nahunta","Brantley","13","25","31.18","-81.97","A","GD"
"31554","GA","Nicholls","Coffee","13","69","31.5","-82.62","A","GD"
"31555","GA","Odum","Wayne","13","305","31.68","-82.06","A","GD"
"31556","GA","Offerman","Pierce","13","229","31.41","-82.11","A","POB"
"31557","GA","Patterson","Pierce","13","229","31.38","-82.11","A","GD"
"31558","GA","Saint Marys","Camden","13","39","30.77","-81.55","A","GD"
"31560","GA","Screven","Wayne","13","305","31.51","-82.04","A","GD"
"31561","GA","Sea Island","Glynn","13","127","31.2","-81.34","A","POB"
"31562","GA","Saint George","Charlton","13","49","30.52","-82.09","A","GD"
"31563","GA","Surrency","Appling","13","1","31.72","-82.19","A","GD"
"31564","GA","Waresboro","Ware","13","299","31.24","-82.47","A","POB"
"31565","GA","Waverly","Camden","13","39","31.08","-81.65","A","GD"
"31566","GA","Waynesville","Brantley","13","25","31.2","-81.8","A","GD"
"31567","GA","West Green","Coffee","13","69","31.62","-82.72","A","GD"
"31568","GA","White Oak","Camden","13","39","31.01","-81.82","A","GD"
"31569","GA","Woodbine","Camden","13","39","30.91","-81.69","A","GD"
"31598","GA","Jesup","Wayne","13","305","31.51","-81.82","A","POB"
"31599","GA","Jesup","Wayne","13","305","31.48","-81.8","A","PVT"
"31601","GA","Valdosta","Lowndes","13","185","30.81","-83.29","A","GD"
"31602","GA","Valdosta","Lowndes","13","185","30.87","-83.31","A","GD"
"31603","GA","Valdosta","Lowndes","13","185","30.87","-83.28","A","POB"
"31604","GA","Valdosta","Lowndes","13","185","30.88","-83.28","A","POB"
"31605","GA","Valdosta","Lowndes","13","185","30.92","-83.25","A","GD"
"31606","GA","Valdosta","Lowndes","13","185","30.81","-83.2","A","GD"
"31620","GA","Adel","Cook","13","75","31.13","-83.43","A","GD"
"31622","GA","Alapaha","Berrien","13","19","31.39","-83.22","A","GD"
"31623","GA","Argyle","Clinch","13","65","31.07","-82.65","A","POB"
"31624","GA","Axson","Atkinson","13","3","31.32","-82.73","A","GD"
"31625","GA","Barney","Brooks","13","27","31","-83.53","A","GD"
"31626","GA","Boston","Thomas","13","275","30.78","-83.79","A","GD"
"31627","GA","Cecil","Cook","13","75","31.05","-83.39","A","POB"
"31629","GA","Dixie","Brooks","13","27","30.8","-83.68","A","GD"
"31630","GA","Du Pont","Clinch","13","65","30.95","-82.88","A","GD"
"31631","GA","Fargo","Clinch","13","65","30.7","-82.59","A","GD"
"31632","GA","Hahira","Lowndes","13","185","30.99","-83.36","A","GD"
"31634","GA","Homerville","Clinch","13","65","31.04","-82.76","A","GD"
"31635","GA","Lakeland","Lanier","13","173","31.07","-83.06","A","GD"
"31636","GA","Lake Park","Lowndes","13","185","30.72","-83.14","A","GD"
"31637","GA","Lenox","Cook","13","75","31.29","-83.45","A","GD"
"31638","GA","Morven","Brooks","13","27","30.93","-83.51","A","GD"
"31639","GA","Nashville","Berrien","13","19","31.2","-83.22","A","GD"
"31641","GA","Naylor","Lowndes","13","185","30.94","-83.09","A","GD"
"31642","GA","Pearson","Atkinson","13","3","31.29","-82.87","A","GD"
"31643","GA","Quitman","Brooks","13","27","30.78","-83.55","A","GD"
"31645","GA","Ray City","Berrien","13","19","31.06","-83.2","A","GD"
"31647","GA","Sparks","Cook","13","75","31.19","-83.44","A","GD"
"31648","GA","Statenville","Echols","13","101","30.71","-83.02","A","GD"
"31649","GA","Stockton","Lanier","13","173","30.96","-83.01","A","GD"
"31650","GA","Willacoochee","Atkinson","13","3","31.38","-83.02","A","GD"
"31698","GA","Valdosta","Lowndes","13","185","30.85","-83.29","A","PVT"
"31699","GA","Moody Afb","Lowndes","13","185","30.98","-83.2","A","PVT"
"31701","GA","Albany","Dougherty","13","95","31.58","-84.16","A","GD"
"31702","GA","Albany","Dougherty","13","95","31.6","-84.2","A","POB"
"31703","GA","Albany","Dougherty","13","95","31.58","-84.15","A","POB"
"31704","GA","Albany","Dougherty","13","95","31.55","-84.05","A","PVT"
"31705","GA","Albany","Dougherty","13","95","31.55","-84.09","A","GD"
"31706","GA","Albany","Dougherty","13","95","31.58","-84.16","A","POB"
"31707","GA","Albany","Dougherty","13","95","31.59","-84.2","A","GD"
"31708","GA","Albany","Dougherty","13","95","31.59","-84.14","A","POB"
"31709","GA","Americus","Sumter","13","261","32.07","-84.19","A","GD"
"31711","GA","Andersonville","Sumter","13","261","32.2","-84.11","A","GD"
"31712","GA","Arabi","Crisp","13","81","31.84","-83.71","A","GD"
"31714","GA","Ashburn","Turner","13","287","31.71","-83.67","A","GD"
"31716","GA","Baconton","Mitchell","13","205","31.38","-84.12","A","GD"
"31719","GA","Americus","Sumter","13","261","32.08","-84.25","A","GD"
"31720","GA","Barwick","Brooks","13","27","30.89","-83.74","A","POB"
"31721","GA","Albany","Dougherty","13","95","31.53","-84.3","A","GD"
"31722","GA","Berlin","Colquitt","13","71","31.07","-83.62","A","POB"
"31727","GA","Brookfield","Tift","13","277","31.44","-83.5","A","POB"
"31730","GA","Camilla","Mitchell","13","205","31.21","-84.26","A","GD"
"31733","GA","Chula","Tift","13","277","31.59","-83.49","A","GD"
"31735","GA","Cobb","Sumter","13","261","31.96","-83.95","A","GD"
"31738","GA","Coolidge","Thomas","13","275","31.01","-83.87","A","GD"
"31739","GA","Cotton","Mitchell","13","205","31.12","-84.16","A","POB"
"31743","GA","De Soto","Sumter","13","261","31.91","-84.03","A","GD"
"31744","GA","Doerun","Colquitt","13","71","31.33","-83.92","A","GD"
"31747","GA","Ellenton","Colquitt","13","71","31.18","-83.59","A","POB"
"31749","GA","Enigma","Berrien","13","19","31.43","-83.34","A","GD"
"31750","GA","Fitzgerald","Ben Hill","13","17","31.72","-83.24","A","GD"
"31753","GA","Funston","Colquitt","13","71","31.21","-83.97","A","POB"
"31756","GA","Hartsfield","Colquitt","13","71","31.18","-83.96","A","GD"
"31757","GA","Thomasville","Thomas","13","275","30.88","-83.92","A","GD"
"31758","GA","Thomasville","Thomas","13","275","30.84","-83.98","A","POB"
"31760","GA","Irwinville","Irwin","13","155","31.66","-83.41","A","POB"
"31763","GA","Leesburg","Lee","13","177","31.7","-84.17","A","GD"
"31764","GA","Leslie","Sumter","13","261","31.98","-84.09","A","GD"
"31765","GA","Meigs","Thomas","13","275","31.08","-84.05","A","GD"
"31768","GA","Moultrie","Colquitt","13","71","31.18","-83.8","A","GD"
"31769","GA","Mystic","Irwin","13","155","31.56","-83.27","A","POB"
"31771","GA","Norman Park","Colquitt","13","71","31.25","-83.67","A","GD"
"31772","GA","Oakfield","Worth","13","321","31.72","-83.96","A","GD"
"31773","GA","Ochlocknee","Thomas","13","275","30.97","-84.06","A","GD"
"31774","GA","Ocilla","Irwin","13","155","31.59","-83.28","A","GD"
"31775","GA","Omega","Tift","13","277","31.33","-83.6","A","GD"
"31776","GA","Moultrie","Colquitt","13","71","31.16","-83.79","A","POB"
"31778","GA","Pavo","Thomas","13","275","30.97","-83.72","A","GD"
"31779","GA","Pelham","Mitchell","13","205","31.11","-84.16","A","GD"
"31780","GA","Plains","Sumter","13","261","32.03","-84.4","A","GD"
"31781","GA","Poulan","Worth","13","321","31.53","-83.79","A","GD"
"31782","GA","Putney","Dougherty","13","95","31.46","-83.98","A","POB"
"31783","GA","Rebecca","Turner","13","287","31.75","-83.48","A","GD"
"31784","GA","Sale City","Mitchell","13","205","31.26","-84.03","A","GD"
"31787","GA","Smithville","Lee","13","177","31.9","-84.25","A","GD"
"31788","GA","Moultrie","Colquitt","13","71","31.13","-83.71","A","GD"
"31789","GA","Sumner","Worth","13","321","31.51","-83.74","A","GD"
"31790","GA","Sycamore","Turner","13","287","31.65","-83.58","A","GD"
"31791","GA","Sylvester","Worth","13","321","31.54","-83.86","A","GD"
"31792","GA","Thomasville","Thomas","13","275","30.81","-84.01","A","GD"
"31793","GA","Tifton","Tift","13","277","31.47","-83.57","A","GD"
"31794","GA","Tifton","Tift","13","277","31.46","-83.49","A","GD"
"31795","GA","Ty Ty","Tift","13","277","31.47","-83.67","A","GD"
"31796","GA","Warwick","Worth","13","321","31.79","-83.89","A","GD"
"31798","GA","Wray","Irwin","13","155","31.61","-83.06","A","GD"
"31799","GA","Thomasville","Thomas","13","275","30.84","-83.98","A","POB"
"31801","GA","Box Springs","Talbot","13","263","32.52","-84.61","A","GD"
"31803","GA","Buena Vista","Marion","13","197","32.31","-84.53","A","GD"
"31804","GA","Cataula","Harris","13","145","32.65","-84.89","A","GD"
"31805","GA","Cusseta","Chattahoochee","13","53","32.29","-84.76","A","GD"
"31806","GA","Ellaville","Schley","13","249","32.25","-84.31","A","GD"
"31807","GA","Ellerslie","Harris","13","145","32.64","-84.8","A","GD"
"31808","GA","Fortson","Muscogee","13","215","32.63","-85.01","A","GD"
"31810","GA","Geneva","Talbot","13","263","32.58","-84.54","A","POB"
"31811","GA","Hamilton","Harris","13","145","32.75","-84.93","A","GD"
"31812","GA","Junction City","Talbot","13","263","32.63","-84.43","A","GD"
"31814","GA","Louvale","Stewart","13","259","32.21","-84.86","A","POB"
"31815","GA","Lumpkin","Stewart","13","259","32.04","-84.83","A","GD"
"31816","GA","Manchester","Meriwether","13","199","32.87","-84.61","A","GD"
"31820","GA","Midland","Muscogee","13","215","32.57","-84.83","A","GD"
"31821","GA","Omaha","Stewart","13","259","32.13","-84.97","A","GD"
"31822","GA","Pine Mountain","Harris","13","145","32.86","-84.89","A","GD"
"31823","GA","Pine Mountain Valley","Harris","13","145","32.81","-84.82","A","GD"
"31824","GA","Preston","Webster","13","307","32.06","-84.53","A","GD"
"31825","GA","Richland","Stewart","13","259","32.11","-84.66","A","GD"
"31826","GA","Shiloh","Harris","13","145","32.8","-84.69","A","GD"
"31827","GA","Talbotton","Talbot","13","263","32.69","-84.53","A","GD"
"31829","GA","Upatoi","Muscogee","13","215","32.56","-84.74","A","GD"
"31830","GA","Warm Springs","Meriwether","13","199","32.9","-84.71","A","GD"
"31831","GA","Waverly Hall","Harris","13","145","32.7","-84.71","A","GD"
"31832","GA","Weston","Webster","13","307","31.96","-84.61","A","GD"
"31833","GA","West Point","Troup","13","285","32.86","-85.13","A","GD"
"31836","GA","Woodland","Talbot","13","263","32.8","-84.54","A","GD"
"31901","GA","Columbus","Muscogee","13","215","32.47","-84.98","A","GD"
"31902","GA","Columbus","Muscogee","13","215","32.5","-84.97","A","POB"
"31903","GA","Columbus","Muscogee","13","215","32.42","-84.95","A","GD"
"31904","GA","Columbus","Muscogee","13","215","32.51","-84.98","A","GD"
"31905","GA","Fort Benning","Muscogee","13","215","32.37","-84.91","A","GD"
"31906","GA","Columbus","Muscogee","13","215","32.47","-84.95","A","GD"
"31907","GA","Columbus","Muscogee","13","215","32.48","-84.91","A","GD"
"31908","GA","Columbus","Muscogee","13","215","32.53","-84.94","A","POB"
"31909","GA","Columbus","Muscogee","13","215","32.54","-84.93","A","GD"
"31914","GA","Columbus","Muscogee","13","215","32.56","-85","A","POB"
"31917","GA","Columbus","Muscogee","13","215","32.48","-84.83","A","POB"
"31993","GA","Columbus","Muscogee","13","215","32.48","-84.98","A","PVT"
"31995","GA","Fort Benning","Muscogee","13","215","32.49","-84.97","A","POB"
"31997","GA","Columbus","Muscogee","13","215","32.48","-84.83","A","PVT"
"31998","GA","Columbus","Muscogee","13","215","32.47","-84.95","A","PVT"
"31999","GA","Columbus","Muscogee","13","215","32.46","-84.99","A","PVT"
"39813","GA","Arlington","Calhoun","13","37","31.42","-84.69","A","GD"
"39815","GA","Attapulgus","Decatur","13","87","30.74","-84.49","A","GD"
"39817","GA","Bainbridge","Decatur","13","87","30.93","-84.58","A","GD"
"39818","GA","Bainbridge","Decatur","13","87","30.91","-84.58","A","POB"
"39819","GA","Bainbridge","Decatur","13","87","30.84","-84.61","A","GD"
"39823","GA","Blakely","Early","13","99","31.33","-84.96","A","GD"
"39824","GA","Bluffton","Clay","13","61","31.51","-84.88","A","GD"
"39825","GA","Brinson","Decatur","13","87","30.94","-84.72","A","GD"
"39826","GA","Bronwood","Terrell","13","273","31.83","-84.36","A","GD"
"39827","GA","Cairo","Grady","13","131","30.95","-84.21","A","GD"
"39828","GA","Cairo","Grady","13","131","30.83","-84.22","A","GD"
"39829","GA","Calvary","Grady","13","131","30.75","-84.31","A","POB"
"39832","GA","Cedar Springs","Early","13","99","31.19","-85","A","POB"
"39834","GA","Climax","Decatur","13","87","30.88","-84.42","A","GD"
"39836","GA","Coleman","Randolph","13","243","31.67","-84.87","A","GD"
"39837","GA","Colquitt","Miller","13","201","31.15","-84.7","A","GD"
"39840","GA","Cuthbert","Randolph","13","243","31.78","-84.76","A","GD"
"39841","GA","Damascus","Early","13","99","31.29","-84.69","A","GD"
"39842","GA","Dawson","Terrell","13","273","31.77","-84.43","A","GD"
"39845","GA","Donalsonville","Seminole","13","253","30.95","-84.89","A","GD"
"39846","GA","Edison","Calhoun","13","37","31.56","-84.75","A","GD"
"39851","GA","Fort Gaines","Clay","13","61","31.63","-85.02","A","GD"
"39852","GA","Fowlstown","Decatur","13","87","30.88","-84.59","A","POB"
"39854","GA","Georgetown","Quitman","13","239","31.85","-85.06","A","GD"
"39859","GA","Iron City","Seminole","13","253","31.01","-84.8","A","GD"
"39861","GA","Jakin","Early","13","99","31.13","-84.99","A","GD"
"39862","GA","Leary","Calhoun","13","37","31.46","-84.52","A","GD"
"39866","GA","Morgan","Calhoun","13","37","31.55","-84.6","A","GD"
"39867","GA","Morris","Quitman","13","239","31.83","-84.93","A","GD"
"39870","GA","Newton","Baker","13","7","31.31","-84.38","A","GD"
"39877","GA","Parrott","Terrell","13","273","31.92","-84.51","A","GD"
"39885","GA","Sasser","Terrell","13","273","31.72","-84.35","A","POB"
"39886","GA","Shellman","Randolph","13","243","31.74","-84.62","A","GD"
"39897","GA","Whigham","Grady","13","131","30.9","-84.32","A","GD"
"39901","GA","Atlanta","Dekalb","13","89","33.89","-84.29","A","PVT"
