"ZIPCode","State","City","County","StateFIPS","CountyFIPS","Latitude","Longitude","Preference","Type"
"73301","TX","Austin","Travis","48","453","30.22","-97.75","A","PVT"
"73344","TX","Austin","Travis","48","453","30.18","-97.73","A","PVT"
"73960","TX","Texhoma","Sherman","48","421","36.5","-101.78","A","POB"
"75001","TX","Addison","Dallas","48","113","32.96","-96.84","A","GD"
"75002","TX","Allen","Collin","48","85","33.1","-96.63","A","GD"
"75006","TX","Carrollton","Dallas","48","113","32.96","-96.89","A","GD"
"75007","TX","Carrollton","Denton","48","121","33.01","-96.89","A","GD"
"75009","TX","Celina","Collin","48","85","33.33","-96.76","A","GD"
"75010","TX","Carrollton","Denton","48","121","33.03","-96.89","A","GD"
"75011","TX","Carrollton","Dallas","48","113","32.95","-96.89","A","POB"
"75013","TX","Allen","Collin","48","85","33.11","-96.69","A","GD"
"75014","TX","Irving","Dallas","48","113","32.84","-96.97","A","POB"
"75015","TX","Irving","Dallas","48","113","32.9","-96.98","A","POB"
"75016","TX","Irving","Dallas","48","113","32.9","-96.98","A","POB"
"75017","TX","Irving","Dallas","48","113","32.81","-96.95","A","POB"
"75019","TX","Coppell","Dallas","48","113","32.97","-96.98","A","GD"
"75020","TX","Denison","Grayson","48","181","33.76","-96.58","A","GD"
"75021","TX","Denison","Grayson","48","181","33.74","-96.51","A","GD"
"75022","TX","Flower Mound","Denton","48","121","33.03","-97.1","A","GD"
"75023","TX","Plano","Collin","48","85","33.06","-96.73","A","GD"
"75024","TX","Plano","Collin","48","85","33.08","-96.81","A","GD"
"75025","TX","Plano","Collin","48","85","33.09","-96.74","A","GD"
"75026","TX","Plano","Collin","48","85","33.04","-96.73","A","POB"
"75027","TX","Flower Mound","Denton","48","121","33.03","-97.09","A","POB"
"75028","TX","Flower Mound","Denton","48","121","33.04","-97.06","A","GD"
"75029","TX","Lewisville","Denton","48","121","33.05","-97.01","A","POB"
"75030","TX","Rowlett","Dallas","48","113","32.9","-96.56","A","POB"
"75032","TX","Rockwall","Rockwall","48","397","32.87","-96.44","A","GD"
"75033","TX","Frisco","Denton","48","121","33.15","-96.85","A","GD"
"75034","TX","Frisco","Denton","48","121","33.14","-96.85","A","GD"
"75035","TX","Frisco","Collin","48","85","33.15","-96.78","A","GD"
"75038","TX","Irving","Dallas","48","113","32.87","-96.99","A","GD"
"75039","TX","Irving","Dallas","48","113","32.89","-96.95","A","GD"
"75040","TX","Garland","Dallas","48","113","32.92","-96.63","A","GD"
"75041","TX","Garland","Dallas","48","113","32.88","-96.65","A","GD"
"75042","TX","Garland","Dallas","48","113","32.92","-96.68","A","GD"
"75043","TX","Garland","Dallas","48","113","32.86","-96.6","A","GD"
"75044","TX","Garland","Dallas","48","113","32.96","-96.66","A","GD"
"75045","TX","Garland","Dallas","48","113","32.94","-96.68","A","POB"
"75046","TX","Garland","Dallas","48","113","32.92","-96.64","A","POB"
"75047","TX","Garland","Dallas","48","113","32.88","-96.65","A","POB"
"75048","TX","Sachse","Dallas","48","113","32.98","-96.58","A","GD"
"75049","TX","Garland","Dallas","48","113","32.86","-96.6","A","POB"
"75050","TX","Grand Prairie","Dallas","48","113","32.77","-97.02","A","GD"
"75051","TX","Grand Prairie","Dallas","48","113","32.73","-97","A","GD"
"75052","TX","Grand Prairie","Dallas","48","113","32.67","-97.03","A","GD"
"75053","TX","Grand Prairie","Dallas","48","113","32.75","-97.03","A","POB"
"75054","TX","Grand Prairie","Dallas","48","113","32.59","-97.05","A","GD"
"75056","TX","The Colony","Denton","48","121","33.07","-96.9","A","GD"
"75057","TX","Lewisville","Denton","48","121","33.05","-96.99","A","GD"
"75058","TX","Gunter","Grayson","48","181","33.45","-96.74","A","GD"
"75060","TX","Irving","Dallas","48","113","32.8","-96.95","A","GD"
"75061","TX","Irving","Dallas","48","113","32.83","-96.97","A","GD"
"75062","TX","Irving","Dallas","48","113","32.85","-96.96","A","GD"
"75063","TX","Irving","Dallas","48","113","32.92","-96.98","A","GD"
"75065","TX","Lake Dallas","Denton","48","121","33.12","-97.03","A","GD"
"75067","TX","Lewisville","Denton","48","121","33.01","-97","A","GD"
"75068","TX","Little Elm","Denton","48","121","33.18","-96.93","A","GD"
"75069","TX","Mckinney","Collin","48","85","33.19","-96.61","A","GD"
"75070","TX","Mckinney","Collin","48","85","33.17","-96.7","A","GD"
"75071","TX","Mckinney","Collin","48","85","33.22","-96.66","A","GD"
"75074","TX","Plano","Collin","48","85","33.03","-96.68","A","GD"
"75075","TX","Plano","Collin","48","85","33.02","-96.74","A","GD"
"75076","TX","Pottsboro","Grayson","48","181","33.81","-96.69","A","GD"
"75077","TX","Lewisville","Denton","48","121","33.07","-97.05","A","GD"
"75078","TX","Prosper","Collin","48","85","33.24","-96.8","A","GD"
"75080","TX","Richardson","Dallas","48","113","32.97","-96.74","A","GD"
"75081","TX","Richardson","Dallas","48","113","32.95","-96.71","A","GD"
"75082","TX","Richardson","Dallas","48","113","32.99","-96.67","A","GD"
"75083","TX","Richardson","Dallas","48","113","32.97","-96.74","A","POB"
"75085","TX","Richardson","Dallas","48","113","32.95","-96.7","A","POB"
"75086","TX","Plano","Collin","48","85","33.02","-96.7","A","POB"
"75087","TX","Rockwall","Rockwall","48","397","32.94","-96.45","A","GD"
"75088","TX","Rowlett","Dallas","48","113","32.9","-96.55","A","GD"
"75089","TX","Rowlett","Dallas","48","113","32.92","-96.55","A","GD"
"75090","TX","Sherman","Grayson","48","181","33.63","-96.59","A","GD"
"75091","TX","Sherman","Grayson","48","181","33.64","-96.61","A","POB"
"75092","TX","Sherman","Grayson","48","181","33.65","-96.66","A","GD"
"75093","TX","Plano","Collin","48","85","33.04","-96.81","A","GD"
"75094","TX","Plano","Collin","48","85","33.02","-96.61","A","GD"
"75097","TX","Weston","Collin","48","85","33.35","-96.58","A","POB"
"75098","TX","Wylie","Collin","48","85","33.01","-96.54","A","GD"
"75099","TX","Coppell","Dallas","48","113","32.95","-97.01","A","PVT"
"75101","TX","Bardwell","Ellis","48","139","32.27","-96.7","A","POB"
"75102","TX","Barry","Navarro","48","349","32.06","-96.65","A","GD"
"75103","TX","Canton","Van Zandt","48","467","32.53","-95.87","A","GD"
"75104","TX","Cedar Hill","Dallas","48","113","32.59","-96.95","A","GD"
"75105","TX","Chatfield","Navarro","48","349","32.27","-96.37","A","GD"
"75106","TX","Cedar Hill","Dallas","48","113","32.59","-96.96","A","POB"
"75109","TX","Corsicana","Navarro","48","349","32.04","-96.36","A","GD"
"75110","TX","Corsicana","Navarro","48","349","32.09","-96.48","A","GD"
"75114","TX","Crandall","Kaufman","48","257","32.63","-96.45","A","GD"
"75115","TX","Desoto","Dallas","48","113","32.6","-96.86","A","GD"
"75116","TX","Duncanville","Dallas","48","113","32.66","-96.91","A","GD"
"75117","TX","Edgewood","Van Zandt","48","467","32.7","-95.87","A","GD"
"75118","TX","Elmo","Kaufman","48","257","32.69","-96.22","A","POB"
"75119","TX","Ennis","Ellis","48","139","32.33","-96.62","A","GD"
"75120","TX","Ennis","Ellis","48","139","32.35","-96.63","A","POB"
"75121","TX","Copeville","Collin","48","85","33.17","-96.37","A","POB"
"75123","TX","Desoto","Dallas","48","113","32.59","-96.86","A","POB"
"75124","TX","Eustace","Henderson","48","213","32.31","-96","A","GD"
"75125","TX","Ferris","Ellis","48","139","32.53","-96.66","A","GD"
"75126","TX","Forney","Kaufman","48","257","32.74","-96.45","A","GD"
"75127","TX","Fruitvale","Van Zandt","48","467","32.68","-95.79","A","GD"
"75132","TX","Fate","Rockwall","48","397","32.94","-96.38","A","POB"
"75134","TX","Lancaster","Dallas","48","113","32.62","-96.78","A","GD"
"75135","TX","Caddo Mills","Hunt","48","231","33.07","-96.23","A","GD"
"75137","TX","Duncanville","Dallas","48","113","32.64","-96.91","A","GD"
"75138","TX","Duncanville","Dallas","48","113","32.68","-96.92","A","POB"
"75140","TX","Grand Saline","Van Zandt","48","467","32.65","-95.7","A","GD"
"75141","TX","Hutchins","Dallas","48","113","32.64","-96.71","A","GD"
"75142","TX","Kaufman","Kaufman","48","257","32.58","-96.29","A","GD"
"75143","TX","Kemp","Kaufman","48","257","32.36","-96.21","A","GD"
"75144","TX","Kerens","Navarro","48","349","32.11","-96.22","A","GD"
"75146","TX","Lancaster","Dallas","48","113","32.59","-96.76","A","GD"
"75147","TX","Mabank","Kaufman","48","257","32.39","-96.09","A","GD"
"75148","TX","Malakoff","Henderson","48","213","32.18","-96.02","A","GD"
"75149","TX","Mesquite","Dallas","48","113","32.77","-96.61","A","GD"
"75150","TX","Mesquite","Dallas","48","113","32.82","-96.63","A","GD"
"75151","TX","Corsicana","Navarro","48","349","32.05","-96.52","A","POB"
"75152","TX","Palmer","Ellis","48","139","32.43","-96.68","A","GD"
"75153","TX","Powell","Navarro","48","349","32.13","-96.34","A","GD"
"75154","TX","Red Oak","Ellis","48","139","32.53","-96.81","A","GD"
"75155","TX","Rice","Navarro","48","349","32.23","-96.49","A","GD"
"75156","TX","Mabank","Henderson","48","213","32.29","-96.11","A","GD"
"75157","TX","Rosser","Kaufman","48","257","32.46","-96.45","A","POB"
"75158","TX","Scurry","Kaufman","48","257","32.47","-96.38","A","GD"
"75159","TX","Seagoville","Dallas","48","113","32.62","-96.55","A","GD"
"75160","TX","Terrell","Kaufman","48","257","32.75","-96.3","A","GD"
"75161","TX","Terrell","Kaufman","48","257","32.73","-96.19","A","GD"
"75163","TX","Trinidad","Henderson","48","213","32.17","-96.11","A","GD"
"75164","TX","Josephine","Collin","48","85","33.07","-96.31","A","POB"
"75165","TX","Waxahachie","Ellis","48","139","32.4","-96.82","A","GD"
"75166","TX","Lavon","Collin","48","85","33.02","-96.45","A","GD"
"75167","TX","Waxahachie","Ellis","48","139","32.39","-96.9","A","GD"
"75168","TX","Waxahachie","Ellis","48","139","32.3","-96.77","A","POB"
"75169","TX","Wills Point","Van Zandt","48","467","32.73","-96","A","GD"
"75172","TX","Wilmer","Dallas","48","113","32.6","-96.68","A","GD"
"75173","TX","Nevada","Collin","48","85","33.05","-96.39","A","GD"
"75180","TX","Balch Springs","Dallas","48","113","32.72","-96.62","A","GD"
"75181","TX","Mesquite","Dallas","48","113","32.74","-96.56","A","GD"
"75182","TX","Sunnyvale","Dallas","48","113","32.8","-96.57","A","GD"
"75185","TX","Mesquite","Dallas","48","113","32.77","-96.62","A","POB"
"75187","TX","Mesquite","Dallas","48","113","32.77","-96.61","A","POB"
"75189","TX","Royse City","Rockwall","48","397","32.96","-96.31","A","GD"
"75201","TX","Dallas","Dallas","48","113","32.79","-96.8","A","GD"
"75202","TX","Dallas","Dallas","48","113","32.78","-96.8","A","GD"
"75203","TX","Dallas","Dallas","48","113","32.75","-96.81","A","GD"
"75204","TX","Dallas","Dallas","48","113","32.8","-96.79","A","GD"
"75205","TX","Dallas","Dallas","48","113","32.84","-96.8","A","GD"
"75206","TX","Dallas","Dallas","48","113","32.83","-96.77","A","GD"
"75207","TX","Dallas","Dallas","48","113","32.79","-96.82","A","GD"
"75208","TX","Dallas","Dallas","48","113","32.75","-96.84","A","GD"
"75209","TX","Dallas","Dallas","48","113","32.85","-96.83","A","GD"
"75210","TX","Dallas","Dallas","48","113","32.77","-96.75","A","GD"
"75211","TX","Dallas","Dallas","48","113","32.74","-96.89","A","GD"
"75212","TX","Dallas","Dallas","48","113","32.78","-96.88","A","GD"
"75214","TX","Dallas","Dallas","48","113","32.83","-96.75","A","GD"
"75215","TX","Dallas","Dallas","48","113","32.76","-96.77","A","GD"
"75216","TX","Dallas","Dallas","48","113","32.71","-96.8","A","GD"
"75217","TX","Dallas","Dallas","48","113","32.72","-96.68","A","GD"
"75218","TX","Dallas","Dallas","48","113","32.84","-96.7","A","GD"
"75219","TX","Dallas","Dallas","48","113","32.81","-96.81","A","GD"
"75220","TX","Dallas","Dallas","48","113","32.87","-96.86","A","GD"
"75221","TX","Dallas","Dallas","48","113","32.84","-96.77","A","POB"
"75222","TX","Dallas","Dallas","48","113","32.75","-96.84","A","POB"
"75223","TX","Dallas","Dallas","48","113","32.79","-96.75","A","GD"
"75224","TX","Dallas","Dallas","48","113","32.71","-96.84","A","GD"
"75225","TX","Dallas","Dallas","48","113","32.86","-96.79","A","GD"
"75226","TX","Dallas","Dallas","48","113","32.78","-96.78","A","GD"
"75227","TX","Dallas","Dallas","48","113","32.77","-96.69","A","GD"
"75228","TX","Dallas","Dallas","48","113","32.82","-96.68","A","GD"
"75229","TX","Dallas","Dallas","48","113","32.89","-96.86","A","GD"
"75230","TX","Dallas","Dallas","48","113","32.9","-96.79","A","GD"
"75231","TX","Dallas","Dallas","48","113","32.88","-96.75","A","GD"
"75232","TX","Dallas","Dallas","48","113","32.66","-96.84","A","GD"
"75233","TX","Dallas","Dallas","48","113","32.71","-96.87","A","GD"
"75234","TX","Dallas","Dallas","48","113","32.92","-96.89","A","GD"
"75235","TX","Dallas","Dallas","48","113","32.83","-96.85","A","GD"
"75236","TX","Dallas","Dallas","48","113","32.68","-96.92","A","GD"
"75237","TX","Dallas","Dallas","48","113","32.66","-96.88","A","GD"
"75238","TX","Dallas","Dallas","48","113","32.88","-96.71","A","GD"
"75240","TX","Dallas","Dallas","48","113","32.93","-96.79","A","GD"
"75241","TX","Dallas","Dallas","48","113","32.67","-96.77","A","GD"
"75242","TX","Dallas","Dallas","48","113","32.78","-96.8","A","GD"
"75243","TX","Dallas","Dallas","48","113","32.91","-96.74","A","GD"
"75244","TX","Dallas","Dallas","48","113","32.92","-96.84","A","GD"
"75246","TX","Dallas","Dallas","48","113","32.79","-96.77","A","GD"
"75247","TX","Dallas","Dallas","48","113","32.82","-96.88","A","GD"
"75248","TX","Dallas","Dallas","48","113","32.97","-96.79","A","GD"
"75249","TX","Dallas","Dallas","48","113","32.64","-96.95","A","GD"
"75250","TX","Dallas","Dallas","48","113","32.78","-96.8","A","POB"
"75251","TX","Dallas","Dallas","48","113","32.92","-96.77","A","GD"
"75252","TX","Dallas","Collin","48","85","33","-96.79","A","GD"
"75253","TX","Dallas","Dallas","48","113","32.68","-96.6","A","GD"
"75254","TX","Dallas","Dallas","48","113","32.94","-96.8","A","GD"
"75260","TX","Dallas","Dallas","48","113","32.77","-96.83","A","GD"
"75261","TX","Dallas","Dallas","48","113","32.9","-96.97","A","POB"
"75262","TX","Dallas","Dallas","48","113","32.75","-96.84","A","POB"
"75263","TX","Dallas","Dallas","48","113","32.75","-96.84","A","POB"
"75264","TX","Dallas","Dallas","48","113","32.75","-96.84","A","POB"
"75265","TX","Dallas","Dallas","48","113","32.74","-97","A","POB"
"75266","TX","Dallas","Dallas","48","113","32.78","-96.88","A","POB"
"75267","TX","Dallas","Dallas","48","113","32.75","-96.84","A","POB"
"75270","TX","Dallas","Dallas","48","113","32.78","-96.8","A","GD"
"75275","TX","Dallas","Dallas","48","113","32.84","-96.78","A","PVT"
"75277","TX","Dallas","Dallas","48","113","32.74","-96.75","A","PVT"
"75283","TX","Dallas","Dallas","48","113","32.77","-96.83","A","PVT"
"75284","TX","Dallas","Dallas","48","113","32.77","-96.83","A","PVT"
"75285","TX","Dallas","Dallas","48","113","32.77","-96.83","A","PVT"
"75287","TX","Dallas","Collin","48","85","33","-96.84","A","GD"
"75301","TX","Dallas","Dallas","48","113","32.66","-96.88","A","PVT"
"75303","TX","Dallas","Dallas","48","113","32.78","-96.78","A","PVT"
"75312","TX","Dallas","Dallas","48","113","32.77","-96.83","A","PVT"
"75313","TX","Dallas","Dallas","48","113","32.79","-96.8","A","POB"
"75315","TX","Dallas","Dallas","48","113","32.77","-96.77","A","POB"
"75320","TX","Dallas","Dallas","48","113","32.78","-96.8","A","PVT"
"75326","TX","Dallas","Dallas","48","113","32.77","-96.83","A","PVT"
"75336","TX","Dallas","Dallas","48","113","32.77","-96.83","A","POB"
"75339","TX","Dallas","Dallas","48","113","32.71","-96.8","A","POB"
"75342","TX","Dallas","Dallas","48","113","32.77","-96.86","A","GD"
"75354","TX","Dallas","Dallas","48","113","32.86","-96.89","A","POB"
"75355","TX","Dallas","Dallas","48","113","32.88","-96.71","A","POB"
"75356","TX","Dallas","Dallas","48","113","32.81","-96.88","A","POB"
"75357","TX","Dallas","Dallas","48","113","32.82","-96.68","A","POB"
"75358","TX","Dallas","Dallas","48","113","32.83","-96.86","A","PVT"
"75359","TX","Dallas","Dallas","48","113","32.81","-96.76","A","POB"
"75360","TX","Dallas","Dallas","48","113","32.94","-96.79","A","POB"
"75367","TX","Dallas","Dallas","48","113","32.9","-96.79","A","POB"
"75368","TX","Dallas","Dallas","48","113","32.92","-96.97","A","PVT"
"75370","TX","Dallas","Dallas","48","113","33","-96.84","A","POB"
"75371","TX","Dallas","Dallas","48","113","32.79","-96.77","A","POB"
"75372","TX","Dallas","Dallas","48","113","32.84","-96.77","A","POB"
"75373","TX","Dallas","Dallas","48","113","32.79","-96.83","A","PVT"
"75374","TX","Dallas","Dallas","48","113","32.91","-96.74","A","POB"
"75376","TX","Dallas","Dallas","48","113","32.71","-96.84","A","POB"
"75378","TX","Dallas","Dallas","48","113","32.89","-96.87","A","POB"
"75379","TX","Dallas","Dallas","48","113","32.99","-96.8","A","POB"
"75380","TX","Dallas","Dallas","48","113","32.93","-96.82","A","POB"
"75381","TX","Dallas","Dallas","48","113","32.94","-96.89","A","POB"
"75382","TX","Dallas","Dallas","48","113","32.88","-96.75","A","POB"
"75389","TX","Dallas","Dallas","48","113","32.77","-96.69","A","PVT"
"75390","TX","Dallas","Dallas","48","113","32.81","-96.84","A","PVT"
"75391","TX","Dallas","Dallas","48","113","32.95","-96.82","A","PVT"
"75392","TX","Dallas","Dallas","48","113","32.77","-96.83","A","PVT"
"75393","TX","Dallas","Dallas","48","113","32.8","-96.79","A","PVT"
"75394","TX","Dallas","Dallas","48","113","32.83","-96.71","A","PVT"
"75395","TX","Dallas","Dallas","48","113","32.71","-96.84","A","PVT"
"75397","TX","Dallas","Dallas","48","113","32.77","-96.83","A","PVT"
"75398","TX","Dallas","Dallas","48","113","32.77","-96.86","A","GD"
"75401","TX","Greenville","Hunt","48","231","33.15","-96.11","A","GD"
"75402","TX","Greenville","Hunt","48","231","33.09","-96.1","A","GD"
"75403","TX","Greenville","Hunt","48","231","33.19","-96.11","A","POB"
"75404","TX","Greenville","Hunt","48","231","33.19","-96.11","A","POB"
"75407","TX","Princeton","Collin","48","85","33.15","-96.5","A","GD"
"75409","TX","Anna","Collin","48","85","33.35","-96.54","A","GD"
"75410","TX","Alba","Wood","48","499","32.8","-95.62","A","GD"
"75411","TX","Arthur City","Lamar","48","277","33.86","-95.62","A","GD"
"75412","TX","Bagwell","Red River","48","387","33.8","-95.13","A","GD"
"75413","TX","Bailey","Fannin","48","147","33.43","-96.17","A","POB"
"75414","TX","Bells","Grayson","48","181","33.62","-96.42","A","GD"
"75415","TX","Ben Franklin","Delta","48","119","33.47","-95.77","A","GD"
"75416","TX","Blossom","Lamar","48","277","33.69","-95.37","A","GD"
"75417","TX","Bogata","Red River","48","387","33.45","-95.19","A","GD"
"75418","TX","Bonham","Fannin","48","147","33.59","-96.18","A","GD"
"75420","TX","Brashear","Hopkins","48","223","33.06","-95.73","A","GD"
"75421","TX","Brookston","Lamar","48","277","33.64","-95.7","A","GD"
"75422","TX","Campbell","Hunt","48","231","33.15","-95.94","A","GD"
"75423","TX","Celeste","Hunt","48","231","33.29","-96.21","A","GD"
"75424","TX","Blue Ridge","Collin","48","85","33.31","-96.38","A","GD"
"75425","TX","Chicota","Lamar","48","277","33.87","-95.56","A","POB"
"75426","TX","Clarksville","Red River","48","387","33.63","-95.04","A","GD"
"75428","TX","Commerce","Hunt","48","231","33.25","-95.91","A","GD"
"75429","TX","Commerce","Hunt","48","231","33.25","-95.9","A","POB"
"75431","TX","Como","Hopkins","48","223","33.01","-95.46","A","GD"
"75432","TX","Cooper","Delta","48","119","33.38","-95.69","A","GD"
"75433","TX","Cumby","Hopkins","48","223","33.14","-95.8","A","GD"
"75434","TX","Cunningham","Lamar","48","277","33.5","-95.38","A","POB"
"75435","TX","Deport","Lamar","48","277","33.5","-95.32","A","GD"
"75436","TX","Detroit","Red River","48","387","33.67","-95.26","A","GD"
"75437","TX","Dike","Hopkins","48","223","33.25","-95.47","A","GD"
"75438","TX","Dodd City","Fannin","48","147","33.6","-96.07","A","GD"
"75439","TX","Ector","Fannin","48","147","33.57","-96.27","A","GD"
"75440","TX","Emory","Rains","48","379","32.89","-95.73","A","GD"
"75441","TX","Enloe","Delta","48","119","33.43","-95.66","A","POB"
"75442","TX","Farmersville","Collin","48","85","33.18","-96.35","A","GD"
"75443","TX","Gober","Fannin","48","147","33.56","-96.04","A","POB"
"75444","TX","Golden","Wood","48","499","32.78","-95.59","A","POB"
"75446","TX","Honey Grove","Fannin","48","147","33.6","-95.9","A","GD"
"75447","TX","Ivanhoe","Fannin","48","147","33.77","-96.12","A","GD"
"75448","TX","Klondike","Delta","48","119","33.32","-95.78","A","GD"
"75449","TX","Ladonia","Fannin","48","147","33.42","-95.95","A","GD"
"75450","TX","Lake Creek","Delta","48","119","33.41","-95.49","A","GD"
"75451","TX","Leesburg","Camp","48","63","32.98","-95.13","A","GD"
"75452","TX","Leonard","Fannin","48","147","33.39","-96.25","A","GD"
"75453","TX","Lone Oak","Hunt","48","231","32.98","-95.95","A","GD"
"75454","TX","Melissa","Collin","48","85","33.28","-96.57","A","GD"
"75455","TX","Mount Pleasant","Titus","48","449","33.18","-94.98","A","GD"
"75456","TX","Mount Pleasant","Titus","48","449","33.16","-94.97","A","POB"
"75457","TX","Mount Vernon","Franklin","48","159","33.15","-95.22","A","GD"
"75458","TX","Merit","Hunt","48","231","33.28","-96.21","A","POB"
"75459","TX","Howe","Grayson","48","181","33.52","-96.65","A","GD"
"75460","TX","Paris","Lamar","48","277","33.66","-95.56","A","GD"
"75461","TX","Paris","Lamar","48","277","33.66","-95.55","A","POB"
"75462","TX","Paris","Lamar","48","277","33.64","-95.5","A","GD"
"75468","TX","Pattonville","Lamar","48","277","33.48","-95.39","A","GD"
"75469","TX","Pecan Gap","Delta","48","119","33.43","-95.83","A","GD"
"75470","TX","Petty","Lamar","48","277","33.6","-95.81","A","GD"
"75471","TX","Pickton","Hopkins","48","223","33.03","-95.39","A","GD"
"75472","TX","Point","Rains","48","379","32.89","-95.9","A","GD"
"75473","TX","Powderly","Lamar","48","277","33.8","-95.52","A","GD"
"75474","TX","Quinlan","Hunt","48","231","32.91","-96.09","A","GD"
"75475","TX","Randolph","Fannin","48","147","33.48","-96.25","A","POB"
"75476","TX","Ravenna","Fannin","48","147","33.69","-96.23","A","GD"
"75477","TX","Roxton","Lamar","48","277","33.54","-95.72","A","GD"
"75478","TX","Saltillo","Hopkins","48","223","33.17","-95.37","A","GD"
"75479","TX","Savoy","Fannin","48","147","33.6","-96.35","A","GD"
"75480","TX","Scroggins","Franklin","48","159","33.04","-95.19","A","GD"
"75481","TX","Sulphur Bluff","Hopkins","48","223","33.33","-95.38","A","GD"
"75482","TX","Sulphur Springs","Hopkins","48","223","33.16","-95.61","A","GD"
"75483","TX","Sulphur Springs","Hopkins","48","223","33.14","-95.6","A","POB"
"75485","TX","Westminster","Collin","48","85","33.3","-96.38","A","POB"
"75486","TX","Sumner","Lamar","48","277","33.73","-95.72","A","GD"
"75487","TX","Talco","Franklin","48","159","33.35","-95.15","A","GD"
"75488","TX","Telephone","Fannin","48","147","33.76","-95.99","A","GD"
"75489","TX","Tom Bean","Grayson","48","181","33.52","-96.48","A","POB"
"75490","TX","Trenton","Fannin","48","147","33.43","-96.33","A","GD"
"75491","TX","Whitewright","Grayson","48","181","33.5","-96.41","A","GD"
"75492","TX","Windom","Fannin","48","147","33.57","-96","A","GD"
"75493","TX","Winfield","Titus","48","449","33.15","-95.11","A","POB"
"75494","TX","Winnsboro","Wood","48","499","32.92","-95.28","A","GD"
"75495","TX","Van Alstyne","Grayson","48","181","33.43","-96.57","A","GD"
"75496","TX","Wolfe City","Hunt","48","231","33.36","-96.07","A","GD"
"75497","TX","Yantis","Wood","48","499","32.91","-95.56","A","GD"
"75501","TX","Texarkana","Bowie","48","37","33.41","-94.09","A","GD"
"75503","TX","Texarkana","Bowie","48","37","33.48","-94.1","A","GD"
"75504","TX","Texarkana","Bowie","48","37","33.36","-94.22","A","POB"
"75505","TX","Texarkana","Bowie","48","37","33.43","-94.08","A","POB"
"75507","TX","Texarkana","Bowie","48","37","33.36","-94.22","A","PVT"
"75550","TX","Annona","Red River","48","387","33.53","-94.89","A","GD"
"75551","TX","Atlanta","Cass","48","67","33.12","-94.18","A","GD"
"75554","TX","Avery","Red River","48","387","33.56","-94.78","A","GD"
"75555","TX","Bivins","Cass","48","67","32.94","-94.13","A","GD"
"75556","TX","Bloomburg","Cass","48","67","33.15","-94.06","A","GD"
"75558","TX","Cookville","Titus","48","449","33.24","-94.85","A","GD"
"75559","TX","De Kalb","Bowie","48","37","33.51","-94.61","A","GD"
"75560","TX","Douglassville","Cass","48","67","33.19","-94.38","A","GD"
"75561","TX","Hooks","Bowie","48","37","33.49","-94.27","A","GD"
"75562","TX","Kildare","Cass","48","67","32.92","-94.24","A","POB"
"75563","TX","Linden","Cass","48","67","33.01","-94.37","A","GD"
"75564","TX","Lodi","Marion","48","315","32.74","-94.31","A","POB"
"75565","TX","Mc Leod","Cass","48","67","32.94","-94.08","A","POB"
"75566","TX","Marietta","Cass","48","67","33.16","-94.51","A","GD"
"75567","TX","Maud","Bowie","48","37","33.34","-94.33","A","GD"
"75568","TX","Naples","Morris","48","343","33.2","-94.61","A","GD"
"75569","TX","Nash","Bowie","48","37","33.44","-94.13","A","GD"
"75570","TX","New Boston","Bowie","48","37","33.47","-94.42","A","GD"
"75571","TX","Omaha","Morris","48","343","33.2","-94.75","A","GD"
"75572","TX","Queen City","Cass","48","67","33.21","-94.14","A","GD"
"75573","TX","Redwater","Bowie","48","37","33.35","-94.25","A","POB"
"75574","TX","Simms","Bowie","48","37","33.34","-94.53","A","GD"
"75599","TX","Texarkana","Bowie","48","37","33.45","-94.08","A","PVT"
"75601","TX","Longview","Gregg","48","183","32.51","-94.73","A","GD"
"75602","TX","Longview","Gregg","48","183","32.47","-94.71","A","GD"
"75603","TX","Longview","Gregg","48","183","32.41","-94.72","A","GD"
"75604","TX","Longview","Gregg","48","183","32.52","-94.82","A","GD"
"75605","TX","Longview","Gregg","48","183","32.57","-94.75","A","GD"
"75606","TX","Longview","Gregg","48","183","32.5","-94.74","A","POB"
"75607","TX","Longview","Gregg","48","183","32.58","-94.78","A","POB"
"75608","TX","Longview","Gregg","48","183","32.56","-94.8","A","POB"
"75615","TX","Longview","Gregg","48","183","32.46","-94.73","A","POB"
"75630","TX","Avinger","Cass","48","67","32.85","-94.57","A","GD"
"75631","TX","Beckville","Panola","48","365","32.25","-94.46","A","GD"
"75633","TX","Carthage","Panola","48","365","32.14","-94.31","A","GD"
"75636","TX","Cason","Morris","48","343","32.94","-94.71","A","POB"
"75637","TX","Clayton","Panola","48","365","32.1","-94.47","A","POB"
"75638","TX","Daingerfield","Morris","48","343","33.02","-94.73","A","GD"
"75639","TX","De Berry","Panola","48","365","32.29","-94.17","A","GD"
"75640","TX","Diana","Upshur","48","459","32.72","-94.7","A","GD"
"75641","TX","Easton","Gregg","48","183","32.38","-94.58","A","POB"
"75642","TX","Elysian Fields","Harrison","48","203","32.37","-94.18","A","POB"
"75643","TX","Gary","Panola","48","365","32.03","-94.36","A","GD"
"75644","TX","Gilmer","Upshur","48","459","32.75","-94.99","A","GD"
"75645","TX","Gilmer","Upshur","48","459","32.67","-94.88","A","GD"
"75647","TX","Gladewater","Gregg","48","183","32.53","-94.94","A","GD"
"75650","TX","Hallsville","Harrison","48","203","32.5","-94.56","A","GD"
"75651","TX","Harleton","Harrison","48","203","32.68","-94.55","A","GD"
"75652","TX","Henderson","Rusk","48","401","32.19","-94.77","A","GD"
"75653","TX","Henderson","Rusk","48","401","32.16","-94.81","A","POB"
"75654","TX","Henderson","Rusk","48","401","32.1","-94.84","A","GD"
"75656","TX","Hughes Springs","Cass","48","67","33","-94.62","A","GD"
"75657","TX","Jefferson","Marion","48","315","32.77","-94.35","A","GD"
"75658","TX","Joinerville","Rusk","48","401","32.18","-94.91","A","POB"
"75659","TX","Jonesville","Harrison","48","203","32.5","-94.11","A","POB"
"75660","TX","Judson","Gregg","48","183","32.58","-94.75","A","POB"
"75661","TX","Karnack","Harrison","48","203","32.65","-94.17","A","GD"
"75662","TX","Kilgore","Gregg","48","183","32.4","-94.87","A","GD"
"75663","TX","Kilgore","Gregg","48","183","32.38","-94.86","A","POB"
"75666","TX","Laird Hill","Rusk","48","401","32.35","-94.91","A","POB"
"75667","TX","Laneville","Rusk","48","401","31.99","-94.84","A","GD"
"75668","TX","Lone Star","Morris","48","343","32.92","-94.7","A","GD"
"75669","TX","Long Branch","Panola","48","365","32.04","-94.58","A","GD"
"75670","TX","Marshall","Harrison","48","203","32.55","-94.38","A","GD"
"75671","TX","Marshall","Harrison","48","203","32.54","-94.37","A","POB"
"75672","TX","Marshall","Harrison","48","203","32.51","-94.32","A","GD"
"75680","TX","Minden","Rusk","48","401","32.15","-94.8","A","POB"
"75681","TX","Mount Enterprise","Rusk","48","401","31.93","-94.69","A","GD"
"75682","TX","New London","Rusk","48","401","32.25","-94.94","A","POB"
"75683","TX","Ore City","Upshur","48","459","32.82","-94.7","A","GD"
"75684","TX","Overton","Rusk","48","401","32.27","-94.95","A","GD"
"75685","TX","Panola","Panola","48","365","32.44","-93.97","A","POB"
"75686","TX","Pittsburg","Camp","48","63","32.99","-94.97","A","GD"
"75687","TX","Price","Rusk","48","401","32.1","-94.94","A","POB"
"75688","TX","Scottsville","Harrison","48","203","32.54","-94.24","A","POB"
"75689","TX","Selman City","Rusk","48","401","32.18","-94.95","A","POB"
"75691","TX","Tatum","Rusk","48","401","32.3","-94.55","A","GD"
"75692","TX","Waskom","Harrison","48","203","32.48","-94.09","A","GD"
"75693","TX","White Oak","Gregg","48","183","32.53","-94.86","A","GD"
"75694","TX","Woodlawn","Harrison","48","203","32.66","-94.34","A","POB"
"75701","TX","Tyler","Smith","48","423","32.33","-95.29","A","GD"
"75702","TX","Tyler","Smith","48","423","32.36","-95.31","A","GD"
"75703","TX","Tyler","Smith","48","423","32.26","-95.31","A","GD"
"75704","TX","Tyler","Smith","48","423","32.39","-95.42","A","GD"
"75705","TX","Tyler","Smith","48","423","32.37","-95.13","A","GD"
"75706","TX","Tyler","Smith","48","423","32.46","-95.33","A","GD"
"75707","TX","Tyler","Smith","48","423","32.29","-95.21","A","GD"
"75708","TX","Tyler","Smith","48","423","32.41","-95.22","A","GD"
"75709","TX","Tyler","Smith","48","423","32.32","-95.39","A","GD"
"75710","TX","Tyler","Smith","48","423","32.36","-95.32","A","POB"
"75711","TX","Tyler","Smith","48","423","32.4","-95.41","A","POB"
"75712","TX","Tyler","Smith","48","423","32.32","-95.29","A","POB"
"75713","TX","Tyler","Smith","48","423","32.32","-95.29","A","POB"
"75750","TX","Arp","Smith","48","423","32.25","-95.07","A","GD"
"75751","TX","Athens","Henderson","48","213","32.16","-95.88","A","GD"
"75752","TX","Athens","Henderson","48","213","32.23","-95.8","A","GD"
"75754","TX","Ben Wheeler","Van Zandt","48","467","32.43","-95.66","A","GD"
"75755","TX","Big Sandy","Upshur","48","459","32.62","-95.08","A","GD"
"75756","TX","Brownsboro","Henderson","48","213","32.3","-95.6","A","GD"
"75757","TX","Bullard","Smith","48","423","32.12","-95.37","A","GD"
"75758","TX","Chandler","Henderson","48","213","32.27","-95.5","A","GD"
"75759","TX","Cuney","Cherokee","48","73","32.03","-95.42","A","POB"
"75760","TX","Cushing","Nacogdoches","48","347","31.81","-94.86","A","GD"
"75762","TX","Flint","Smith","48","423","32.2","-95.41","A","GD"
"75763","TX","Frankston","Anderson","48","1","32.07","-95.5","A","GD"
"75764","TX","Gallatin","Cherokee","48","73","31.89","-95.15","A","POB"
"75765","TX","Hawkins","Wood","48","499","32.63","-95.23","A","GD"
"75766","TX","Jacksonville","Cherokee","48","73","31.95","-95.25","A","GD"
"75770","TX","Larue","Henderson","48","213","32.13","-95.65","A","GD"
"75771","TX","Lindale","Smith","48","423","32.53","-95.43","A","GD"
"75772","TX","Maydelle","Cherokee","48","73","31.8","-95.3","A","POB"
"75773","TX","Mineola","Wood","48","499","32.67","-95.47","A","GD"
"75778","TX","Murchison","Henderson","48","213","32.32","-95.71","A","GD"
"75779","TX","Neches","Anderson","48","1","31.87","-95.49","A","POB"
"75780","TX","New Summerfield","Cherokee","48","73","31.99","-95.09","A","POB"
"75782","TX","Poynor","Henderson","48","213","32.08","-95.59","A","POB"
"75783","TX","Quitman","Wood","48","499","32.81","-95.44","A","GD"
"75784","TX","Reklaw","Cherokee","48","73","31.88","-94.97","A","GD"
"75785","TX","Rusk","Cherokee","48","73","31.8","-95.17","A","GD"
"75788","TX","Sacul","Nacogdoches","48","347","31.82","-94.92","A","POB"
"75789","TX","Troup","Smith","48","423","32.12","-95.12","A","GD"
"75790","TX","Van","Van Zandt","48","467","32.53","-95.64","A","GD"
"75791","TX","Whitehouse","Smith","48","423","32.23","-95.22","A","GD"
"75792","TX","Winona","Smith","48","423","32.48","-95.11","A","GD"
"75797","TX","Big Sandy","Upshur","48","459","32.58","-95.11","A","PVT"
"75798","TX","Tyler","Smith","48","423","32.33","-95.28","A","PVT"
"75799","TX","Tyler","Smith","48","423","32.33","-95.3","A","PVT"
"75801","TX","Palestine","Anderson","48","1","31.74","-95.6","A","GD"
"75802","TX","Palestine","Anderson","48","1","31.76","-95.63","A","POB"
"75803","TX","Palestine","Anderson","48","1","31.84","-95.66","A","GD"
"75831","TX","Buffalo","Leon","48","289","31.45","-96.04","A","GD"
"75832","TX","Cayuga","Anderson","48","1","31.94","-96","A","POB"
"75833","TX","Centerville","Leon","48","289","31.28","-95.87","A","GD"
"75834","TX","Centralia","Trinity","48","455","31.26","-95.03","A","GD"
"75835","TX","Crockett","Houston","48","225","31.31","-95.47","A","GD"
"75838","TX","Donie","Freestone","48","161","31.48","-96.22","A","GD"
"75839","TX","Elkhart","Anderson","48","1","31.62","-95.56","A","GD"
"75840","TX","Fairfield","Freestone","48","161","31.77","-96.12","A","GD"
"75844","TX","Grapeland","Houston","48","225","31.51","-95.45","A","GD"
"75845","TX","Groveton","Trinity","48","455","31.09","-95.08","A","GD"
"75846","TX","Jewett","Leon","48","289","31.35","-96.17","A","GD"
"75847","TX","Kennard","Houston","48","225","31.36","-95.15","A","GD"
"75848","TX","Kirvin","Freestone","48","161","31.77","-96.33","A","POB"
"75849","TX","Latexo","Houston","48","225","31.42","-95.48","A","POB"
"75850","TX","Leona","Leon","48","289","31.15","-95.96","A","GD"
"75851","TX","Lovelady","Houston","48","225","31.08","-95.51","A","GD"
"75852","TX","Midway","Madison","48","313","30.98","-95.7","A","GD"
"75853","TX","Montalba","Anderson","48","1","31.95","-95.81","A","GD"
"75855","TX","Oakwood","Leon","48","289","31.58","-95.86","A","GD"
"75856","TX","Pennington","Trinity","48","455","31.19","-95.25","A","GD"
"75858","TX","Ratcliff","Houston","48","225","31.39","-95.13","A","POB"
"75859","TX","Streetman","Freestone","48","161","31.89","-96.25","A","GD"
"75860","TX","Teague","Freestone","48","161","31.63","-96.26","A","GD"
"75861","TX","Tennessee Colony","Anderson","48","1","31.82","-95.89","A","GD"
"75862","TX","Trinity","Trinity","48","455","30.94","-95.34","A","GD"
"75865","TX","Woodlake","Trinity","48","455","31.03","-95.03","A","POB"
"75880","TX","Tennessee Colony","Anderson","48","1","31.84","-95.84","A","PVT"
"75882","TX","Palestine","Anderson","48","1","31.76","-95.65","A","PVT"
"75884","TX","Tennessee Colony","Anderson","48","1","31.83","-95.84","A","PVT"
"75886","TX","Tennessee Colony","Anderson","48","1","31.84","-95.84","A","PVT"
"75901","TX","Lufkin","Angelina","48","5","31.32","-94.69","A","GD"
"75902","TX","Lufkin","Angelina","48","5","31.32","-94.8","A","POB"
"75903","TX","Lufkin","Angelina","48","5","31.36","-94.77","A","POB"
"75904","TX","Lufkin","Angelina","48","5","31.34","-94.77","A","GD"
"75915","TX","Lufkin","Angelina","48","5","31.33","-94.73","A","POB"
"75925","TX","Alto","Cherokee","48","73","31.61","-95.06","A","GD"
"75926","TX","Apple Springs","Trinity","48","455","31.24","-94.96","A","GD"
"75928","TX","Bon Wier","Newton","48","351","30.68","-93.69","A","GD"
"75929","TX","Broaddus","San Augustine","48","405","31.23","-94.19","A","GD"
"75930","TX","Bronson","Sabine","48","403","31.33","-94.02","A","GD"
"75931","TX","Brookeland","Jasper","48","241","31.11","-94","A","GD"
"75932","TX","Burkeville","Newton","48","351","31.07","-93.61","A","GD"
"75933","TX","Call","Newton","48","351","30.57","-93.83","A","GD"
"75934","TX","Camden","Polk","48","373","30.91","-94.73","A","POB"
"75935","TX","Center","Shelby","48","419","31.75","-94.2","A","GD"
"75936","TX","Chester","Tyler","48","457","30.94","-94.58","A","GD"
"75937","TX","Chireno","Nacogdoches","48","347","31.48","-94.35","A","GD"
"75938","TX","Colmesneil","Tyler","48","457","30.92","-94.35","A","GD"
"75939","TX","Corrigan","Polk","48","373","31.01","-94.8","A","GD"
"75941","TX","Diboll","Angelina","48","5","31.19","-94.78","A","GD"
"75942","TX","Doucette","Tyler","48","457","30.82","-94.43","A","POB"
"75943","TX","Douglass","Nacogdoches","48","347","31.67","-94.88","A","GD"
"75944","TX","Etoile","Nacogdoches","48","347","31.36","-94.42","A","GD"
"75946","TX","Garrison","Nacogdoches","48","347","31.81","-94.54","A","GD"
"75948","TX","Hemphill","Sabine","48","403","31.31","-93.8","A","GD"
"75949","TX","Huntington","Angelina","48","5","31.24","-94.53","A","GD"
"75951","TX","Jasper","Jasper","48","241","30.94","-94.03","A","GD"
"75954","TX","Joaquin","Shelby","48","419","31.95","-94.06","A","GD"
"75956","TX","Kirbyville","Jasper","48","241","30.67","-93.94","A","GD"
"75958","TX","Martinsville","Nacogdoches","48","347","31.64","-94.41","A","POB"
"75959","TX","Milam","Sabine","48","403","31.5","-93.84","A","GD"
"75960","TX","Moscow","Polk","48","373","30.93","-94.86","A","GD"
"75961","TX","Nacogdoches","Nacogdoches","48","347","31.58","-94.58","A","GD"
"75962","TX","Nacogdoches","Nacogdoches","48","347","31.62","-94.65","A","PVT"
"75963","TX","Nacogdoches","Nacogdoches","48","347","31.63","-94.64","A","POB"
"75964","TX","Nacogdoches","Nacogdoches","48","347","31.61","-94.71","A","GD"
"75965","TX","Nacogdoches","Nacogdoches","48","347","31.69","-94.65","A","GD"
"75966","TX","Newton","Newton","48","351","30.84","-93.74","A","GD"
"75968","TX","Pineland","Sabine","48","403","31.25","-93.96","A","GD"
"75969","TX","Pollok","Angelina","48","5","31.44","-94.88","A","GD"
"75972","TX","San Augustine","San Augustine","48","405","31.5","-94.13","A","GD"
"75973","TX","Shelbyville","Shelby","48","419","31.74","-93.91","A","GD"
"75974","TX","Tenaha","Shelby","48","419","31.95","-94.25","A","GD"
"75975","TX","Timpson","Shelby","48","419","31.9","-94.41","A","GD"
"75976","TX","Wells","Cherokee","48","73","31.5","-94.94","A","POB"
"75977","TX","Wiergate","Newton","48","351","31.06","-93.77","A","GD"
"75978","TX","Woden","Nacogdoches","48","347","31.51","-94.53","A","POB"
"75979","TX","Woodville","Tyler","48","457","30.77","-94.41","A","GD"
"75980","TX","Zavalla","Angelina","48","5","31.14","-94.38","A","GD"
"75990","TX","Woodville","Tyler","48","457","30.77","-94.42","A","PVT"
"76001","TX","Arlington","Tarrant","48","439","32.63","-97.15","A","GD"
"76002","TX","Arlington","Tarrant","48","439","32.62","-97.09","A","GD"
"76003","TX","Arlington","Tarrant","48","439","32.66","-97.17","A","POB"
"76004","TX","Arlington","Tarrant","48","439","32.73","-97.1","A","POB"
"76005","TX","Arlington","Tarrant","48","439","32.75","-97.06","A","GD"
"76006","TX","Arlington","Tarrant","48","439","32.78","-97.08","A","GD"
"76007","TX","Arlington","Tarrant","48","439","32.72","-97.08","A","POB"
"76008","TX","Aledo","Parker","48","367","32.7","-97.64","A","GD"
"76009","TX","Alvarado","Johnson","48","251","32.42","-97.21","A","GD"
"76010","TX","Arlington","Tarrant","48","439","32.72","-97.08","A","GD"
"76011","TX","Arlington","Tarrant","48","439","32.76","-97.08","A","GD"
"76012","TX","Arlington","Tarrant","48","439","32.75","-97.14","A","GD"
"76013","TX","Arlington","Tarrant","48","439","32.72","-97.15","A","GD"
"76014","TX","Arlington","Tarrant","48","439","32.69","-97.09","A","GD"
"76015","TX","Arlington","Tarrant","48","439","32.69","-97.13","A","GD"
"76016","TX","Arlington","Tarrant","48","439","32.69","-97.19","A","GD"
"76017","TX","Arlington","Tarrant","48","439","32.66","-97.16","A","GD"
"76018","TX","Arlington","Tarrant","48","439","32.66","-97.09","A","GD"
"76019","TX","Arlington","Tarrant","48","439","32.73","-97.11","A","PVT"
"76020","TX","Azle","Tarrant","48","439","32.91","-97.55","A","GD"
"76021","TX","Bedford","Tarrant","48","439","32.85","-97.13","A","GD"
"76022","TX","Bedford","Tarrant","48","439","32.83","-97.15","A","GD"
"76023","TX","Boyd","Wise","48","497","33.06","-97.58","A","GD"
"76028","TX","Burleson","Johnson","48","251","32.53","-97.31","A","GD"
"76031","TX","Cleburne","Johnson","48","251","32.37","-97.35","A","GD"
"76033","TX","Cleburne","Johnson","48","251","32.32","-97.44","A","GD"
"76034","TX","Colleyville","Tarrant","48","439","32.89","-97.15","A","GD"
"76035","TX","Cresson","Hood","48","221","32.55","-97.63","A","GD"
"76036","TX","Crowley","Tarrant","48","439","32.58","-97.38","A","GD"
"76039","TX","Euless","Tarrant","48","439","32.86","-97.08","A","GD"
"76040","TX","Euless","Tarrant","48","439","32.83","-97.1","A","GD"
"76041","TX","Forreston","Ellis","48","139","32.25","-96.85","A","GD"
"76043","TX","Glen Rose","Somervell","48","425","32.22","-97.8","A","GD"
"76044","TX","Godley","Johnson","48","251","32.44","-97.53","A","GD"
"76048","TX","Granbury","Hood","48","221","32.43","-97.79","A","GD"
"76049","TX","Granbury","Hood","48","221","32.45","-97.71","A","GD"
"76050","TX","Grandview","Johnson","48","251","32.28","-97.18","A","GD"
"76051","TX","Grapevine","Tarrant","48","439","32.92","-97.08","A","GD"
"76052","TX","Haslet","Tarrant","48","439","32.98","-97.38","A","GD"
"76053","TX","Hurst","Tarrant","48","439","32.82","-97.18","A","GD"
"76054","TX","Hurst","Tarrant","48","439","32.86","-97.18","A","GD"
"76055","TX","Itasca","Hill","48","217","32.16","-97.15","A","GD"
"76058","TX","Joshua","Johnson","48","251","32.46","-97.4","A","GD"
"76059","TX","Keene","Johnson","48","251","32.39","-97.33","A","GD"
"76060","TX","Kennedale","Tarrant","48","439","32.64","-97.21","A","GD"
"76061","TX","Lillian","Johnson","48","251","32.5","-97.19","A","POB"
"76063","TX","Mansfield","Tarrant","48","439","32.58","-97.13","A","GD"
"76064","TX","Maypearl","Ellis","48","139","32.31","-97.02","A","GD"
"76065","TX","Midlothian","Ellis","48","139","32.48","-96.99","A","GD"
"76066","TX","Millsap","Parker","48","367","32.71","-98.01","A","GD"
"76067","TX","Mineral Wells","Palo Pinto","48","363","32.81","-98.11","A","GD"
"76068","TX","Mineral Wells","Palo Pinto","48","363","32.81","-98.11","A","POB"
"76070","TX","Nemo","Somervell","48","425","32.28","-97.67","A","GD"
"76071","TX","Newark","Wise","48","497","33","-97.49","A","GD"
"76073","TX","Paradise","Wise","48","497","33.11","-97.72","A","GD"
"76077","TX","Rainbow","Somervell","48","425","32.28","-97.71","A","GD"
"76078","TX","Rhome","Wise","48","497","33.08","-97.47","A","GD"
"76082","TX","Springtown","Parker","48","367","32.97","-97.69","A","GD"
"76084","TX","Venus","Johnson","48","251","32.44","-97.1","A","GD"
"76085","TX","Weatherford","Parker","48","367","32.84","-97.71","A","GD"
"76086","TX","Weatherford","Parker","48","367","32.76","-97.79","A","GD"
"76087","TX","Weatherford","Parker","48","367","32.71","-97.74","A","GD"
"76088","TX","Weatherford","Parker","48","367","32.83","-97.89","A","GD"
"76092","TX","Southlake","Tarrant","48","439","32.95","-97.15","A","GD"
"76093","TX","Rio Vista","Johnson","48","251","32.22","-97.38","A","GD"
"76094","TX","Arlington","Tarrant","48","439","32.72","-97.15","A","POB"
"76095","TX","Bedford","Tarrant","48","439","32.85","-97.15","A","POB"
"76096","TX","Arlington","Tarrant","48","439","32.67","-97.09","A","POB"
"76097","TX","Burleson","Johnson","48","251","32.54","-97.32","A","POB"
"76098","TX","Azle","Parker","48","367","32.9","-97.54","A","POB"
"76099","TX","Grapevine","Tarrant","48","439","32.93","-97.08","A","POB"
"76101","TX","Fort Worth","Tarrant","48","439","32.76","-97.33","A","POB"
"76102","TX","Fort Worth","Tarrant","48","439","32.76","-97.33","A","GD"
"76103","TX","Fort Worth","Tarrant","48","439","32.74","-97.27","A","GD"
"76104","TX","Fort Worth","Tarrant","48","439","32.73","-97.32","A","GD"
"76105","TX","Fort Worth","Tarrant","48","439","32.72","-97.27","A","GD"
"76106","TX","Fort Worth","Tarrant","48","439","32.81","-97.35","A","GD"
"76107","TX","Fort Worth","Tarrant","48","439","32.74","-97.38","A","GD"
"76108","TX","Fort Worth","Tarrant","48","439","32.76","-97.49","A","GD"
"76109","TX","Fort Worth","Tarrant","48","439","32.7","-97.38","A","GD"
"76110","TX","Fort Worth","Tarrant","48","439","32.71","-97.34","A","GD"
"76111","TX","Fort Worth","Tarrant","48","439","32.78","-97.3","A","GD"
"76112","TX","Fort Worth","Tarrant","48","439","32.75","-97.22","A","GD"
"76113","TX","Fort Worth","Tarrant","48","439","32.75","-97.33","A","POB"
"76114","TX","Fort Worth","Tarrant","48","439","32.78","-97.4","A","GD"
"76115","TX","Fort Worth","Tarrant","48","439","32.68","-97.33","A","GD"
"76116","TX","Fort Worth","Tarrant","48","439","32.72","-97.45","A","GD"
"76117","TX","Haltom City","Tarrant","48","439","32.81","-97.27","A","GD"
"76118","TX","Fort Worth","Tarrant","48","439","32.8","-97.22","A","GD"
"76119","TX","Fort Worth","Tarrant","48","439","32.69","-97.27","A","GD"
"76120","TX","Fort Worth","Tarrant","48","439","32.76","-97.18","A","GD"
"76121","TX","Fort Worth","Tarrant","48","439","32.72","-97.45","A","POB"
"76122","TX","Fort Worth","Tarrant","48","439","32.68","-97.35","A","PVT"
"76123","TX","Fort Worth","Tarrant","48","439","32.62","-97.38","A","GD"
"76124","TX","Fort Worth","Tarrant","48","439","32.76","-97.2","A","POB"
"76126","TX","Fort Worth","Tarrant","48","439","32.66","-97.49","A","GD"
"76127","TX","Naval Air Station Jrb","Tarrant","48","439","32.78","-97.42","A","GD"
"76129","TX","Fort Worth","Tarrant","48","439","32.71","-97.36","A","PVT"
"76130","TX","Fort Worth","Tarrant","48","439","32.71","-97.36","A","PVT"
"76131","TX","Fort Worth","Tarrant","48","439","32.88","-97.34","A","GD"
"76132","TX","Fort Worth","Tarrant","48","439","32.67","-97.41","A","GD"
"76133","TX","Fort Worth","Tarrant","48","439","32.65","-97.38","A","GD"
"76134","TX","Fort Worth","Tarrant","48","439","32.65","-97.33","A","GD"
"76135","TX","Fort Worth","Tarrant","48","439","32.82","-97.45","A","GD"
"76136","TX","Fort Worth","Tarrant","48","439","32.9","-97.46","A","POB"
"76137","TX","Fort Worth","Tarrant","48","439","32.86","-97.29","A","GD"
"76140","TX","Fort Worth","Tarrant","48","439","32.63","-97.28","A","GD"
"76147","TX","Fort Worth","Tarrant","48","439","32.75","-97.36","A","POB"
"76148","TX","Fort Worth","Tarrant","48","439","32.87","-97.25","A","GD"
"76150","TX","Fort Worth","Tarrant","48","439","32.75","-97.34","A","PVT"
"76155","TX","Fort Worth","Tarrant","48","439","32.83","-97.05","A","GD"
"76161","TX","Fort Worth","Tarrant","48","439","32.81","-97.35","A","POB"
"76162","TX","Fort Worth","Tarrant","48","439","32.66","-97.38","A","POB"
"76163","TX","Fort Worth","Tarrant","48","439","32.66","-97.38","A","POB"
"76164","TX","Fort Worth","Tarrant","48","439","32.78","-97.36","A","GD"
"76166","TX","Fort Worth","Tarrant","48","439","32.73","-97.32","A","PVT"
"76177","TX","Fort Worth","Tarrant","48","439","32.97","-97.31","A","GD"
"76179","TX","Fort Worth","Tarrant","48","439","32.88","-97.41","A","GD"
"76180","TX","North Richland Hills","Tarrant","48","439","32.84","-97.22","A","GD"
"76181","TX","Fort Worth","Tarrant","48","439","32.81","-97.23","A","POB"
"76182","TX","North Richland Hills","Tarrant","48","439","32.88","-97.21","A","GD"
"76185","TX","Fort Worth","Tarrant","48","439","32.71","-97.39","A","POB"
"76190","TX","Fort Worth","Tarrant","48","439","32.74","-97.33","A","PVT"
"76191","TX","Fort Worth","Tarrant","48","439","32.81","-97.35","A","PVT"
"76192","TX","Fort Worth","Tarrant","48","439","32.93","-97.44","A","PVT"
"76193","TX","Fort Worth","Tarrant","48","439","32.75","-97.33","A","PVT"
"76195","TX","Fort Worth","Tarrant","48","439","32.73","-97.32","A","PVT"
"76196","TX","Fort Worth","Tarrant","48","439","32.76","-97.33","A","PVT"
"76197","TX","Fort Worth","Tarrant","48","439","32.78","-97.3","A","PVT"
"76198","TX","Fort Worth","Tarrant","48","439","32.75","-97.33","A","PVT"
"76199","TX","Fort Worth","Tarrant","48","439","32.75","-97.34","A","PVT"
"76201","TX","Denton","Denton","48","121","33.22","-97.14","A","GD"
"76202","TX","Denton","Denton","48","121","33.18","-97.18","A","POB"
"76203","TX","Denton","Denton","48","121","33.21","-97.13","A","POB"
"76204","TX","Denton","Denton","48","121","33.21","-97.13","A","POB"
"76205","TX","Denton","Denton","48","121","33.19","-97.13","A","GD"
"76206","TX","Denton","Denton","48","121","33.2","-97.12","A","POB"
"76207","TX","Denton","Denton","48","121","33.23","-97.17","A","GD"
"76208","TX","Denton","Denton","48","121","33.19","-97.06","A","GD"
"76209","TX","Denton","Denton","48","121","33.23","-97.11","A","GD"
"76210","TX","Denton","Denton","48","121","33.15","-97.09","A","GD"
"76225","TX","Alvord","Wise","48","497","33.35","-97.68","A","GD"
"76226","TX","Argyle","Denton","48","121","33.12","-97.16","A","GD"
"76227","TX","Aubrey","Denton","48","121","33.26","-96.97","A","GD"
"76228","TX","Bellevue","Clay","48","77","33.59","-98.08","A","GD"
"76230","TX","Bowie","Montague","48","337","33.54","-97.89","A","GD"
"76233","TX","Collinsville","Grayson","48","181","33.54","-96.91","A","GD"
"76234","TX","Decatur","Wise","48","497","33.25","-97.55","A","GD"
"76238","TX","Era","Cooke","48","97","33.5","-97.33","A","GD"
"76239","TX","Forestburg","Montague","48","337","33.52","-97.51","A","GD"
"76240","TX","Gainesville","Cooke","48","97","33.64","-97.14","A","GD"
"76241","TX","Gainesville","Cooke","48","97","33.62","-97.15","A","POB"
"76244","TX","Keller","Tarrant","48","439","32.93","-97.28","A","GD"
"76245","TX","Gordonville","Grayson","48","181","33.84","-96.83","A","GD"
"76246","TX","Greenwood","Wise","48","497","33.38","-97.47","A","POB"
"76247","TX","Justin","Denton","48","121","33.09","-97.31","A","GD"
"76248","TX","Keller","Tarrant","48","439","32.92","-97.23","A","GD"
"76249","TX","Krum","Denton","48","121","33.27","-97.26","A","GD"
"76250","TX","Lindsay","Cooke","48","97","33.64","-97.22","A","GD"
"76251","TX","Montague","Montague","48","337","33.64","-97.71","A","GD"
"76252","TX","Muenster","Cooke","48","97","33.66","-97.38","A","GD"
"76253","TX","Myra","Cooke","48","97","33.62","-97.32","A","POB"
"76255","TX","Nocona","Montague","48","337","33.83","-97.71","A","GD"
"76258","TX","Pilot Point","Denton","48","121","33.37","-96.95","A","GD"
"76259","TX","Ponder","Denton","48","121","33.19","-97.31","A","GD"
"76261","TX","Ringgold","Montague","48","337","33.81","-97.95","A","GD"
"76262","TX","Roanoke","Denton","48","121","33","-97.22","A","GD"
"76263","TX","Rosston","Cooke","48","97","33.48","-97.45","A","GD"
"76264","TX","Sadler","Grayson","48","181","33.73","-96.83","A","GD"
"76265","TX","Saint Jo","Montague","48","337","33.7","-97.53","A","GD"
"76266","TX","Sanger","Denton","48","121","33.36","-97.19","A","GD"
"76267","TX","Slidell","Wise","48","497","33.36","-97.39","A","POB"
"76268","TX","Southmayd","Grayson","48","181","33.63","-96.77","A","POB"
"76270","TX","Sunset","Montague","48","337","33.44","-97.77","A","GD"
"76271","TX","Tioga","Grayson","48","181","33.47","-96.91","A","GD"
"76272","TX","Valley View","Cooke","48","97","33.48","-97.14","A","GD"
"76273","TX","Whitesboro","Grayson","48","181","33.71","-96.92","A","GD"
"76301","TX","Wichita Falls","Wichita","48","485","33.9","-98.49","A","GD"
"76302","TX","Wichita Falls","Wichita","48","485","33.87","-98.49","A","GD"
"76305","TX","Wichita Falls","Wichita","48","485","33.97","-98.45","A","GD"
"76306","TX","Wichita Falls","Wichita","48","485","33.94","-98.52","A","GD"
"76307","TX","Wichita Falls","Wichita","48","485","33.91","-98.49","A","POB"
"76308","TX","Wichita Falls","Wichita","48","485","33.86","-98.53","A","GD"
"76309","TX","Wichita Falls","Wichita","48","485","33.89","-98.53","A","GD"
"76310","TX","Wichita Falls","Wichita","48","485","33.83","-98.53","A","GD"
"76311","TX","Sheppard Afb","Wichita","48","485","33.97","-98.51","A","GD"
"76351","TX","Archer City","Archer","48","9","33.57","-98.66","A","POB"
"76352","TX","Bluegrove","Clay","48","77","33.67","-98.23","A","POB"
"76354","TX","Burkburnett","Wichita","48","485","34.09","-98.58","A","GD"
"76357","TX","Byers","Clay","48","77","34.07","-98.2","A","GD"
"76360","TX","Electra","Wichita","48","485","33.98","-98.93","A","GD"
"76363","TX","Goree","Knox","48","275","33.48","-99.53","A","GD"
"76364","TX","Harrold","Wilbarger","48","487","34.09","-99.02","A","GD"
"76365","TX","Henrietta","Clay","48","77","33.75","-98.22","A","GD"
"76366","TX","Holliday","Archer","48","9","33.75","-98.74","A","GD"
"76367","TX","Iowa Park","Wichita","48","485","33.96","-98.7","A","GD"
"76369","TX","Kamay","Wichita","48","485","33.86","-98.8","A","POB"
"76370","TX","Megargel","Archer","48","9","33.5","-98.88","A","POB"
"76371","TX","Munday","Knox","48","275","33.46","-99.64","A","GD"
"76372","TX","Newcastle","Young","48","503","33.23","-98.85","A","GD"
"76373","TX","Oklaunion","Wilbarger","48","487","34.13","-99.13","A","GD"
"76374","TX","Olney","Young","48","503","33.37","-98.72","A","GD"
"76377","TX","Petrolia","Clay","48","77","34.01","-98.23","A","GD"
"76379","TX","Scotland","Archer","48","9","33.66","-98.47","A","GD"
"76380","TX","Seymour","Baylor","48","23","33.6","-99.29","A","GD"
"76384","TX","Vernon","Wilbarger","48","487","34.16","-99.3","A","GD"
"76385","TX","Vernon","Wilbarger","48","487","34.15","-99.26","A","POB"
"76388","TX","Weinert","Haskell","48","207","33.32","-99.64","A","GD"
"76389","TX","Windthorst","Archer","48","9","33.51","-98.46","A","GD"
"76401","TX","Stephenville","Erath","48","143","32.25","-98.19","A","GD"
"76402","TX","Stephenville","Erath","48","143","32.22","-98.22","A","PVT"
"76424","TX","Breckenridge","Stephens","48","429","32.78","-98.91","A","GD"
"76426","TX","Bridgeport","Wise","48","497","33.19","-97.82","A","GD"
"76427","TX","Bryson","Jack","48","237","33.17","-98.39","A","GD"
"76429","TX","Caddo","Stephens","48","429","32.74","-98.67","A","GD"
"76430","TX","Albany","Shackelford","48","417","32.77","-99.28","A","GD"
"76431","TX","Chico","Wise","48","497","33.3","-97.84","A","GD"
"76432","TX","Blanket","Brown","48","49","31.82","-98.8","A","GD"
"76433","TX","Bluff Dale","Erath","48","143","32.32","-98.01","A","GD"
"76435","TX","Carbon","Eastland","48","133","32.27","-98.85","A","GD"
"76436","TX","Carlton","Hamilton","48","193","31.89","-98.21","A","GD"
"76437","TX","Cisco","Eastland","48","133","32.39","-99","A","GD"
"76439","TX","Dennis","Parker","48","367","32.62","-97.93","A","POB"
"76442","TX","Comanche","Comanche","48","93","31.91","-98.6","A","GD"
"76443","TX","Cross Plains","Callahan","48","59","32.12","-99.18","A","GD"
"76444","TX","De Leon","Comanche","48","93","32.12","-98.54","A","GD"
"76445","TX","Desdemona","Eastland","48","133","32.28","-98.55","A","GD"
"76446","TX","Dublin","Erath","48","143","32.08","-98.35","A","GD"
"76448","TX","Eastland","Eastland","48","133","32.39","-98.8","A","GD"
"76449","TX","Graford","Palo Pinto","48","363","32.92","-98.35","A","GD"
"76450","TX","Graham","Young","48","503","33.07","-98.61","A","GD"
"76452","TX","Energy","Comanche","48","93","31.75","-98.36","A","POB"
"76453","TX","Gordon","Palo Pinto","48","363","32.58","-98.35","A","GD"
"76454","TX","Gorman","Eastland","48","133","32.21","-98.7","A","GD"
"76455","TX","Gustine","Comanche","48","93","31.83","-98.39","A","GD"
"76457","TX","Hico","Hamilton","48","193","31.98","-98.03","A","GD"
"76458","TX","Jacksboro","Jack","48","237","33.21","-98.18","A","GD"
"76459","TX","Jermyn","Jack","48","237","33.28","-98.39","A","GD"
"76460","TX","Loving","Young","48","503","33.33","-98.48","A","GD"
"76461","TX","Lingleville","Erath","48","143","32.24","-98.38","A","POB"
"76462","TX","Lipan","Hood","48","221","32.52","-98.03","A","GD"
"76463","TX","Mingus","Palo Pinto","48","363","32.49","-98.42","A","GD"
"76464","TX","Moran","Shackelford","48","417","32.55","-99.16","A","GD"
"76465","TX","Morgan Mill","Erath","48","143","32.39","-98.17","A","POB"
"76466","TX","Olden","Eastland","48","133","32.42","-98.74","A","POB"
"76467","TX","Paluxy","Hood","48","221","32.27","-97.91","A","POB"
"76468","TX","Proctor","Comanche","48","93","31.99","-98.43","A","POB"
"76469","TX","Putnam","Callahan","48","59","32.36","-99.2","A","POB"
"76470","TX","Ranger","Eastland","48","133","32.49","-98.68","A","GD"
"76471","TX","Rising Star","Eastland","48","133","32.1","-98.98","A","GD"
"76472","TX","Santo","Palo Pinto","48","363","32.6","-98.15","A","GD"
"76474","TX","Sidney","Comanche","48","93","31.97","-98.79","A","GD"
"76475","TX","Strawn","Palo Pinto","48","363","32.64","-98.49","A","GD"
"76476","TX","Tolar","Hood","48","221","32.38","-97.93","A","GD"
"76481","TX","South Bend","Young","48","503","32.98","-98.73","A","GD"
"76483","TX","Throckmorton","Throckmorton","48","447","33.15","-99.24","A","GD"
"76484","TX","Palo Pinto","Palo Pinto","48","363","32.74","-98.3","A","GD"
"76485","TX","Peaster","Parker","48","367","32.87","-97.87","A","POB"
"76486","TX","Perrin","Jack","48","237","33.03","-98.06","A","GD"
"76487","TX","Poolville","Parker","48","367","32.99","-97.87","A","GD"
"76490","TX","Whitt","Parker","48","367","32.96","-98.02","A","GD"
"76491","TX","Woodson","Throckmorton","48","447","33.03","-99.04","A","GD"
"76501","TX","Temple","Bell","48","27","31.1","-97.31","A","GD"
"76502","TX","Temple","Bell","48","27","31.1","-97.41","A","GD"
"76503","TX","Temple","Bell","48","27","31.15","-97.44","A","POB"
"76504","TX","Temple","Bell","48","27","31.1","-97.36","A","GD"
"76505","TX","Temple","Bell","48","27","31.02","-97.33","A","POB"
"76508","TX","Temple","Bell","48","27","31.08","-97.36","A","PVT"
"76511","TX","Bartlett","Bell","48","27","30.8","-97.42","A","GD"
"76513","TX","Belton","Bell","48","27","31.07","-97.49","A","GD"
"76518","TX","Buckholts","Milam","48","331","30.85","-97.14","A","GD"
"76519","TX","Burlington","Milam","48","331","31.01","-97.04","A","GD"
"76520","TX","Cameron","Milam","48","331","30.86","-96.96","A","GD"
"76522","TX","Copperas Cove","Coryell","48","99","31.14","-97.92","A","GD"
"76523","TX","Davilla","Milam","48","331","30.79","-97.29","A","POB"
"76524","TX","Eddy","Mclennan","48","309","31.28","-97.23","A","GD"
"76525","TX","Evant","Coryell","48","99","31.49","-98.15","A","GD"
"76526","TX","Flat","Coryell","48","99","31.31","-97.57","A","POB"
"76527","TX","Florence","Williamson","48","491","30.85","-97.81","A","GD"
"76528","TX","Gatesville","Coryell","48","99","31.4","-97.72","A","GD"
"76530","TX","Granger","Williamson","48","491","30.71","-97.42","A","GD"
"76531","TX","Hamilton","Hamilton","48","193","31.7","-98.15","A","GD"
"76533","TX","Heidenheimer","Bell","48","27","31.08","-97.33","A","POB"
"76534","TX","Holland","Bell","48","27","30.88","-97.38","A","GD"
"76537","TX","Jarrell","Williamson","48","491","30.82","-97.61","A","GD"
"76538","TX","Jonesboro","Coryell","48","99","31.62","-97.89","A","GD"
"76539","TX","Kempner","Lampasas","48","281","31.07","-97.97","A","GD"
"76540","TX","Killeen","Bell","48","27","31.12","-97.72","A","POB"
"76541","TX","Killeen","Bell","48","27","31.12","-97.73","A","GD"
"76542","TX","Killeen","Bell","48","27","31.05","-97.72","A","GD"
"76543","TX","Killeen","Bell","48","27","31.12","-97.69","A","GD"
"76544","TX","Fort Hood","Bell","48","27","31.15","-97.78","A","GD"
"76547","TX","Killeen","Bell","48","27","31.12","-97.73","A","POB"
"76548","TX","Harker Heights","Bell","48","27","31.06","-97.65","A","GD"
"76549","TX","Killeen","Bell","48","27","31.08","-97.79","A","GD"
"76550","TX","Lampasas","Lampasas","48","281","31.06","-98.2","A","GD"
"76554","TX","Little River Academy","Bell","48","27","30.98","-97.36","A","GD"
"76556","TX","Milano","Milam","48","331","30.7","-96.84","A","GD"
"76557","TX","Moody","Mclennan","48","309","31.29","-97.4","A","GD"
"76558","TX","Mound","Coryell","48","99","31.31","-97.57","A","POB"
"76559","TX","Nolanville","Bell","48","27","31.08","-97.61","A","GD"
"76561","TX","Oglesby","Coryell","48","99","31.42","-97.52","A","GD"
"76564","TX","Pendleton","Bell","48","27","31.16","-97.26","A","POB"
"76565","TX","Pottsville","Hamilton","48","193","31.66","-98.36","A","GD"
"76566","TX","Purmela","Coryell","48","99","31.52","-97.99","A","GD"
"76567","TX","Rockdale","Milam","48","331","30.65","-97.01","A","GD"
"76569","TX","Rogers","Bell","48","27","30.94","-97.23","A","GD"
"76570","TX","Rosebud","Falls","48","145","31.08","-96.96","A","GD"
"76571","TX","Salado","Bell","48","27","30.95","-97.57","A","GD"
"76573","TX","Schwertner","Williamson","48","491","30.82","-97.51","A","POB"
"76574","TX","Taylor","Williamson","48","491","30.58","-97.41","A","GD"
"76577","TX","Thorndale","Milam","48","331","30.6","-97.15","A","GD"
"76578","TX","Thrall","Williamson","48","491","30.55","-97.25","A","GD"
"76579","TX","Troy","Bell","48","27","31.2","-97.29","A","GD"
"76596","TX","Gatesville","Coryell","48","99","31.48","-97.73","A","PVT"
"76597","TX","Gatesville","Coryell","48","99","31.49","-97.7","A","PVT"
"76598","TX","Gatesville","Coryell","48","99","31.47","-97.74","A","PVT"
"76599","TX","Gatesville","Coryell","48","99","31.47","-97.74","A","PVT"
"76621","TX","Abbott","Hill","48","217","31.88","-97.08","A","GD"
"76622","TX","Aquilla","Hill","48","217","31.82","-97.24","A","GD"
"76623","TX","Avalon","Ellis","48","139","32.21","-96.79","A","POB"
"76624","TX","Axtell","Mclennan","48","309","31.65","-96.96","A","GD"
"76626","TX","Blooming Grove","Navarro","48","349","32.1","-96.71","A","GD"
"76627","TX","Blum","Hill","48","217","32.13","-97.39","A","GD"
"76628","TX","Brandon","Hill","48","217","32.03","-96.95","A","POB"
"76629","TX","Bremond","Robertson","48","395","31.15","-96.69","A","GD"
"76630","TX","Bruceville","Mclennan","48","309","31.34","-97.23","A","GD"
"76631","TX","Bynum","Hill","48","217","31.98","-96.98","A","GD"
"76632","TX","Chilton","Falls","48","145","31.3","-97.05","A","GD"
"76633","TX","China Spring","Mclennan","48","309","31.67","-97.3","A","GD"
"76634","TX","Clifton","Bosque","48","35","31.81","-97.55","A","GD"
"76635","TX","Coolidge","Limestone","48","293","31.74","-96.65","A","GD"
"76636","TX","Covington","Hill","48","217","32.17","-97.28","A","GD"
"76637","TX","Cranfills Gap","Bosque","48","35","31.78","-97.8","A","GD"
"76638","TX","Crawford","Mclennan","48","309","31.56","-97.41","A","GD"
"76639","TX","Dawson","Navarro","48","349","31.9","-96.7","A","GD"
"76640","TX","Elm Mott","Mclennan","48","309","31.68","-97.09","A","GD"
"76641","TX","Frost","Navarro","48","349","32.03","-96.78","A","GD"
"76642","TX","Groesbeck","Limestone","48","293","31.51","-96.51","A","GD"
"76643","TX","Hewitt","Mclennan","48","309","31.45","-97.2","A","GD"
"76644","TX","Laguna Park","Bosque","48","35","31.86","-97.38","A","POB"
"76645","TX","Hillsboro","Hill","48","217","32.02","-97.12","A","GD"
"76648","TX","Hubbard","Hill","48","217","31.86","-96.8","A","GD"
"76649","TX","Iredell","Bosque","48","35","32.03","-97.87","A","GD"
"76650","TX","Irene","Hill","48","217","31.99","-96.86","A","POB"
"76651","TX","Italy","Ellis","48","139","32.18","-96.88","A","GD"
"76652","TX","Kopperl","Bosque","48","35","32.11","-97.55","A","GD"
"76653","TX","Kosse","Limestone","48","293","31.3","-96.61","A","GD"
"76654","TX","Leroy","Mclennan","48","309","31.73","-97.02","A","POB"
"76655","TX","Lorena","Mclennan","48","309","31.39","-97.17","A","GD"
"76656","TX","Lott","Falls","48","145","31.19","-97.04","A","GD"
"76657","TX","Mc Gregor","Mclennan","48","309","31.44","-97.39","A","GD"
"76660","TX","Malone","Hill","48","217","31.92","-96.91","A","GD"
"76661","TX","Marlin","Falls","48","145","31.31","-96.88","A","GD"
"76664","TX","Mart","Mclennan","48","309","31.55","-96.83","A","GD"
"76665","TX","Meridian","Bosque","48","35","31.93","-97.7","A","GD"
"76666","TX","Mertens","Hill","48","217","32.06","-96.91","A","GD"
"76667","TX","Mexia","Limestone","48","293","31.67","-96.49","A","GD"
"76670","TX","Milford","Ellis","48","139","32.13","-96.97","A","GD"
"76671","TX","Morgan","Bosque","48","35","31.99","-97.53","A","GD"
"76673","TX","Mount Calm","Hill","48","217","31.75","-96.9","A","GD"
"76676","TX","Penelope","Hill","48","217","31.86","-96.94","A","GD"
"76678","TX","Prairie Hill","Limestone","48","293","31.65","-96.78","A","GD"
"76679","TX","Purdon","Navarro","48","349","31.95","-96.63","A","GD"
"76680","TX","Reagan","Falls","48","145","31.19","-96.82","A","GD"
"76681","TX","Richland","Navarro","48","349","31.9","-96.43","A","GD"
"76682","TX","Riesel","Mclennan","48","309","31.46","-96.92","A","GD"
"76684","TX","Ross","Mclennan","48","309","31.67","-97.1","A","POB"
"76685","TX","Satin","Falls","48","145","31.35","-97.03","A","POB"
"76686","TX","Tehuacana","Limestone","48","293","31.75","-96.55","A","POB"
"76687","TX","Thornton","Limestone","48","293","31.39","-96.51","A","GD"
"76689","TX","Valley Mills","Bosque","48","35","31.66","-97.51","A","GD"
"76690","TX","Walnut Springs","Bosque","48","35","32.07","-97.74","A","GD"
"76691","TX","West","Mclennan","48","309","31.79","-97.1","A","GD"
"76692","TX","Whitney","Hill","48","217","31.97","-97.34","A","GD"
"76693","TX","Wortham","Freestone","48","161","31.79","-96.45","A","GD"
"76701","TX","Waco","Mclennan","48","309","31.55","-97.14","A","GD"
"76702","TX","Waco","Mclennan","48","309","31.55","-97.14","A","POB"
"76703","TX","Waco","Mclennan","48","309","31.56","-97.13","A","POB"
"76704","TX","Waco","Mclennan","48","309","31.57","-97.12","A","GD"
"76705","TX","Waco","Mclennan","48","309","31.61","-97.09","A","GD"
"76706","TX","Waco","Mclennan","48","309","31.51","-97.12","A","GD"
"76707","TX","Waco","Mclennan","48","309","31.55","-97.16","A","GD"
"76708","TX","Waco","Mclennan","48","309","31.59","-97.19","A","GD"
"76710","TX","Waco","Mclennan","48","309","31.53","-97.19","A","GD"
"76711","TX","Waco","Mclennan","48","309","31.52","-97.15","A","GD"
"76712","TX","Woodway","Mclennan","48","309","31.51","-97.23","A","GD"
"76714","TX","Waco","Mclennan","48","309","31.53","-97.19","A","POB"
"76715","TX","Waco","Mclennan","48","309","31.6","-97.08","A","POB"
"76716","TX","Waco","Mclennan","48","309","31.46","-97.1","A","POB"
"76797","TX","Waco","Mclennan","48","309","31.53","-97.19","A","PVT"
"76798","TX","Waco","Mclennan","48","309","31.55","-97.12","A","GD"
"76799","TX","Waco","Mclennan","48","309","31.53","-97.19","A","PVT"
"76801","TX","Brownwood","Brown","48","49","31.73","-99","A","GD"
"76802","TX","Early","Brown","48","49","31.75","-98.92","A","GD"
"76803","TX","Early","Brown","48","49","31.72","-98.98","A","POB"
"76804","TX","Brownwood","Brown","48","49","31.61","-99.02","A","POB"
"76820","TX","Art","Mason","48","319","30.76","-99.05","A","GD"
"76821","TX","Ballinger","Runnels","48","399","31.74","-99.94","A","GD"
"76823","TX","Bangs","Brown","48","49","31.71","-99.16","A","GD"
"76824","TX","Bend","San Saba","48","411","31.04","-98.47","A","POB"
"76825","TX","Brady","Mcculloch","48","307","31.11","-99.35","A","GD"
"76827","TX","Brookesmith","Brown","48","49","31.54","-99.13","A","GD"
"76828","TX","Burkett","Coleman","48","83","32.01","-99.27","A","GD"
"76831","TX","Castell","Llano","48","299","30.63","-98.94","A","GD"
"76832","TX","Cherokee","San Saba","48","411","30.97","-98.68","A","GD"
"76834","TX","Coleman","Coleman","48","83","31.85","-99.45","A","GD"
"76836","TX","Doole","Mcculloch","48","307","31.44","-99.55","A","GD"
"76837","TX","Eden","Concho","48","95","31.22","-99.9","A","GD"
"76841","TX","Fort Mc Kavett","Menard","48","327","30.97","-100.11","A","GD"
"76842","TX","Fredonia","Mason","48","319","30.95","-99.09","A","GD"
"76844","TX","Goldthwaite","Mills","48","333","31.45","-98.5","A","GD"
"76845","TX","Gouldbusk","Coleman","48","83","31.55","-99.48","A","GD"
"76848","TX","Hext","Menard","48","327","30.82","-99.55","A","GD"
"76849","TX","Junction","Kimble","48","267","30.51","-99.79","A","GD"
"76852","TX","Lohn","Mcculloch","48","307","31.39","-99.44","A","GD"
"76853","TX","Lometa","Lampasas","48","281","31.23","-98.4","A","GD"
"76854","TX","London","Kimble","48","267","30.67","-99.56","A","GD"
"76855","TX","Lowake","Concho","48","95","31.45","-100.06","A","POB"
"76856","TX","Mason","Mason","48","319","30.73","-99.24","A","GD"
"76857","TX","May","Brown","48","49","31.92","-98.95","A","GD"
"76858","TX","Melvin","Mcculloch","48","307","31.19","-99.58","A","GD"
"76859","TX","Menard","Menard","48","327","30.95","-99.8","A","GD"
"76861","TX","Miles","Runnels","48","399","31.59","-100.19","A","GD"
"76862","TX","Millersview","Concho","48","95","31.42","-99.73","A","GD"
"76864","TX","Mullin","Mills","48","333","31.55","-98.73","A","GD"
"76865","TX","Norton","Runnels","48","399","31.86","-100.17","A","GD"
"76866","TX","Paint Rock","Concho","48","95","31.47","-99.92","A","GD"
"76869","TX","Pontotoc","Mason","48","319","30.92","-99","A","GD"
"76870","TX","Priddy","Mills","48","333","31.66","-98.53","A","GD"
"76871","TX","Richland Springs","San Saba","48","411","31.28","-98.97","A","GD"
"76872","TX","Rochelle","Mcculloch","48","307","31.3","-99.18","A","GD"
"76873","TX","Rockwood","Coleman","48","83","31.51","-99.38","A","GD"
"76874","TX","Roosevelt","Kimble","48","267","30.47","-100.09","A","GD"
"76875","TX","Rowena","Runnels","48","399","31.61","-100.02","A","GD"
"76877","TX","San Saba","San Saba","48","411","31.19","-98.74","A","GD"
"76878","TX","Santa Anna","Coleman","48","83","31.71","-99.3","A","GD"
"76880","TX","Star","Mills","48","333","31.48","-98.42","A","POB"
"76882","TX","Talpa","Coleman","48","83","31.82","-99.7","A","GD"
"76883","TX","Telegraph","Edwards","48","137","30.34","-99.98","A","GD"
"76884","TX","Valera","Coleman","48","83","31.74","-99.55","A","GD"
"76885","TX","Valley Spring","Llano","48","299","30.89","-98.86","A","GD"
"76886","TX","Veribest","Tom Green","48","451","31.48","-100.26","A","POB"
"76887","TX","Voca","Mcculloch","48","307","31","-99.16","A","GD"
"76888","TX","Voss","Coleman","48","83","31.61","-99.65","A","GD"
"76890","TX","Zephyr","Brown","48","49","31.69","-98.77","A","GD"
"76901","TX","San Angelo","Tom Green","48","451","31.5","-100.5","A","GD"
"76902","TX","San Angelo","Tom Green","48","451","31.45","-100.42","A","POB"
"76903","TX","San Angelo","Tom Green","48","451","31.47","-100.44","A","GD"
"76904","TX","San Angelo","Tom Green","48","451","31.35","-100.44","A","GD"
"76905","TX","San Angelo","Tom Green","48","451","31.51","-100.36","A","GD"
"76906","TX","San Angelo","Tom Green","48","451","31.46","-100.44","A","POB"
"76908","TX","Goodfellow Afb","Tom Green","48","451","31.43","-100.41","A","GD"
"76909","TX","San Angelo","Tom Green","48","451","31.45","-100.45","A","PVT"
"76930","TX","Barnhart","Irion","48","235","31.28","-101.18","A","POB"
"76932","TX","Big Lake","Reagan","48","383","31.32","-101.52","A","GD"
"76933","TX","Bronte","Coke","48","81","31.87","-100.29","A","GD"
"76934","TX","Carlsbad","Tom Green","48","451","31.6","-100.65","A","GD"
"76935","TX","Christoval","Tom Green","48","451","31.15","-100.46","A","GD"
"76936","TX","Eldorado","Schleicher","48","413","30.86","-100.52","A","GD"
"76937","TX","Eola","Concho","48","95","31.38","-100.15","A","GD"
"76939","TX","Knickerbocker","Tom Green","48","451","31.27","-100.56","A","POB"
"76940","TX","Mereta","Tom Green","48","451","31.45","-100.14","A","GD"
"76941","TX","Mertzon","Irion","48","235","31.28","-100.86","A","GD"
"76943","TX","Ozona","Crockett","48","105","30.58","-101.27","A","GD"
"76945","TX","Robert Lee","Coke","48","81","31.9","-100.59","A","GD"
"76949","TX","Silver","Coke","48","81","32.05","-100.69","A","GD"
"76950","TX","Sonora","Sutton","48","435","30.46","-100.59","A","GD"
"76951","TX","Sterling City","Sterling","48","431","31.82","-101.04","A","GD"
"76953","TX","Tennyson","Coke","48","81","31.72","-100.33","A","POB"
"76955","TX","Vancourt","Tom Green","48","451","31.29","-100.15","A","GD"
"76957","TX","Wall","Tom Green","48","451","31.37","-100.31","A","GD"
"76958","TX","Water Valley","Tom Green","48","451","31.62","-100.77","A","POB"
"77001","TX","Houston","Harris","48","201","29.72","-95.22","A","POB"
"77002","TX","Houston","Harris","48","201","29.76","-95.37","A","GD"
"77003","TX","Houston","Harris","48","201","29.75","-95.35","A","GD"
"77004","TX","Houston","Harris","48","201","29.73","-95.36","A","GD"
"77005","TX","Houston","Harris","48","201","29.72","-95.43","A","GD"
"77006","TX","Houston","Harris","48","201","29.74","-95.39","A","GD"
"77007","TX","Houston","Harris","48","201","29.77","-95.4","A","GD"
"77008","TX","Houston","Harris","48","201","29.8","-95.41","A","GD"
"77009","TX","Houston","Harris","48","201","29.8","-95.37","A","GD"
"77010","TX","Houston","Harris","48","201","29.75","-95.36","A","GD"
"77011","TX","Houston","Harris","48","201","29.74","-95.31","A","GD"
"77012","TX","Houston","Harris","48","201","29.72","-95.28","A","GD"
"77013","TX","Houston","Harris","48","201","29.8","-95.24","A","GD"
"77014","TX","Houston","Harris","48","201","29.98","-95.47","A","GD"
"77015","TX","Houston","Harris","48","201","29.77","-95.18","A","GD"
"77016","TX","Houston","Harris","48","201","29.86","-95.31","A","GD"
"77017","TX","Houston","Harris","48","201","29.69","-95.25","A","GD"
"77018","TX","Houston","Harris","48","201","29.83","-95.42","A","GD"
"77019","TX","Houston","Harris","48","201","29.75","-95.4","A","GD"
"77020","TX","Houston","Harris","48","201","29.77","-95.32","A","GD"
"77021","TX","Houston","Harris","48","201","29.7","-95.36","A","GD"
"77022","TX","Houston","Harris","48","201","29.83","-95.38","A","GD"
"77023","TX","Houston","Harris","48","201","29.72","-95.32","A","GD"
"77024","TX","Houston","Harris","48","201","29.78","-95.52","A","GD"
"77025","TX","Houston","Harris","48","201","29.69","-95.43","A","GD"
"77026","TX","Houston","Harris","48","201","29.8","-95.33","A","GD"
"77027","TX","Houston","Harris","48","201","29.74","-95.45","A","GD"
"77028","TX","Houston","Harris","48","201","29.82","-95.29","A","GD"
"77029","TX","Houston","Harris","48","201","29.76","-95.27","A","GD"
"77030","TX","Houston","Harris","48","201","29.7","-95.4","A","GD"
"77031","TX","Houston","Harris","48","201","29.66","-95.55","A","GD"
"77032","TX","Houston","Harris","48","201","29.95","-95.34","A","GD"
"77033","TX","Houston","Harris","48","201","29.67","-95.34","A","GD"
"77034","TX","Houston","Harris","48","201","29.62","-95.21","A","GD"
"77035","TX","Houston","Harris","48","201","29.65","-95.48","A","GD"
"77036","TX","Houston","Harris","48","201","29.7","-95.53","A","GD"
"77037","TX","Houston","Harris","48","201","29.89","-95.4","A","GD"
"77038","TX","Houston","Harris","48","201","29.92","-95.44","A","GD"
"77039","TX","Houston","Harris","48","201","29.91","-95.34","A","GD"
"77040","TX","Houston","Harris","48","201","29.87","-95.53","A","GD"
"77041","TX","Houston","Harris","48","201","29.86","-95.57","A","GD"
"77042","TX","Houston","Harris","48","201","29.74","-95.56","A","GD"
"77043","TX","Houston","Harris","48","201","29.8","-95.56","A","GD"
"77044","TX","Houston","Harris","48","201","29.88","-95.17","A","GD"
"77045","TX","Houston","Harris","48","201","29.63","-95.44","A","GD"
"77046","TX","Houston","Harris","48","201","29.73","-95.43","A","GD"
"77047","TX","Houston","Harris","48","201","29.61","-95.39","A","GD"
"77048","TX","Houston","Harris","48","201","29.63","-95.33","A","GD"
"77049","TX","Houston","Harris","48","201","29.84","-95.15","A","GD"
"77050","TX","Houston","Harris","48","201","29.9","-95.28","A","GD"
"77051","TX","Houston","Harris","48","201","29.66","-95.37","A","GD"
"77052","TX","Houston","Harris","48","201","29.76","-95.36","A","POB"
"77053","TX","Houston","Fort Bend","48","157","29.6","-95.46","A","GD"
"77054","TX","Houston","Harris","48","201","29.68","-95.4","A","GD"
"77055","TX","Houston","Harris","48","201","29.8","-95.5","A","GD"
"77056","TX","Houston","Harris","48","201","29.74","-95.47","A","GD"
"77057","TX","Houston","Harris","48","201","29.74","-95.49","A","GD"
"77058","TX","Houston","Harris","48","201","29.55","-95.1","A","GD"
"77059","TX","Houston","Harris","48","201","29.6","-95.12","A","GD"
"77060","TX","Houston","Harris","48","201","29.94","-95.4","A","GD"
"77061","TX","Houston","Harris","48","201","29.66","-95.28","A","GD"
"77062","TX","Houston","Harris","48","201","29.57","-95.13","A","GD"
"77063","TX","Houston","Harris","48","201","29.74","-95.52","A","GD"
"77064","TX","Houston","Harris","48","201","29.93","-95.55","A","GD"
"77065","TX","Houston","Harris","48","201","29.92","-95.61","A","GD"
"77066","TX","Houston","Harris","48","201","29.96","-95.5","A","GD"
"77067","TX","Houston","Harris","48","201","29.95","-95.45","A","GD"
"77068","TX","Houston","Harris","48","201","30.01","-95.48","A","GD"
"77069","TX","Houston","Harris","48","201","29.99","-95.52","A","GD"
"77070","TX","Houston","Harris","48","201","29.97","-95.57","A","GD"
"77071","TX","Houston","Harris","48","201","29.65","-95.52","A","GD"
"77072","TX","Houston","Harris","48","201","29.7","-95.59","A","GD"
"77073","TX","Houston","Harris","48","201","30","-95.41","A","GD"
"77074","TX","Houston","Harris","48","201","29.69","-95.52","A","GD"
"77075","TX","Houston","Harris","48","201","29.62","-95.26","A","GD"
"77076","TX","Houston","Harris","48","201","29.86","-95.38","A","GD"
"77077","TX","Houston","Harris","48","201","29.75","-95.61","A","GD"
"77078","TX","Houston","Harris","48","201","29.85","-95.25","A","GD"
"77079","TX","Houston","Harris","48","201","29.78","-95.61","A","GD"
"77080","TX","Houston","Harris","48","201","29.82","-95.53","A","GD"
"77081","TX","Houston","Harris","48","201","29.71","-95.48","A","GD"
"77082","TX","Houston","Harris","48","201","29.72","-95.63","A","GD"
"77083","TX","Houston","Harris","48","201","29.69","-95.65","A","GD"
"77084","TX","Houston","Harris","48","201","29.84","-95.66","A","GD"
"77085","TX","Houston","Harris","48","201","29.63","-95.49","A","GD"
"77086","TX","Houston","Harris","48","201","29.92","-95.5","A","GD"
"77087","TX","Houston","Harris","48","201","29.69","-95.3","A","GD"
"77088","TX","Houston","Harris","48","201","29.88","-95.45","A","GD"
"77089","TX","Houston","Harris","48","201","29.59","-95.22","A","GD"
"77090","TX","Houston","Harris","48","201","30","-95.44","A","GD"
"77091","TX","Houston","Harris","48","201","29.85","-95.44","A","GD"
"77092","TX","Houston","Harris","48","201","29.83","-95.47","A","GD"
"77093","TX","Houston","Harris","48","201","29.86","-95.34","A","GD"
"77094","TX","Houston","Harris","48","201","29.78","-95.7","A","GD"
"77095","TX","Houston","Harris","48","201","29.91","-95.65","A","GD"
"77096","TX","Houston","Harris","48","201","29.68","-95.48","A","GD"
"77098","TX","Houston","Harris","48","201","29.74","-95.41","A","GD"
"77099","TX","Houston","Harris","48","201","29.67","-95.58","A","GD"
"77201","TX","Houston","Harris","48","201","29.77","-95.36","A","GD"
"77202","TX","Houston","Harris","48","201","29.99","-95.5","A","POB"
"77203","TX","Houston","Harris","48","201","29.76","-95.37","A","POB"
"77204","TX","Houston","Harris","48","201","29.77","-95.39","A","PVT"
"77205","TX","Houston","Harris","48","201","29.96","-95.34","A","POB"
"77206","TX","Houston","Harris","48","201","29.83","-95.43","A","POB"
"77207","TX","Houston","Harris","48","201","29.69","-95.3","A","POB"
"77208","TX","Houston","Harris","48","201","29.76","-95.37","A","POB"
"77209","TX","Houston","Harris","48","201","29.77","-95.37","A","PVT"
"77210","TX","Houston","Harris","48","201","29.76","-95.37","A","POB"
"77212","TX","Houston","Harris","48","201","29.77","-95.36","A","PVT"
"77213","TX","Houston","Harris","48","201","29.8","-95.24","A","POB"
"77215","TX","Houston","Harris","48","201","29.74","-95.52","A","POB"
"77216","TX","Houston","Harris","48","201","29.62","-95.21","A","PVT"
"77217","TX","Houston","Harris","48","201","29.7","-95.26","A","POB"
"77218","TX","Houston","Harris","48","201","29.83","-95.65","A","POB"
"77219","TX","Houston","Harris","48","201","29.75","-95.41","A","POB"
"77220","TX","Houston","Harris","48","201","29.77","-95.31","A","POB"
"77221","TX","Houston","Harris","48","201","29.7","-95.36","A","POB"
"77222","TX","Houston","Harris","48","201","29.83","-95.37","A","POB"
"77223","TX","Houston","Harris","48","201","29.73","-95.32","A","POB"
"77224","TX","Houston","Harris","48","201","29.77","-95.52","A","POB"
"77225","TX","Houston","Harris","48","201","29.69","-95.42","A","POB"
"77226","TX","Houston","Harris","48","201","29.8","-95.33","A","POB"
"77227","TX","Houston","Harris","48","201","29.74","-95.45","A","POB"
"77228","TX","Houston","Harris","48","201","29.87","-95.26","A","POB"
"77229","TX","Houston","Harris","48","201","29.76","-95.27","A","POB"
"77230","TX","Houston","Harris","48","201","29.7","-95.39","A","POB"
"77231","TX","Houston","Harris","48","201","29.65","-95.48","A","POB"
"77233","TX","Houston","Harris","48","201","29.65","-95.36","A","POB"
"77234","TX","Houston","Harris","48","201","29.62","-95.19","A","POB"
"77235","TX","Houston","Harris","48","201","29.65","-95.48","A","POB"
"77236","TX","Houston","Harris","48","201","29.71","-95.5","A","POB"
"77237","TX","Houston","Harris","48","201","29.73","-95.5","A","POB"
"77238","TX","Houston","Harris","48","201","29.92","-95.44","A","POB"
"77240","TX","Houston","Harris","48","201","29.87","-95.53","A","POB"
"77241","TX","Houston","Harris","48","201","29.86","-95.54","A","POB"
"77242","TX","Houston","Harris","48","201","29.73","-95.56","A","POB"
"77243","TX","Houston","Harris","48","201","29.8","-95.49","A","POB"
"77244","TX","Houston","Harris","48","201","29.78","-95.6","A","POB"
"77245","TX","Houston","Harris","48","201","29.61","-95.23","A","POB"
"77248","TX","Houston","Harris","48","201","29.8","-95.42","A","POB"
"77249","TX","Houston","Harris","48","201","29.8","-95.37","A","POB"
"77251","TX","Houston","Harris","48","201","29.7","-95.54","A","POB"
"77252","TX","Houston","Harris","48","201","29.76","-95.37","A","POB"
"77253","TX","Houston","Harris","48","201","29.76","-95.37","A","POB"
"77254","TX","Houston","Harris","48","201","29.73","-95.41","A","POB"
"77255","TX","Houston","Harris","48","201","29.8","-95.49","A","POB"
"77256","TX","Houston","Harris","48","201","29.74","-95.44","A","POB"
"77257","TX","Houston","Harris","48","201","29.75","-95.49","A","POB"
"77258","TX","Houston","Harris","48","201","29.57","-95.08","A","POB"
"77259","TX","Houston","Harris","48","201","29.58","-95.14","A","POB"
"77261","TX","Houston","Harris","48","201","29.67","-95.25","A","POB"
"77262","TX","Houston","Harris","48","201","29.72","-95.28","A","POB"
"77263","TX","Houston","Harris","48","201","29.73","-95.52","A","POB"
"77265","TX","Houston","Harris","48","201","29.72","-95.43","A","POB"
"77266","TX","Houston","Harris","48","201","29.75","-95.39","A","POB"
"77267","TX","Houston","Harris","48","201","29.95","-95.44","A","POB"
"77268","TX","Houston","Harris","48","201","30.01","-95.49","A","POB"
"77269","TX","Houston","Harris","48","201","29.98","-95.57","A","POB"
"77270","TX","Houston","Harris","48","201","29.8","-95.42","A","POB"
"77271","TX","Houston","Harris","48","201","29.66","-95.53","A","POB"
"77272","TX","Houston","Harris","48","201","29.7","-95.59","A","POB"
"77273","TX","Houston","Harris","48","201","30","-95.4","A","POB"
"77274","TX","Houston","Harris","48","201","29.69","-95.52","A","POB"
"77275","TX","Houston","Harris","48","201","29.63","-95.29","A","POB"
"77277","TX","Houston","Harris","48","201","29.72","-95.43","A","POB"
"77279","TX","Houston","Harris","48","201","29.77","-95.51","A","POB"
"77280","TX","Houston","Harris","48","201","29.86","-95.58","A","POB"
"77282","TX","Houston","Harris","48","201","29.75","-95.61","A","POB"
"77284","TX","Houston","Harris","48","201","29.84","-95.64","A","POB"
"77287","TX","Houston","Harris","48","201","29.68","-95.25","A","POB"
"77288","TX","Houston","Harris","48","201","29.73","-95.36","A","POB"
"77289","TX","Houston","Harris","48","201","29.58","-95.14","A","POB"
"77290","TX","Houston","Harris","48","201","29.99","-95.48","A","POB"
"77291","TX","Houston","Harris","48","201","29.87","-95.41","A","POB"
"77292","TX","Houston","Harris","48","201","29.83","-95.43","A","POB"
"77293","TX","Houston","Harris","48","201","29.86","-95.34","A","POB"
"77297","TX","Houston","Harris","48","201","29.76","-95.36","A","PVT"
"77299","TX","Houston","Harris","48","201","29.77","-95.42","A","PVT"
"77301","TX","Conroe","Montgomery","48","339","30.31","-95.45","A","GD"
"77302","TX","Conroe","Montgomery","48","339","30.24","-95.39","A","GD"
"77303","TX","Conroe","Montgomery","48","339","30.37","-95.4","A","GD"
"77304","TX","Conroe","Montgomery","48","339","30.33","-95.51","A","GD"
"77305","TX","Conroe","Montgomery","48","339","30.32","-95.46","A","POB"
"77306","TX","Conroe","Montgomery","48","339","30.29","-95.33","A","GD"
"77315","TX","North Houston","Harris","48","201","29.93","-95.32","A","GD"
"77316","TX","Montgomery","Montgomery","48","339","30.33","-95.65","A","GD"
"77318","TX","Willis","Montgomery","48","339","30.44","-95.56","A","GD"
"77320","TX","Huntsville","Walker","48","471","30.8","-95.49","A","GD"
"77325","TX","Kingwood","Harris","48","201","30.08","-95.35","A","POB"
"77326","TX","Ace","Polk","48","373","30.51","-94.81","A","POB"
"77327","TX","Cleveland","Liberty","48","291","30.34","-94.99","A","GD"
"77328","TX","Cleveland","Liberty","48","291","30.37","-95.18","A","GD"
"77331","TX","Coldspring","San Jacinto","48","407","30.61","-95.13","A","GD"
"77332","TX","Dallardsville","Polk","48","373","30.63","-94.63","A","POB"
"77333","TX","Dobbin","Montgomery","48","339","30.35","-95.79","A","POB"
"77334","TX","Dodge","Walker","48","471","30.77","-95.37","A","POB"
"77335","TX","Goodrich","Polk","48","373","30.59","-94.92","A","GD"
"77336","TX","Huffman","Harris","48","201","30.05","-95.11","A","GD"
"77337","TX","Hufsmith","Harris","48","201","30.12","-95.59","A","POB"
"77338","TX","Humble","Harris","48","201","30.01","-95.29","A","GD"
"77339","TX","Kingwood","Harris","48","201","30.05","-95.22","A","GD"
"77340","TX","Huntsville","Walker","48","471","30.67","-95.54","A","GD"
"77341","TX","Huntsville","Walker","48","471","30.72","-95.55","A","PVT"
"77342","TX","Huntsville","Walker","48","471","30.74","-95.55","A","POB"
"77343","TX","Huntsville","Walker","48","471","30.72","-95.55","A","PVT"
"77344","TX","Huntsville","Walker","48","471","30.72","-95.55","A","PVT"
"77345","TX","Kingwood","Harris","48","201","30.06","-95.17","A","GD"
"77346","TX","Humble","Harris","48","201","30","-95.17","A","GD"
"77347","TX","Humble","Harris","48","201","29.99","-95.25","A","POB"
"77348","TX","Huntsville","Walker","48","471","30.72","-95.55","A","PVT"
"77349","TX","Huntsville","Walker","48","471","30.72","-95.55","A","PVT"
"77350","TX","Leggett","Polk","48","373","30.85","-94.87","A","POB"
"77351","TX","Livingston","Polk","48","373","30.7","-94.86","A","GD"
"77353","TX","Magnolia","Montgomery","48","339","30.21","-95.76","A","POB"
"77354","TX","Magnolia","Montgomery","48","339","30.19","-95.64","A","GD"
"77355","TX","Magnolia","Montgomery","48","339","30.16","-95.75","A","GD"
"77356","TX","Montgomery","Montgomery","48","339","30.4","-95.65","A","GD"
"77357","TX","New Caney","Montgomery","48","339","30.17","-95.18","A","GD"
"77358","TX","New Waverly","Walker","48","471","30.55","-95.47","A","GD"
"77359","TX","Oakhurst","San Jacinto","48","407","30.75","-95.3","A","GD"
"77360","TX","Onalaska","Polk","48","373","30.82","-95.11","A","GD"
"77362","TX","Pinehurst","Montgomery","48","339","30.16","-95.67","A","GD"
"77363","TX","Plantersville","Grimes","48","185","30.29","-95.86","A","GD"
"77364","TX","Pointblank","San Jacinto","48","407","30.76","-95.2","A","GD"
"77365","TX","Porter","Montgomery","48","339","30.11","-95.26","A","GD"
"77367","TX","Riverside","Walker","48","471","30.85","-95.39","A","POB"
"77368","TX","Romayor","Liberty","48","291","30.44","-94.83","A","POB"
"77369","TX","Rye","Liberty","48","291","30.47","-94.75","A","POB"
"77371","TX","Shepherd","San Jacinto","48","407","30.49","-94.99","A","GD"
"77372","TX","Splendora","Montgomery","48","339","30.23","-95.15","A","GD"
"77373","TX","Spring","Harris","48","201","30.06","-95.39","A","GD"
"77374","TX","Thicket","Hardin","48","199","30.42","-94.62","A","POB"
"77375","TX","Tomball","Harris","48","201","30.09","-95.6","A","GD"
"77376","TX","Votaw","Hardin","48","199","30.45","-94.68","A","POB"
"77377","TX","Tomball","Harris","48","201","30.05","-95.64","A","GD"
"77378","TX","Willis","Montgomery","48","339","30.44","-95.42","A","GD"
"77379","TX","Spring","Harris","48","201","30.03","-95.53","A","GD"
"77380","TX","Spring","Montgomery","48","339","30.14","-95.47","A","GD"
"77381","TX","Spring","Montgomery","48","339","30.18","-95.5","A","GD"
"77382","TX","Spring","Montgomery","48","339","30.2","-95.54","A","GD"
"77383","TX","Spring","Harris","48","201","30.07","-95.43","A","POB"
"77384","TX","Conroe","Montgomery","48","339","30.22","-95.48","A","GD"
"77385","TX","Conroe","Montgomery","48","339","30.19","-95.44","A","GD"
"77386","TX","Spring","Montgomery","48","339","30.12","-95.4","A","GD"
"77387","TX","Spring","Montgomery","48","339","30.08","-95.42","A","POB"
"77388","TX","Spring","Harris","48","201","30.06","-95.46","A","GD"
"77389","TX","Spring","Harris","48","201","30.12","-95.52","A","GD"
"77391","TX","Spring","Harris","48","201","30.02","-95.57","A","POB"
"77393","TX","Spring","Montgomery","48","339","30.18","-95.5","A","POB"
"77396","TX","Humble","Harris","48","201","29.95","-95.27","A","GD"
"77399","TX","Livingston","Polk","48","373","30.53","-94.81","A","PVT"
"77401","TX","Bellaire","Harris","48","201","29.71","-95.46","A","GD"
"77402","TX","Bellaire","Harris","48","201","29.71","-95.47","A","POB"
"77404","TX","Bay City","Matagorda","48","321","28.97","-95.86","A","POB"
"77406","TX","Richmond","Fort Bend","48","157","29.63","-95.77","A","GD"
"77407","TX","Richmond","Fort Bend","48","157","29.68","-95.72","A","GD"
"77410","TX","Cypress","Harris","48","201","29.98","-95.68","A","POB"
"77411","TX","Alief","Harris","48","201","29.73","-95.59","A","POB"
"77412","TX","Altair","Colorado","48","89","29.57","-96.43","A","POB"
"77413","TX","Barker","Harris","48","201","29.77","-95.7","A","POB"
"77414","TX","Bay City","Matagorda","48","321","28.92","-95.91","A","GD"
"77415","TX","Cedar Lane","Matagorda","48","321","28.93","-95.74","A","POB"
"77417","TX","Beasley","Fort Bend","48","157","29.48","-95.96","A","GD"
"77418","TX","Bellville","Austin","48","15","29.97","-96.24","A","GD"
"77419","TX","Blessing","Matagorda","48","321","28.87","-96.23","A","POB"
"77420","TX","Boling","Wharton","48","481","29.25","-95.93","A","GD"
"77422","TX","Brazoria","Brazoria","48","39","29.01","-95.56","A","GD"
"77423","TX","Brookshire","Waller","48","473","29.8","-95.97","A","GD"
"77426","TX","Chappell Hill","Washington","48","477","30.12","-96.26","A","GD"
"77428","TX","Collegeport","Matagorda","48","321","28.67","-96.12","A","POB"
"77429","TX","Cypress","Harris","48","201","29.98","-95.65","A","GD"
"77430","TX","Damon","Brazoria","48","39","29.29","-95.68","A","GD"
"77431","TX","Danciger","Brazoria","48","39","29.17","-95.81","A","POB"
"77432","TX","Danevang","Wharton","48","481","29.06","-96.21","A","POB"
"77433","TX","Cypress","Harris","48","201","29.95","-95.72","A","GD"
"77434","TX","Eagle Lake","Colorado","48","89","29.54","-96.31","A","GD"
"77435","TX","East Bernard","Wharton","48","481","29.52","-96.09","A","GD"
"77436","TX","Egypt","Wharton","48","481","29.4","-96.24","A","POB"
"77437","TX","El Campo","Wharton","48","481","29.19","-96.25","A","GD"
"77440","TX","Elmaton","Matagorda","48","321","28.89","-96.15","A","POB"
"77441","TX","Fulshear","Fort Bend","48","157","29.67","-95.92","A","GD"
"77442","TX","Garwood","Colorado","48","89","29.43","-96.47","A","GD"
"77443","TX","Glen Flora","Wharton","48","481","29.35","-96.19","A","POB"
"77444","TX","Guy","Fort Bend","48","157","29.3","-95.79","A","GD"
"77445","TX","Hempstead","Waller","48","473","30.1","-96.07","A","GD"
"77446","TX","Prairie View","Waller","48","473","30.08","-95.99","A","POB"
"77447","TX","Hockley","Harris","48","201","30.07","-95.81","A","GD"
"77448","TX","Hungerford","Wharton","48","481","29.41","-96.08","A","POB"
"77449","TX","Katy","Harris","48","201","29.83","-95.73","A","GD"
"77450","TX","Katy","Harris","48","201","29.76","-95.74","A","GD"
"77451","TX","Kendleton","Fort Bend","48","157","29.44","-96","A","POB"
"77452","TX","Kenney","Austin","48","15","30.05","-96.32","A","POB"
"77453","TX","Lane City","Wharton","48","481","29.21","-96.02","A","POB"
"77454","TX","Lissie","Wharton","48","481","29.54","-96.23","A","POB"
"77455","TX","Louise","Wharton","48","481","29.12","-96.41","A","GD"
"77456","TX","Markham","Matagorda","48","321","28.96","-96.07","A","POB"
"77457","TX","Matagorda","Matagorda","48","321","28.69","-95.96","A","POB"
"77458","TX","Midfield","Matagorda","48","321","28.94","-96.22","A","POB"
"77459","TX","Missouri City","Fort Bend","48","157","29.55","-95.54","A","GD"
"77460","TX","Nada","Colorado","48","89","29.4","-96.39","A","POB"
"77461","TX","Needville","Fort Bend","48","157","29.39","-95.81","A","GD"
"77463","TX","Old Ocean","Brazoria","48","39","29.08","-95.75","A","POB"
"77464","TX","Orchard","Fort Bend","48","157","29.6","-95.97","A","POB"
"77465","TX","Palacios","Matagorda","48","321","28.74","-96.24","A","GD"
"77466","TX","Pattison","Waller","48","473","29.82","-96","A","POB"
"77467","TX","Pierce","Wharton","48","481","29.21","-96.15","A","POB"
"77468","TX","Pledger","Matagorda","48","321","29.17","-95.91","A","GD"
"77469","TX","Richmond","Fort Bend","48","157","29.53","-95.71","A","GD"
"77470","TX","Rock Island","Colorado","48","89","29.53","-96.57","A","POB"
"77471","TX","Rosenberg","Fort Bend","48","157","29.55","-95.82","A","GD"
"77473","TX","San Felipe","Austin","48","15","29.8","-96.11","A","POB"
"77474","TX","Sealy","Austin","48","15","29.78","-96.16","A","GD"
"77475","TX","Sheridan","Colorado","48","89","29.5","-96.66","A","POB"
"77476","TX","Simonton","Fort Bend","48","157","29.68","-95.98","A","POB"
"77477","TX","Stafford","Fort Bend","48","157","29.62","-95.57","A","GD"
"77478","TX","Sugar Land","Fort Bend","48","157","29.61","-95.61","A","GD"
"77479","TX","Sugar Land","Fort Bend","48","157","29.57","-95.64","A","GD"
"77480","TX","Sweeny","Brazoria","48","39","29.07","-95.73","A","GD"
"77481","TX","Thompsons","Fort Bend","48","157","29.47","-95.56","A","POB"
"77482","TX","Van Vleck","Matagorda","48","321","29.07","-95.88","A","GD"
"77483","TX","Wadsworth","Matagorda","48","321","28.79","-95.85","A","POB"
"77484","TX","Waller","Harris","48","201","30.08","-95.92","A","GD"
"77485","TX","Wallis","Austin","48","15","29.65","-96.05","A","GD"
"77486","TX","West Columbia","Brazoria","48","39","29.15","-95.65","A","GD"
"77487","TX","Sugar Land","Fort Bend","48","157","29.62","-95.63","A","POB"
"77488","TX","Wharton","Wharton","48","481","29.31","-96.09","A","GD"
"77489","TX","Missouri City","Fort Bend","48","157","29.6","-95.52","A","GD"
"77491","TX","Katy","Harris","48","201","29.79","-95.82","A","POB"
"77492","TX","Katy","Harris","48","201","29.74","-95.82","A","POB"
"77493","TX","Katy","Harris","48","201","29.81","-95.82","A","GD"
"77494","TX","Katy","Fort Bend","48","157","29.74","-95.81","A","GD"
"77496","TX","Sugar Land","Fort Bend","48","157","29.61","-95.63","A","POB"
"77497","TX","Stafford","Fort Bend","48","157","29.62","-95.56","A","POB"
"77498","TX","Sugar Land","Fort Bend","48","157","29.64","-95.65","A","GD"
"77501","TX","Pasadena","Harris","48","201","29.68","-95.17","A","POB"
"77502","TX","Pasadena","Harris","48","201","29.68","-95.2","A","GD"
"77503","TX","Pasadena","Harris","48","201","29.7","-95.16","A","GD"
"77504","TX","Pasadena","Harris","48","201","29.65","-95.19","A","GD"
"77505","TX","Pasadena","Harris","48","201","29.65","-95.15","A","GD"
"77506","TX","Pasadena","Harris","48","201","29.71","-95.2","A","GD"
"77507","TX","Pasadena","Harris","48","201","29.62","-95.06","A","GD"
"77508","TX","Pasadena","Harris","48","201","29.67","-95.15","A","POB"
"77510","TX","Santa Fe","Galveston","48","167","29.37","-95.08","A","GD"
"77511","TX","Alvin","Brazoria","48","39","29.41","-95.25","A","GD"
"77512","TX","Alvin","Brazoria","48","39","29.42","-95.25","A","POB"
"77514","TX","Anahuac","Chambers","48","71","29.71","-94.62","A","GD"
"77515","TX","Angleton","Brazoria","48","39","29.16","-95.45","A","GD"
"77516","TX","Angleton","Brazoria","48","39","29.17","-95.43","A","POB"
"77517","TX","Santa Fe","Galveston","48","167","29.39","-95.13","A","GD"
"77518","TX","Bacliff","Galveston","48","167","29.51","-94.99","A","GD"
"77519","TX","Batson","Hardin","48","199","30.25","-94.61","A","GD"
"77520","TX","Baytown","Harris","48","201","29.74","-94.99","A","GD"
"77521","TX","Baytown","Harris","48","201","29.79","-94.97","A","GD"
"77522","TX","Baytown","Harris","48","201","29.76","-94.96","A","POB"
"77523","TX","Baytown","Chambers","48","71","29.78","-94.87","A","GD"
"77530","TX","Channelview","Harris","48","201","29.79","-95.12","A","GD"
"77531","TX","Clute","Brazoria","48","39","29.04","-95.4","A","GD"
"77532","TX","Crosby","Harris","48","201","29.92","-95.07","A","GD"
"77533","TX","Daisetta","Liberty","48","291","30.11","-94.64","A","POB"
"77534","TX","Danbury","Brazoria","48","39","29.24","-95.33","A","GD"
"77535","TX","Dayton","Liberty","48","291","30.03","-94.89","A","GD"
"77536","TX","Deer Park","Harris","48","201","29.7","-95.12","A","GD"
"77538","TX","Devers","Liberty","48","291","29.99","-94.55","A","GD"
"77539","TX","Dickinson","Galveston","48","167","29.47","-95.03","A","GD"
"77541","TX","Freeport","Brazoria","48","39","28.99","-95.33","A","GD"
"77542","TX","Freeport","Brazoria","48","39","28.95","-95.36","A","POB"
"77545","TX","Fresno","Fort Bend","48","157","29.53","-95.46","A","GD"
"77546","TX","Friendswood","Galveston","48","167","29.52","-95.19","A","GD"
"77547","TX","Galena Park","Harris","48","201","29.74","-95.24","A","GD"
"77549","TX","Friendswood","Galveston","48","167","29.53","-95.2","A","POB"
"77550","TX","Galveston","Galveston","48","167","29.3","-94.79","A","GD"
"77551","TX","Galveston","Galveston","48","167","29.28","-94.83","A","GD"
"77552","TX","Galveston","Galveston","48","167","29.28","-94.81","A","POB"
"77553","TX","Galveston","Galveston","48","167","29.3","-94.8","A","POB"
"77554","TX","Galveston","Galveston","48","167","29.24","-94.93","A","GD"
"77555","TX","Galveston","Galveston","48","167","29.31","-94.78","A","PVT"
"77560","TX","Hankamer","Chambers","48","71","29.87","-94.6","A","GD"
"77561","TX","Hardin","Liberty","48","291","30.17","-94.74","A","POB"
"77562","TX","Highlands","Harris","48","201","29.83","-95.06","A","GD"
"77563","TX","Hitchcock","Galveston","48","167","29.34","-95","A","GD"
"77564","TX","Hull","Liberty","48","291","30.2","-94.66","A","GD"
"77565","TX","Kemah","Galveston","48","167","29.54","-95.03","A","GD"
"77566","TX","Lake Jackson","Brazoria","48","39","29.04","-95.45","A","GD"
"77568","TX","La Marque","Galveston","48","167","29.36","-94.97","A","GD"
"77571","TX","La Porte","Harris","48","201","29.67","-95.03","A","GD"
"77572","TX","La Porte","Harris","48","201","29.67","-95.01","A","POB"
"77573","TX","League City","Galveston","48","167","29.5","-95.09","A","GD"
"77574","TX","League City","Galveston","48","167","29.51","-95.06","A","POB"
"77575","TX","Liberty","Liberty","48","291","30.07","-94.75","A","GD"
"77577","TX","Liverpool","Brazoria","48","39","29.28","-95.28","A","GD"
"77578","TX","Manvel","Brazoria","48","39","29.49","-95.37","A","GD"
"77580","TX","Mont Belvieu","Chambers","48","71","29.86","-94.87","A","POB"
"77581","TX","Pearland","Brazoria","48","39","29.56","-95.27","A","GD"
"77582","TX","Raywood","Liberty","48","291","30.04","-94.67","A","POB"
"77583","TX","Rosharon","Brazoria","48","39","29.41","-95.45","A","GD"
"77584","TX","Pearland","Brazoria","48","39","29.55","-95.36","A","GD"
"77585","TX","Saratoga","Hardin","48","199","30.29","-94.53","A","GD"
"77586","TX","Seabrook","Harris","48","201","29.58","-95.03","A","GD"
"77587","TX","South Houston","Harris","48","201","29.66","-95.23","A","GD"
"77588","TX","Pearland","Brazoria","48","39","29.55","-95.28","A","POB"
"77590","TX","Texas City","Galveston","48","167","29.39","-94.92","A","GD"
"77591","TX","Texas City","Galveston","48","167","29.4","-95","A","GD"
"77592","TX","Texas City","Galveston","48","167","29.4","-94.92","A","POB"
"77597","TX","Wallisville","Chambers","48","71","29.84","-94.7","A","GD"
"77598","TX","Webster","Harris","48","201","29.54","-95.14","A","GD"
"77611","TX","Bridge City","Orange","48","361","30.03","-93.82","A","GD"
"77612","TX","Buna","Jasper","48","241","30.42","-93.95","A","GD"
"77613","TX","China","Jefferson","48","245","30.05","-94.35","A","POB"
"77614","TX","Deweyville","Newton","48","351","30.29","-93.76","A","POB"
"77615","TX","Evadale","Jasper","48","241","30.33","-94.07","A","POB"
"77616","TX","Fred","Tyler","48","457","30.57","-94.2","A","GD"
"77617","TX","Gilchrist","Galveston","48","167","29.5","-94.52","A","POB"
"77619","TX","Groves","Jefferson","48","245","29.95","-93.92","A","GD"
"77622","TX","Hamshire","Jefferson","48","245","29.86","-94.3","A","GD"
"77623","TX","High Island","Galveston","48","167","29.57","-94.41","A","POB"
"77624","TX","Hillister","Tyler","48","457","30.68","-94.3","A","GD"
"77625","TX","Kountze","Hardin","48","199","30.39","-94.35","A","GD"
"77626","TX","Mauriceville","Orange","48","361","30.2","-93.89","A","POB"
"77627","TX","Nederland","Jefferson","48","245","29.98","-94","A","GD"
"77629","TX","Nome","Jefferson","48","245","30.02","-94.41","A","POB"
"77630","TX","Orange","Orange","48","361","30.08","-93.81","A","GD"
"77631","TX","Orange","Orange","48","361","30.09","-93.73","A","POB"
"77632","TX","Orange","Orange","48","361","30.18","-93.8","A","GD"
"77639","TX","Orangefield","Orange","48","361","30.05","-93.86","A","POB"
"77640","TX","Port Arthur","Jefferson","48","245","29.88","-93.95","A","GD"
"77641","TX","Port Arthur","Jefferson","48","245","29.79","-93.93","A","POB"
"77642","TX","Port Arthur","Jefferson","48","245","29.93","-93.93","A","GD"
"77643","TX","Port Arthur","Jefferson","48","245","29.9","-93.93","A","POB"
"77650","TX","Port Bolivar","Galveston","48","167","29.43","-94.68","A","POB"
"77651","TX","Port Neches","Jefferson","48","245","29.99","-93.96","A","GD"
"77655","TX","Sabine Pass","Jefferson","48","245","29.73","-93.91","A","GD"
"77656","TX","Silsbee","Hardin","48","199","30.37","-94.18","A","GD"
"77657","TX","Lumberton","Hardin","48","199","30.24","-94.2","A","GD"
"77659","TX","Sour Lake","Hardin","48","199","30.15","-94.42","A","GD"
"77660","TX","Spurger","Tyler","48","457","30.64","-94.16","A","GD"
"77661","TX","Stowell","Chambers","48","71","29.74","-94.4","A","POB"
"77662","TX","Vidor","Orange","48","361","30.14","-94.02","A","GD"
"77663","TX","Village Mills","Hardin","48","199","30.52","-94.42","A","POB"
"77664","TX","Warren","Tyler","48","457","30.6","-94.41","A","GD"
"77665","TX","Winnie","Chambers","48","71","29.82","-94.4","A","GD"
"77670","TX","Vidor","Orange","48","361","30.12","-94.01","A","POB"
"77701","TX","Beaumont","Jefferson","48","245","30.07","-94.1","A","GD"
"77702","TX","Beaumont","Jefferson","48","245","30.09","-94.13","A","GD"
"77703","TX","Beaumont","Jefferson","48","245","30.11","-94.12","A","GD"
"77704","TX","Beaumont","Jefferson","48","245","30.07","-94.1","A","POB"
"77705","TX","Beaumont","Jefferson","48","245","29.98","-94.11","A","GD"
"77706","TX","Beaumont","Jefferson","48","245","30.1","-94.16","A","GD"
"77707","TX","Beaumont","Jefferson","48","245","30.06","-94.17","A","GD"
"77708","TX","Beaumont","Jefferson","48","245","30.14","-94.17","A","GD"
"77710","TX","Beaumont","Jefferson","48","245","30.07","-94.1","A","POB"
"77713","TX","Beaumont","Jefferson","48","245","30.09","-94.23","A","GD"
"77720","TX","Beaumont","Jefferson","48","245","30.04","-94.16","A","POB"
"77725","TX","Beaumont","Jefferson","48","245","30.05","-94.1","A","POB"
"77726","TX","Beaumont","Jefferson","48","245","30.09","-94.15","A","POB"
"77801","TX","Bryan","Brazos","48","41","30.64","-96.36","A","GD"
"77802","TX","Bryan","Brazos","48","41","30.65","-96.34","A","GD"
"77803","TX","Bryan","Brazos","48","41","30.68","-96.38","A","GD"
"77805","TX","Bryan","Brazos","48","41","30.67","-96.34","A","POB"
"77806","TX","Bryan","Brazos","48","41","30.67","-96.37","A","POB"
"77807","TX","Bryan","Brazos","48","41","30.67","-96.46","A","GD"
"77808","TX","Bryan","Brazos","48","41","30.76","-96.33","A","GD"
"77830","TX","Anderson","Grimes","48","185","30.53","-96.02","A","GD"
"77831","TX","Bedias","Grimes","48","185","30.73","-95.92","A","GD"
"77833","TX","Brenham","Washington","48","477","30.19","-96.41","A","GD"
"77834","TX","Brenham","Washington","48","477","30.17","-96.4","A","POB"
"77835","TX","Burton","Washington","48","477","30.19","-96.59","A","GD"
"77836","TX","Caldwell","Burleson","48","51","30.54","-96.67","A","GD"
"77837","TX","Calvert","Robertson","48","395","30.99","-96.68","A","GD"
"77838","TX","Chriesman","Burleson","48","51","30.6","-96.77","A","POB"
"77840","TX","College Station","Brazos","48","41","30.61","-96.33","A","GD"
"77841","TX","College Station","Brazos","48","41","30.57","-96.33","A","POB"
"77842","TX","College Station","Brazos","48","41","30.63","-96.33","A","POB"
"77843","TX","College Station","Brazos","48","41","30.61","-96.35","A","PVT"
"77844","TX","College Station","Brazos","48","41","30.61","-96.35","A","POB"
"77845","TX","College Station","Brazos","48","41","30.57","-96.29","A","GD"
"77850","TX","Concord","Leon","48","289","31.26","-96.12","A","POB"
"77852","TX","Deanville","Burleson","48","51","30.43","-96.76","A","POB"
"77853","TX","Dime Box","Lee","48","287","30.35","-96.84","A","GD"
"77855","TX","Flynn","Leon","48","289","31.13","-96.14","A","POB"
"77856","TX","Franklin","Robertson","48","395","31.06","-96.44","A","GD"
"77857","TX","Gause","Milam","48","331","30.79","-96.72","A","POB"
"77859","TX","Hearne","Robertson","48","395","30.87","-96.58","A","GD"
"77861","TX","Iola","Grimes","48","185","30.73","-96.11","A","GD"
"77862","TX","Kurten","Brazos","48","41","30.79","-96.26","A","POB"
"77863","TX","Lyons","Burleson","48","51","30.38","-96.56","A","POB"
"77864","TX","Madisonville","Madison","48","313","30.95","-95.91","A","GD"
"77865","TX","Marquez","Leon","48","289","31.24","-96.22","A","GD"
"77866","TX","Millican","Brazos","48","41","30.47","-96.2","A","POB"
"77867","TX","Mumford","Robertson","48","395","30.73","-96.56","A","POB"
"77868","TX","Navasota","Grimes","48","185","30.38","-96.08","A","GD"
"77870","TX","New Baden","Robertson","48","395","31.05","-96.43","A","POB"
"77871","TX","Normangee","Leon","48","289","31.06","-96.16","A","GD"
"77872","TX","North Zulch","Madison","48","313","30.9","-96.11","A","GD"
"77873","TX","Richards","Grimes","48","185","30.59","-95.84","A","GD"
"77875","TX","Roans Prairie","Grimes","48","185","30.58","-95.94","A","POB"
"77876","TX","Shiro","Grimes","48","185","30.6","-95.87","A","POB"
"77878","TX","Snook","Burleson","48","51","30.49","-96.45","A","POB"
"77879","TX","Somerville","Burleson","48","51","30.36","-96.53","A","GD"
"77880","TX","Washington","Washington","48","477","30.3","-96.18","A","GD"
"77881","TX","Wellborn","Brazos","48","41","30.54","-96.3","A","POB"
"77882","TX","Wheelock","Robertson","48","395","30.9","-96.39","A","POB"
"77901","TX","Victoria","Victoria","48","469","28.81","-96.99","A","GD"
"77902","TX","Victoria","Victoria","48","469","28.78","-97","A","POB"
"77903","TX","Victoria","Victoria","48","469","28.8","-97.01","A","POB"
"77904","TX","Victoria","Victoria","48","469","28.87","-97.01","A","GD"
"77905","TX","Victoria","Victoria","48","469","28.73","-97.02","A","GD"
"77950","TX","Austwell","Refugio","48","391","28.33","-96.84","A","POB"
"77951","TX","Bloomington","Victoria","48","469","28.64","-96.9","A","POB"
"77954","TX","Cuero","De Witt","48","123","29.1","-97.28","A","GD"
"77957","TX","Edna","Jackson","48","239","28.99","-96.66","A","GD"
"77960","TX","Fannin","Goliad","48","175","28.69","-97.24","A","POB"
"77961","TX","Francitas","Jackson","48","239","28.86","-96.35","A","POB"
"77962","TX","Ganado","Jackson","48","239","29.02","-96.5","A","GD"
"77963","TX","Goliad","Goliad","48","175","28.68","-97.4","A","GD"
"77964","TX","Hallettsville","Lavaca","48","285","29.38","-96.88","A","GD"
"77967","TX","Hochheim","De Witt","48","123","29.31","-97.29","A","POB"
"77968","TX","Inez","Victoria","48","469","28.88","-96.83","A","GD"
"77969","TX","La Salle","Jackson","48","239","28.78","-96.66","A","POB"
"77970","TX","La Ward","Jackson","48","239","28.85","-96.46","A","POB"
"77971","TX","Lolita","Jackson","48","239","28.83","-96.54","A","GD"
"77973","TX","Mcfaddin","Victoria","48","469","28.54","-96.98","A","POB"
"77974","TX","Meyersville","De Witt","48","123","28.9","-97.29","A","GD"
"77975","TX","Moulton","Lavaca","48","285","29.58","-97.12","A","GD"
"77976","TX","Nursery","Victoria","48","469","28.95","-97.12","A","POB"
"77977","TX","Placedo","Victoria","48","469","28.69","-96.82","A","POB"
"77978","TX","Point Comfort","Calhoun","48","57","28.67","-96.56","A","POB"
"77979","TX","Port Lavaca","Calhoun","48","57","28.61","-96.64","A","GD"
"77982","TX","Port O Connor","Calhoun","48","57","28.45","-96.42","A","POB"
"77983","TX","Seadrift","Calhoun","48","57","28.41","-96.67","A","GD"
"77984","TX","Shiner","Lavaca","48","285","29.44","-97.18","A","GD"
"77986","TX","Sublime","Lavaca","48","285","29.4","-96.83","A","POB"
"77987","TX","Sweet Home","Lavaca","48","285","29.34","-97.07","A","POB"
"77988","TX","Telferner","Victoria","48","469","28.85","-96.89","A","POB"
"77989","TX","Thomaston","De Witt","48","123","29.09","-97.19","A","POB"
"77990","TX","Tivoli","Refugio","48","391","28.48","-96.86","A","GD"
"77991","TX","Vanderbilt","Jackson","48","239","28.8","-96.62","A","POB"
"77993","TX","Weesatche","Goliad","48","175","28.86","-97.44","A","POB"
"77994","TX","Westhoff","De Witt","48","123","29.19","-97.47","A","GD"
"77995","TX","Yoakum","Lavaca","48","285","29.26","-97.12","A","GD"
"78001","TX","Artesia Wells","La Salle","48","283","28.28","-99.24","A","POB"
"78002","TX","Atascosa","Bexar","48","29","29.29","-98.73","A","GD"
"78003","TX","Bandera","Bandera","48","19","29.72","-99.07","A","GD"
"78004","TX","Bergheim","Kendall","48","259","29.9","-98.56","A","GD"
"78005","TX","Bigfoot","Frio","48","163","28.96","-98.85","A","GD"
"78006","TX","Boerne","Kendall","48","259","29.81","-98.72","A","GD"
"78007","TX","Calliham","Mcmullen","48","311","28.52","-98.37","A","GD"
"78008","TX","Campbellton","Atascosa","48","13","28.73","-98.29","A","GD"
"78009","TX","Castroville","Medina","48","325","29.36","-98.88","A","GD"
"78010","TX","Center Point","Kerr","48","265","29.92","-99.06","A","GD"
"78011","TX","Charlotte","Atascosa","48","13","28.79","-98.72","A","GD"
"78012","TX","Christine","Atascosa","48","13","28.78","-98.48","A","GD"
"78013","TX","Comfort","Kendall","48","259","29.97","-98.9","A","GD"
"78014","TX","Cotulla","La Salle","48","283","28.38","-99.19","A","GD"
"78015","TX","Boerne","Kendall","48","259","29.73","-98.65","A","GD"
"78016","TX","Devine","Medina","48","325","29.16","-98.94","A","GD"
"78017","TX","Dilley","Frio","48","163","28.71","-99.19","A","GD"
"78019","TX","Encinal","La Salle","48","283","28.07","-99.39","A","POB"
"78021","TX","Fowlerton","La Salle","48","283","28.48","-98.83","A","GD"
"78022","TX","George West","Live Oak","48","297","28.26","-98.13","A","GD"
"78023","TX","Helotes","Bexar","48","29","29.6","-98.71","A","GD"
"78024","TX","Hunt","Kerr","48","265","30.03","-99.4","A","GD"
"78025","TX","Ingram","Kerr","48","265","30.09","-99.26","A","GD"
"78026","TX","Jourdanton","Atascosa","48","13","28.89","-98.56","A","GD"
"78027","TX","Kendalia","Kendall","48","259","29.99","-98.56","A","GD"
"78028","TX","Kerrville","Kerr","48","265","30.04","-99.15","A","GD"
"78029","TX","Kerrville","Kerr","48","265","30.16","-99.35","A","POB"
"78039","TX","La Coste","Medina","48","325","29.31","-98.82","A","GD"
"78040","TX","Laredo","Webb","48","479","27.51","-99.5","A","GD"
"78041","TX","Laredo","Webb","48","479","27.55","-99.49","A","GD"
"78042","TX","Laredo","Webb","48","479","27.51","-99.51","A","POB"
"78043","TX","Laredo","Webb","48","479","27.52","-99.43","A","GD"
"78044","TX","Laredo","Webb","48","479","27.75","-99.1","A","POB"
"78045","TX","Laredo","Webb","48","479","27.66","-99.54","A","GD"
"78046","TX","Laredo","Webb","48","479","27.43","-99.43","A","GD"
"78049","TX","Laredo","Webb","48","479","27.53","-99.47","A","GD"
"78050","TX","Leming","Atascosa","48","13","29.07","-98.48","A","POB"
"78052","TX","Lytle","Atascosa","48","13","29.23","-98.79","A","GD"
"78054","TX","Macdona","Bexar","48","29","29.33","-98.7","A","POB"
"78055","TX","Medina","Bandera","48","19","29.83","-99.33","A","GD"
"78056","TX","Mico","Medina","48","325","29.54","-98.92","A","GD"
"78057","TX","Moore","Frio","48","163","29.04","-99","A","GD"
"78058","TX","Mountain Home","Kerr","48","265","30.11","-99.58","A","GD"
"78059","TX","Natalia","Medina","48","325","29.19","-98.85","A","GD"
"78060","TX","Oakville","Live Oak","48","297","28.45","-98.11","A","GD"
"78061","TX","Pearsall","Frio","48","163","28.92","-99.13","A","GD"
"78062","TX","Peggy","Atascosa","48","13","28.74","-98.18","A","POB"
"78063","TX","Pipe Creek","Bandera","48","19","29.66","-98.92","A","GD"
"78064","TX","Pleasanton","Atascosa","48","13","28.96","-98.47","A","GD"
"78065","TX","Poteet","Atascosa","48","13","29.08","-98.59","A","GD"
"78066","TX","Rio Medina","Medina","48","325","29.49","-98.9","A","GD"
"78067","TX","San Ygnacio","Zapata","48","505","27.08","-99.38","A","GD"
"78069","TX","Somerset","Bexar","48","29","29.2","-98.67","A","GD"
"78070","TX","Spring Branch","Comal","48","91","29.89","-98.39","A","GD"
"78071","TX","Three Rivers","Live Oak","48","297","28.46","-98.21","A","GD"
"78072","TX","Tilden","Mcmullen","48","311","28.3","-98.56","A","GD"
"78073","TX","Von Ormy","Bexar","48","29","29.24","-98.62","A","GD"
"78074","TX","Waring","Kendall","48","259","29.98","-98.79","A","POB"
"78075","TX","Whitsett","Live Oak","48","297","28.61","-98.33","A","GD"
"78076","TX","Zapata","Zapata","48","505","26.9","-99.21","A","GD"
"78101","TX","Adkins","Bexar","48","29","29.33","-98.23","A","GD"
"78102","TX","Beeville","Bee","48","25","28.4","-97.74","A","GD"
"78104","TX","Beeville","Bee","48","25","28.51","-97.77","A","POB"
"78107","TX","Berclair","Goliad","48","175","28.53","-97.59","A","POB"
"78108","TX","Cibolo","Guadalupe","48","187","29.59","-98.24","A","GD"
"78109","TX","Converse","Bexar","48","29","29.5","-98.31","A","GD"
"78111","TX","Ecleto","Karnes","48","255","29.04","-97.75","A","GD"
"78112","TX","Elmendorf","Bexar","48","29","29.23","-98.35","A","GD"
"78113","TX","Falls City","Karnes","48","255","28.96","-98.08","A","GD"
"78114","TX","Floresville","Wilson","48","493","29.15","-98.18","A","GD"
"78115","TX","Geronimo","Guadalupe","48","187","29.61","-98.02","A","POB"
"78116","TX","Gillett","Karnes","48","255","29.12","-97.76","A","GD"
"78117","TX","Hobson","Karnes","48","255","28.94","-97.97","A","GD"
"78118","TX","Karnes City","Karnes","48","255","28.89","-97.91","A","GD"
"78119","TX","Kenedy","Karnes","48","255","28.77","-97.86","A","GD"
"78121","TX","La Vernia","Wilson","48","493","29.34","-98.12","A","GD"
"78122","TX","Leesville","Gonzales","48","177","29.43","-97.75","A","GD"
"78123","TX","Mc Queeney","Guadalupe","48","187","29.6","-98.04","A","GD"
"78124","TX","Marion","Guadalupe","48","187","29.57","-98.16","A","GD"
"78125","TX","Mineral","Bee","48","25","28.55","-97.96","A","POB"
"78130","TX","New Braunfels","Comal","48","91","29.7","-98.11","A","GD"
"78131","TX","New Braunfels","Comal","48","91","29.71","-98.14","A","POB"
"78132","TX","New Braunfels","Comal","48","91","29.75","-98.17","A","GD"
"78133","TX","Canyon Lake","Comal","48","91","29.88","-98.25","A","GD"
"78135","TX","New Braunfels","Comal","48","91","29.7","-98.12","A","GD"
"78140","TX","Nixon","Gonzales","48","177","29.29","-97.76","A","GD"
"78141","TX","Nordheim","De Witt","48","123","28.92","-97.62","A","GD"
"78142","TX","Normanna","Bee","48","25","28.53","-97.79","A","POB"
"78143","TX","Pandora","Wilson","48","493","29.25","-97.84","A","POB"
"78144","TX","Panna Maria","Karnes","48","255","28.95","-97.89","A","POB"
"78145","TX","Pawnee","Bee","48","25","28.65","-98","A","POB"
"78146","TX","Pettus","Bee","48","25","28.6","-97.83","A","POB"
"78147","TX","Poth","Wilson","48","493","29.07","-98.08","A","POB"
"78148","TX","Universal City","Bexar","48","29","29.54","-98.29","A","GD"
"78150","TX","Jbsa Randolph","Bexar","48","29","29.54","-98.28","A","GD"
"78151","TX","Runge","Karnes","48","255","28.88","-97.71","A","GD"
"78152","TX","Saint Hedwig","Bexar","48","29","29.43","-98.2","A","GD"
"78154","TX","Schertz","Guadalupe","48","187","29.57","-98.28","A","GD"
"78155","TX","Seguin","Guadalupe","48","187","29.57","-97.96","A","GD"
"78156","TX","Seguin","Guadalupe","48","187","29.57","-97.93","A","POB"
"78159","TX","Smiley","Gonzales","48","177","29.24","-97.61","A","GD"
"78160","TX","Stockdale","Wilson","48","493","29.26","-97.95","A","GD"
"78161","TX","Sutherland Springs","Wilson","48","493","29.28","-98.06","A","GD"
"78162","TX","Tuleta","Bee","48","25","28.58","-97.78","A","POB"
"78163","TX","Bulverde","Comal","48","91","29.77","-98.45","A","GD"
"78164","TX","Yorktown","De Witt","48","123","28.98","-97.52","A","GD"
"78201","TX","San Antonio","Bexar","48","29","29.47","-98.53","A","GD"
"78202","TX","San Antonio","Bexar","48","29","29.43","-98.46","A","GD"
"78203","TX","San Antonio","Bexar","48","29","29.42","-98.46","A","GD"
"78204","TX","San Antonio","Bexar","48","29","29.4","-98.5","A","GD"
"78205","TX","San Antonio","Bexar","48","29","29.43","-98.49","A","GD"
"78206","TX","San Antonio","Bexar","48","29","29.41","-98.5","A","GD"
"78207","TX","San Antonio","Bexar","48","29","29.43","-98.52","A","GD"
"78208","TX","San Antonio","Bexar","48","29","29.44","-98.46","A","GD"
"78209","TX","San Antonio","Bexar","48","29","29.49","-98.46","A","GD"
"78210","TX","San Antonio","Bexar","48","29","29.4","-98.47","A","GD"
"78211","TX","San Antonio","Bexar","48","29","29.36","-98.55","A","GD"
"78212","TX","San Antonio","Bexar","48","29","29.46","-98.49","A","GD"
"78213","TX","San Antonio","Bexar","48","29","29.51","-98.52","A","GD"
"78214","TX","San Antonio","Bexar","48","29","29.36","-98.49","A","GD"
"78215","TX","San Antonio","Bexar","48","29","29.44","-98.48","A","GD"
"78216","TX","San Antonio","Bexar","48","29","29.53","-98.49","A","GD"
"78217","TX","San Antonio","Bexar","48","29","29.54","-98.42","A","GD"
"78218","TX","San Antonio","Bexar","48","29","29.49","-98.4","A","GD"
"78219","TX","San Antonio","Bexar","48","29","29.45","-98.4","A","GD"
"78220","TX","San Antonio","Bexar","48","29","29.41","-98.41","A","GD"
"78221","TX","San Antonio","Bexar","48","29","29.32","-98.5","A","GD"
"78222","TX","San Antonio","Bexar","48","29","29.38","-98.39","A","GD"
"78223","TX","San Antonio","Bexar","48","29","29.35","-98.43","A","GD"
"78224","TX","San Antonio","Bexar","48","29","29.33","-98.54","A","GD"
"78225","TX","San Antonio","Bexar","48","29","29.39","-98.52","A","GD"
"78226","TX","San Antonio","Bexar","48","29","29.38","-98.56","A","GD"
"78227","TX","San Antonio","Bexar","48","29","29.41","-98.64","A","GD"
"78228","TX","San Antonio","Bexar","48","29","29.46","-98.57","A","GD"
"78229","TX","San Antonio","Bexar","48","29","29.5","-98.57","A","GD"
"78230","TX","San Antonio","Bexar","48","29","29.54","-98.55","A","GD"
"78231","TX","San Antonio","Bexar","48","29","29.58","-98.54","A","GD"
"78232","TX","San Antonio","Bexar","48","29","29.59","-98.47","A","GD"
"78233","TX","San Antonio","Bexar","48","29","29.55","-98.36","A","GD"
"78234","TX","Jbsa Ft Sam Houston","Bexar","48","29","29.46","-98.45","A","GD"
"78235","TX","San Antonio","Bexar","48","29","29.35","-98.45","A","GD"
"78236","TX","Jbsa Lackland","Bexar","48","29","29.39","-98.63","A","GD"
"78237","TX","San Antonio","Bexar","48","29","29.42","-98.57","A","GD"
"78238","TX","San Antonio","Bexar","48","29","29.48","-98.61","A","GD"
"78239","TX","San Antonio","Bexar","48","29","29.52","-98.36","A","GD"
"78240","TX","San Antonio","Bexar","48","29","29.52","-98.61","A","GD"
"78241","TX","San Antonio","Bexar","48","29","29.38","-98.55","A","GD"
"78242","TX","San Antonio","Bexar","48","29","29.35","-98.61","A","GD"
"78243","TX","San Antonio","Bexar","48","29","29.37","-98.6","A","GD"
"78244","TX","San Antonio","Bexar","48","29","29.47","-98.35","A","GD"
"78245","TX","San Antonio","Bexar","48","29","29.41","-98.7","A","GD"
"78246","TX","San Antonio","Bexar","48","29","29.54","-98.49","A","POB"
"78247","TX","San Antonio","Bexar","48","29","29.58","-98.41","A","GD"
"78248","TX","San Antonio","Bexar","48","29","29.59","-98.53","A","GD"
"78249","TX","San Antonio","Bexar","48","29","29.57","-98.61","A","GD"
"78250","TX","San Antonio","Bexar","48","29","29.51","-98.67","A","GD"
"78251","TX","San Antonio","Bexar","48","29","29.46","-98.67","A","GD"
"78252","TX","San Antonio","Bexar","48","29","29.35","-98.7","A","GD"
"78253","TX","San Antonio","Bexar","48","29","29.46","-98.76","A","GD"
"78254","TX","San Antonio","Bexar","48","29","29.52","-98.7","A","GD"
"78255","TX","San Antonio","Bexar","48","29","29.65","-98.66","A","GD"
"78256","TX","San Antonio","Bexar","48","29","29.62","-98.63","A","GD"
"78257","TX","San Antonio","Bexar","48","29","29.66","-98.61","A","GD"
"78258","TX","San Antonio","Bexar","48","29","29.64","-98.49","A","GD"
"78259","TX","San Antonio","Bexar","48","29","29.63","-98.44","A","GD"
"78260","TX","San Antonio","Bexar","48","29","29.69","-98.49","A","GD"
"78261","TX","San Antonio","Bexar","48","29","29.68","-98.43","A","GD"
"78263","TX","San Antonio","Bexar","48","29","29.35","-98.32","A","GD"
"78264","TX","San Antonio","Bexar","48","29","29.19","-98.51","A","GD"
"78265","TX","San Antonio","Bexar","48","29","29.54","-98.42","A","POB"
"78266","TX","San Antonio","Comal","48","91","29.63","-98.32","A","GD"
"78268","TX","San Antonio","Bexar","48","29","29.47","-98.62","A","POB"
"78269","TX","San Antonio","Bexar","48","29","29.57","-98.61","A","POB"
"78270","TX","San Antonio","Bexar","48","29","29.59","-98.47","A","POB"
"78278","TX","San Antonio","Bexar","48","29","29.56","-98.56","A","POB"
"78279","TX","San Antonio","Bexar","48","29","29.53","-98.49","A","POB"
"78280","TX","San Antonio","Bexar","48","29","29.56","-98.36","A","POB"
"78283","TX","San Antonio","Bexar","48","29","29.41","-98.5","A","POB"
"78284","TX","San Antonio","Bexar","48","29","29.47","-98.52","A","GD"
"78285","TX","San Antonio","Bexar","48","29","29.53","-98.41","A","GD"
"78288","TX","San Antonio","Bexar","48","29","29.42","-98.49","A","PVT"
"78289","TX","San Antonio","Bexar","48","29","29.53","-98.41","A","PVT"
"78291","TX","San Antonio","Bexar","48","29","29.43","-98.49","A","POB"
"78292","TX","San Antonio","Bexar","48","29","29.43","-98.49","A","POB"
"78293","TX","San Antonio","Bexar","48","29","29.43","-98.49","A","POB"
"78294","TX","San Antonio","Bexar","48","29","29.43","-98.49","A","POB"
"78295","TX","San Antonio","Bexar","48","29","29.43","-98.49","A","POB"
"78296","TX","San Antonio","Bexar","48","29","29.43","-98.49","A","POB"
"78297","TX","San Antonio","Bexar","48","29","29.43","-98.49","A","POB"
"78298","TX","San Antonio","Bexar","48","29","29.46","-98.51","A","POB"
"78299","TX","San Antonio","Bexar","48","29","29.43","-98.49","A","POB"
"78330","TX","Agua Dulce","Nueces","48","355","27.78","-97.91","A","GD"
"78332","TX","Alice","Jim Wells","48","249","27.75","-98.11","A","GD"
"78333","TX","Alice","Jim Wells","48","249","27.75","-98.08","A","POB"
"78335","TX","Aransas Pass","San Patricio","48","409","27.87","-97.09","A","POB"
"78336","TX","Aransas Pass","San Patricio","48","409","27.91","-97.16","A","GD"
"78338","TX","Armstrong","Kenedy","48","261","26.91","-97.77","A","POB"
"78339","TX","Banquete","Nueces","48","355","27.81","-97.79","A","POB"
"78340","TX","Bayside","Refugio","48","391","28.11","-97.21","A","GD"
"78341","TX","Benavides","Duval","48","131","27.63","-98.48","A","POB"
"78342","TX","Ben Bolt","Jim Wells","48","249","27.65","-98.08","A","POB"
"78343","TX","Bishop","Nueces","48","355","27.61","-97.77","A","GD"
"78344","TX","Bruni","Webb","48","479","27.47","-98.85","A","GD"
"78347","TX","Chapman Ranch","Nueces","48","355","27.64","-97.45","A","POB"
"78349","TX","Concepcion","Duval","48","131","27.39","-98.3","A","GD"
"78350","TX","Dinero","Live Oak","48","297","28.22","-98.15","A","POB"
"78351","TX","Driscoll","Nueces","48","355","27.67","-97.75","A","POB"
"78352","TX","Edroy","San Patricio","48","409","27.97","-97.68","A","POB"
"78353","TX","Encino","Brooks","48","47","26.88","-98.19","A","GD"
"78355","TX","Falfurrias","Brooks","48","47","27.21","-98.18","A","GD"
"78357","TX","Freer","Duval","48","131","27.87","-98.61","A","GD"
"78358","TX","Fulton","Aransas","48","7","28.07","-97.04","A","POB"
"78359","TX","Gregory","San Patricio","48","409","27.92","-97.29","A","POB"
"78360","TX","Guerra","Jim Hogg","48","247","26.92","-98.88","A","GD"
"78361","TX","Hebbronville","Jim Hogg","48","247","27.17","-98.78","A","GD"
"78362","TX","Ingleside","San Patricio","48","409","27.86","-97.21","A","GD"
"78363","TX","Kingsville","Kleberg","48","273","27.49","-97.86","A","GD"
"78364","TX","Kingsville","Kleberg","48","273","27.52","-97.87","A","POB"
"78368","TX","Mathis","San Patricio","48","409","28.1","-97.83","A","GD"
"78369","TX","Mirando City","Webb","48","479","27.38","-99","A","GD"
"78370","TX","Odem","San Patricio","48","409","27.95","-97.61","A","GD"
"78371","TX","Oilton","Webb","48","479","27.6","-98.96","A","POB"
"78372","TX","Orange Grove","Jim Wells","48","249","27.98","-98.04","A","GD"
"78373","TX","Port Aransas","Nueces","48","355","27.81","-97.08","A","GD"
"78374","TX","Portland","San Patricio","48","409","27.89","-97.32","A","GD"
"78375","TX","Premont","Jim Wells","48","249","27.38","-98.12","A","GD"
"78376","TX","Realitos","Duval","48","131","27.42","-98.51","A","GD"
"78377","TX","Refugio","Refugio","48","391","28.34","-97.21","A","GD"
"78379","TX","Riviera","Kleberg","48","273","27.3","-97.79","A","GD"
"78380","TX","Robstown","Nueces","48","355","27.79","-97.71","A","GD"
"78381","TX","Rockport","Aransas","48","7","28.01","-97.06","A","POB"
"78382","TX","Rockport","Aransas","48","7","28.06","-97.05","A","GD"
"78383","TX","Sandia","Jim Wells","48","249","28.08","-97.94","A","GD"
"78384","TX","San Diego","Duval","48","131","27.81","-98.33","A","GD"
"78385","TX","Sarita","Kenedy","48","261","27.18","-97.85","A","POB"
"78387","TX","Sinton","San Patricio","48","409","28.06","-97.52","A","GD"
"78389","TX","Skidmore","Bee","48","25","28.25","-97.68","A","GD"
"78390","TX","Taft","San Patricio","48","409","27.99","-97.35","A","GD"
"78391","TX","Tynan","Bee","48","25","28.17","-97.75","A","GD"
"78393","TX","Woodsboro","Refugio","48","391","28.21","-97.33","A","GD"
"78401","TX","Corpus Christi","Nueces","48","355","27.8","-97.4","A","GD"
"78402","TX","Corpus Christi","Nueces","48","355","27.82","-97.39","A","GD"
"78403","TX","Corpus Christi","Nueces","48","355","27.79","-97.4","A","POB"
"78404","TX","Corpus Christi","Nueces","48","355","27.77","-97.4","A","GD"
"78405","TX","Corpus Christi","Nueces","48","355","27.78","-97.43","A","GD"
"78406","TX","Corpus Christi","Nueces","48","355","27.78","-97.5","A","GD"
"78407","TX","Corpus Christi","Nueces","48","355","27.81","-97.43","A","GD"
"78408","TX","Corpus Christi","Nueces","48","355","27.8","-97.44","A","GD"
"78409","TX","Corpus Christi","Nueces","48","355","27.81","-97.52","A","GD"
"78410","TX","Corpus Christi","Nueces","48","355","27.85","-97.6","A","GD"
"78411","TX","Corpus Christi","Nueces","48","355","27.73","-97.39","A","GD"
"78412","TX","Corpus Christi","Nueces","48","355","27.71","-97.35","A","GD"
"78413","TX","Corpus Christi","Nueces","48","355","27.69","-97.4","A","GD"
"78414","TX","Corpus Christi","Nueces","48","355","27.66","-97.37","A","GD"
"78415","TX","Corpus Christi","Nueces","48","355","27.72","-97.43","A","GD"
"78416","TX","Corpus Christi","Nueces","48","355","27.75","-97.43","A","GD"
"78417","TX","Corpus Christi","Nueces","48","355","27.73","-97.45","A","GD"
"78418","TX","Corpus Christi","Nueces","48","355","27.64","-97.26","A","GD"
"78419","TX","Corpus Christi","Nueces","48","355","27.69","-97.27","A","GD"
"78426","TX","Corpus Christi","Nueces","48","355","27.84","-97.6","A","POB"
"78427","TX","Corpus Christi","Nueces","48","355","27.8","-97.4","A","POB"
"78460","TX","Corpus Christi","Nueces","48","355","27.83","-97.6","A","POB"
"78463","TX","Corpus Christi","Nueces","48","355","27.77","-97.4","A","POB"
"78465","TX","Corpus Christi","Nueces","48","355","27.78","-97.42","A","POB"
"78466","TX","Corpus Christi","Nueces","48","355","27.74","-97.38","A","POB"
"78467","TX","Corpus Christi","Nueces","48","355","27.75","-97.42","A","POB"
"78468","TX","Corpus Christi","Nueces","48","355","27.71","-97.36","A","POB"
"78469","TX","Corpus Christi","Nueces","48","355","27.79","-97.45","A","POB"
"78472","TX","Corpus Christi","Nueces","48","355","27.7","-97.4","A","POB"
"78480","TX","Corpus Christi","Nueces","48","355","27.67","-97.29","A","POB"
"78501","TX","Mcallen","Hidalgo","48","215","26.21","-98.24","A","GD"
"78502","TX","Mcallen","Hidalgo","48","215","26.19","-98.25","A","POB"
"78503","TX","Mcallen","Hidalgo","48","215","26.17","-98.24","A","GD"
"78504","TX","Mcallen","Hidalgo","48","215","26.27","-98.23","A","GD"
"78505","TX","Mcallen","Hidalgo","48","215","26.2","-98.23","A","POB"
"78516","TX","Alamo","Hidalgo","48","215","26.18","-98.12","A","GD"
"78520","TX","Brownsville","Cameron","48","61","25.93","-97.52","A","GD"
"78521","TX","Brownsville","Cameron","48","61","25.92","-97.43","A","GD"
"78522","TX","Brownsville","Cameron","48","61","26","-97.57","A","POB"
"78523","TX","Brownsville","Cameron","48","61","26","-97.57","A","POB"
"78526","TX","Brownsville","Cameron","48","61","25.97","-97.46","A","GD"
"78535","TX","Combes","Cameron","48","61","26.25","-97.74","A","POB"
"78536","TX","Delmita","Starr","48","427","26.66","-98.46","A","GD"
"78537","TX","Donna","Hidalgo","48","215","26.16","-98.06","A","GD"
"78538","TX","Edcouch","Hidalgo","48","215","26.35","-97.97","A","GD"
"78539","TX","Edinburg","Hidalgo","48","215","26.28","-98.18","A","GD"
"78540","TX","Edinburg","Hidalgo","48","215","26.3","-98.16","A","POB"
"78541","TX","Edinburg","Hidalgo","48","215","26.39","-98.23","A","GD"
"78542","TX","Edinburg","Hidalgo","48","215","26.36","-98.11","A","GD"
"78543","TX","Elsa","Hidalgo","48","215","26.3","-98","A","POB"
"78545","TX","Falcon Heights","Starr","48","427","26.59","-99.12","A","POB"
"78547","TX","Garciasville","Starr","48","427","26.37","-98.65","A","POB"
"78548","TX","Grulla","Starr","48","427","26.27","-98.65","A","POB"
"78549","TX","Hargill","Hidalgo","48","215","26.45","-98.02","A","POB"
"78550","TX","Harlingen","Cameron","48","61","26.21","-97.68","A","GD"
"78551","TX","Harlingen","Cameron","48","61","26.21","-97.74","A","POB"
"78552","TX","Harlingen","Cameron","48","61","26.19","-97.75","A","GD"
"78553","TX","Harlingen","Cameron","48","61","26.21","-97.7","A","POB"
"78557","TX","Hidalgo","Hidalgo","48","215","26.1","-98.25","A","GD"
"78558","TX","La Blanca","Hidalgo","48","215","26.29","-98.03","A","POB"
"78559","TX","La Feria","Cameron","48","61","26.15","-97.83","A","GD"
"78560","TX","La Joya","Hidalgo","48","215","26.25","-98.49","A","GD"
"78561","TX","Lasara","Willacy","48","489","26.47","-97.91","A","POB"
"78562","TX","La Villa","Hidalgo","48","215","26.3","-97.91","A","POB"
"78563","TX","Linn","Hidalgo","48","215","26.62","-98.22","A","GD"
"78564","TX","Lopeno","Zapata","48","505","26.68","-99.12","A","GD"
"78565","TX","Los Ebanos","Hidalgo","48","215","26.25","-98.56","A","POB"
"78566","TX","Los Fresnos","Cameron","48","61","26.11","-97.42","A","GD"
"78567","TX","Los Indios","Cameron","48","61","26.05","-97.74","A","POB"
"78568","TX","Lozano","Cameron","48","61","26.11","-97.48","A","POB"
"78569","TX","Lyford","Willacy","48","489","26.39","-97.77","A","GD"
"78570","TX","Mercedes","Hidalgo","48","215","26.17","-97.91","A","GD"
"78572","TX","Mission","Hidalgo","48","215","26.21","-98.34","A","GD"
"78573","TX","Mission","Hidalgo","48","215","26.28","-98.31","A","GD"
"78574","TX","Mission","Hidalgo","48","215","26.28","-98.35","A","GD"
"78575","TX","Olmito","Cameron","48","61","26.02","-97.54","A","GD"
"78576","TX","Penitas","Hidalgo","48","215","26.29","-98.47","A","GD"
"78577","TX","Pharr","Hidalgo","48","215","26.18","-98.19","A","GD"
"78578","TX","Port Isabel","Cameron","48","61","26.07","-97.26","A","GD"
"78579","TX","Progreso","Hidalgo","48","215","26.09","-97.96","A","POB"
"78580","TX","Raymondville","Willacy","48","489","26.49","-97.78","A","GD"
"78582","TX","Rio Grande City","Starr","48","427","26.42","-98.75","A","GD"
"78583","TX","Rio Hondo","Cameron","48","61","26.26","-97.51","A","GD"
"78584","TX","Roma","Starr","48","427","26.45","-99.01","A","GD"
"78585","TX","Salineno","Starr","48","427","26.53","-99.12","A","POB"
"78586","TX","San Benito","Cameron","48","61","26.11","-97.64","A","GD"
"78588","TX","San Isidro","Starr","48","427","26.73","-98.42","A","GD"
"78589","TX","San Juan","Hidalgo","48","215","26.19","-98.15","A","GD"
"78590","TX","San Perlita","Willacy","48","489","26.5","-97.64","A","POB"
"78591","TX","Santa Elena","Starr","48","427","26.58","-98.52","A","GD"
"78592","TX","Santa Maria","Cameron","48","61","26.07","-97.85","A","POB"
"78593","TX","Santa Rosa","Cameron","48","61","26.26","-97.82","A","GD"
"78594","TX","Sebastian","Willacy","48","489","26.34","-97.79","A","POB"
"78595","TX","Sullivan City","Hidalgo","48","215","26.28","-98.56","A","GD"
"78596","TX","Weslaco","Hidalgo","48","215","26.16","-97.99","A","GD"
"78597","TX","South Padre Island","Cameron","48","61","26.12","-97.17","A","GD"
"78598","TX","Port Mansfield","Willacy","48","489","26.55","-97.43","A","POB"
"78599","TX","Weslaco","Hidalgo","48","215","26.16","-97.99","A","GD"
"78602","TX","Bastrop","Bastrop","48","21","30.12","-97.31","A","GD"
"78604","TX","Belmont","Gonzales","48","177","29.52","-97.68","A","POB"
"78605","TX","Bertram","Burnet","48","53","30.77","-98.05","A","GD"
"78606","TX","Blanco","Blanco","48","31","30.1","-98.44","A","GD"
"78607","TX","Bluffton","Llano","48","299","30.83","-98.47","A","GD"
"78608","TX","Briggs","Burnet","48","53","30.94","-97.93","A","GD"
"78609","TX","Buchanan Dam","Llano","48","299","30.76","-98.45","A","GD"
"78610","TX","Buda","Hays","48","209","30.08","-97.82","A","GD"
"78611","TX","Burnet","Burnet","48","53","30.77","-98.29","A","GD"
"78612","TX","Cedar Creek","Bastrop","48","21","30.12","-97.48","A","GD"
"78613","TX","Cedar Park","Williamson","48","491","30.5","-97.83","A","GD"
"78614","TX","Cost","Gonzales","48","177","29.41","-97.6","A","GD"
"78615","TX","Coupland","Williamson","48","491","30.46","-97.4","A","GD"
"78616","TX","Dale","Caldwell","48","55","29.95","-97.57","A","GD"
"78617","TX","Del Valle","Travis","48","453","30.17","-97.62","A","GD"
"78618","TX","Doss","Gillespie","48","171","30.49","-99.16","A","GD"
"78619","TX","Driftwood","Hays","48","209","30.12","-98.05","A","GD"
"78620","TX","Dripping Springs","Hays","48","209","30.24","-98.1","A","GD"
"78621","TX","Elgin","Bastrop","48","21","30.34","-97.37","A","GD"
"78622","TX","Fentress","Caldwell","48","55","29.76","-97.78","A","POB"
"78623","TX","Fischer","Comal","48","91","29.95","-98.22","A","GD"
"78624","TX","Fredericksburg","Gillespie","48","171","30.28","-98.89","A","GD"
"78626","TX","Georgetown","Williamson","48","491","30.64","-97.65","A","GD"
"78627","TX","Georgetown","Williamson","48","491","30.64","-97.67","A","POB"
"78628","TX","Georgetown","Williamson","48","491","30.65","-97.72","A","GD"
"78629","TX","Gonzales","Gonzales","48","177","29.5","-97.46","A","GD"
"78630","TX","Cedar Park","Williamson","48","491","30.51","-97.82","A","POB"
"78631","TX","Harper","Gillespie","48","171","30.34","-99.31","A","GD"
"78632","TX","Harwood","Gonzales","48","177","29.67","-97.47","A","GD"
"78633","TX","Georgetown","Williamson","48","491","30.72","-97.73","A","GD"
"78634","TX","Hutto","Williamson","48","491","30.54","-97.55","A","GD"
"78635","TX","Hye","Blanco","48","31","30.23","-98.55","A","GD"
"78636","TX","Johnson City","Blanco","48","31","30.28","-98.4","A","GD"
"78638","TX","Kingsbury","Guadalupe","48","187","29.65","-97.77","A","GD"
"78639","TX","Kingsland","Llano","48","299","30.66","-98.44","A","GD"
"78640","TX","Kyle","Hays","48","209","30","-97.84","A","GD"
"78641","TX","Leander","Williamson","48","491","30.55","-97.86","A","GD"
"78642","TX","Liberty Hill","Williamson","48","491","30.69","-97.93","A","GD"
"78643","TX","Llano","Llano","48","299","30.7","-98.66","A","GD"
"78644","TX","Lockhart","Caldwell","48","55","29.87","-97.68","A","GD"
"78645","TX","Leander","Travis","48","453","30.45","-97.97","A","GD"
"78646","TX","Leander","Williamson","48","491","30.58","-97.85","A","POB"
"78648","TX","Luling","Caldwell","48","55","29.69","-97.65","A","GD"
"78650","TX","Mc Dade","Bastrop","48","21","30.28","-97.23","A","GD"
"78651","TX","Mc Neil","Travis","48","453","30.46","-97.72","A","POB"
"78652","TX","Manchaca","Travis","48","453","30.13","-97.85","A","GD"
"78653","TX","Manor","Travis","48","453","30.34","-97.54","A","GD"
"78654","TX","Marble Falls","Burnet","48","53","30.58","-98.28","A","GD"
"78655","TX","Martindale","Caldwell","48","55","29.83","-97.84","A","GD"
"78656","TX","Maxwell","Caldwell","48","55","29.89","-97.82","A","GD"
"78657","TX","Horseshoe Bay","Llano","48","299","30.54","-98.37","A","GD"
"78658","TX","Ottine","Gonzales","48","177","29.6","-97.58","A","POB"
"78659","TX","Paige","Bastrop","48","21","30.21","-97.12","A","GD"
"78660","TX","Pflugerville","Travis","48","453","30.45","-97.62","A","GD"
"78661","TX","Prairie Lea","Caldwell","48","55","29.73","-97.75","A","POB"
"78662","TX","Red Rock","Bastrop","48","21","29.94","-97.44","A","GD"
"78663","TX","Round Mountain","Blanco","48","31","30.43","-98.33","A","GD"
"78664","TX","Round Rock","Williamson","48","491","30.51","-97.65","A","GD"
"78665","TX","Round Rock","Williamson","48","491","30.54","-97.65","A","GD"
"78666","TX","San Marcos","Hays","48","209","29.87","-97.94","A","GD"
"78667","TX","San Marcos","Hays","48","209","29.86","-97.94","A","POB"
"78669","TX","Spicewood","Travis","48","453","30.44","-98.09","A","GD"
"78670","TX","Staples","Guadalupe","48","187","29.77","-97.83","A","POB"
"78671","TX","Stonewall","Gillespie","48","171","30.22","-98.63","A","GD"
"78672","TX","Tow","Llano","48","299","30.86","-98.45","A","GD"
"78673","TX","Walburg","Williamson","48","491","30.74","-97.58","A","POB"
"78674","TX","Weir","Williamson","48","491","30.67","-97.59","A","POB"
"78675","TX","Willow City","Gillespie","48","171","30.47","-98.71","A","GD"
"78676","TX","Wimberley","Hays","48","209","30.02","-98.12","A","GD"
"78677","TX","Wrightsboro","Gonzales","48","177","29.34","-97.59","A","GD"
"78680","TX","Round Rock","Williamson","48","491","30.45","-97.67","A","POB"
"78681","TX","Round Rock","Williamson","48","491","30.52","-97.72","A","GD"
"78682","TX","Round Rock","Williamson","48","491","30.52","-97.67","A","PVT"
"78683","TX","Round Rock","Williamson","48","491","30.5","-97.65","A","POB"
"78691","TX","Pflugerville","Travis","48","453","30.44","-97.62","A","POB"
"78701","TX","Austin","Travis","48","453","30.27","-97.74","A","GD"
"78702","TX","Austin","Travis","48","453","30.26","-97.72","A","GD"
"78703","TX","Austin","Travis","48","453","30.29","-97.76","A","GD"
"78704","TX","Austin","Travis","48","453","30.24","-97.76","A","GD"
"78705","TX","Austin","Travis","48","453","30.29","-97.74","A","GD"
"78708","TX","Austin","Travis","48","453","30.39","-97.71","A","POB"
"78709","TX","Austin","Travis","48","453","30.23","-97.85","A","POB"
"78710","TX","Austin","Travis","48","453","30.35","-97.66","A","GD"
"78711","TX","Austin","Travis","48","453","30.28","-97.74","A","POB"
"78712","TX","Austin","Travis","48","453","30.29","-97.73","A","GD"
"78713","TX","Austin","Travis","48","453","30.28","-97.74","A","POB"
"78714","TX","Austin","Travis","48","453","30.27","-97.74","A","POB"
"78715","TX","Austin","Travis","48","453","30.21","-97.8","A","POB"
"78716","TX","Austin","Travis","48","453","30.32","-97.87","A","POB"
"78717","TX","Austin","Williamson","48","491","30.5","-97.76","A","GD"
"78718","TX","Austin","Travis","48","453","30.39","-97.71","A","POB"
"78719","TX","Austin","Travis","48","453","30.17","-97.68","A","GD"
"78720","TX","Austin","Travis","48","453","30.4","-97.76","A","POB"
"78721","TX","Austin","Travis","48","453","30.27","-97.69","A","GD"
"78722","TX","Austin","Travis","48","453","30.29","-97.72","A","GD"
"78723","TX","Austin","Travis","48","453","30.31","-97.69","A","GD"
"78724","TX","Austin","Travis","48","453","30.3","-97.63","A","GD"
"78725","TX","Austin","Travis","48","453","30.24","-97.62","A","GD"
"78726","TX","Austin","Travis","48","453","30.44","-97.84","A","GD"
"78727","TX","Austin","Travis","48","453","30.43","-97.71","A","GD"
"78728","TX","Austin","Travis","48","453","30.45","-97.68","A","GD"
"78729","TX","Austin","Williamson","48","491","30.45","-97.76","A","GD"
"78730","TX","Austin","Travis","48","453","30.36","-97.83","A","GD"
"78731","TX","Austin","Travis","48","453","30.35","-97.76","A","GD"
"78732","TX","Austin","Travis","48","453","30.38","-97.9","A","GD"
"78733","TX","Austin","Travis","48","453","30.33","-97.87","A","GD"
"78734","TX","Austin","Travis","48","453","30.38","-97.96","A","GD"
"78735","TX","Austin","Travis","48","453","30.25","-97.84","A","GD"
"78736","TX","Austin","Travis","48","453","30.25","-97.92","A","GD"
"78737","TX","Austin","Hays","48","209","30.19","-97.96","A","GD"
"78738","TX","Austin","Travis","48","453","30.32","-97.96","A","GD"
"78739","TX","Austin","Travis","48","453","30.18","-97.89","A","GD"
"78741","TX","Austin","Travis","48","453","30.23","-97.71","A","GD"
"78742","TX","Austin","Travis","48","453","30.24","-97.67","A","GD"
"78744","TX","Austin","Travis","48","453","30.19","-97.74","A","GD"
"78745","TX","Austin","Travis","48","453","30.21","-97.8","A","GD"
"78746","TX","Austin","Travis","48","453","30.29","-97.81","A","GD"
"78747","TX","Austin","Travis","48","453","30.14","-97.75","A","GD"
"78748","TX","Austin","Travis","48","453","30.17","-97.83","A","GD"
"78749","TX","Austin","Travis","48","453","30.22","-97.86","A","GD"
"78750","TX","Austin","Travis","48","453","30.44","-97.8","A","GD"
"78751","TX","Austin","Travis","48","453","30.31","-97.72","A","GD"
"78752","TX","Austin","Travis","48","453","30.33","-97.7","A","GD"
"78753","TX","Austin","Travis","48","453","30.38","-97.68","A","GD"
"78754","TX","Austin","Travis","48","453","30.36","-97.64","A","GD"
"78755","TX","Austin","Travis","48","453","30.36","-97.76","A","POB"
"78756","TX","Austin","Travis","48","453","30.32","-97.74","A","GD"
"78757","TX","Austin","Travis","48","453","30.35","-97.73","A","GD"
"78758","TX","Austin","Travis","48","453","30.38","-97.7","A","GD"
"78759","TX","Austin","Travis","48","453","30.4","-97.76","A","GD"
"78760","TX","Austin","Travis","48","453","30.21","-97.73","A","POB"
"78761","TX","Austin","Travis","48","453","30.34","-97.68","A","POB"
"78762","TX","Austin","Travis","48","453","30.26","-97.72","A","POB"
"78763","TX","Austin","Travis","48","453","30.3","-97.77","A","POB"
"78764","TX","Austin","Travis","48","453","30.25","-97.76","A","POB"
"78765","TX","Austin","Travis","48","453","30.31","-97.73","A","POB"
"78766","TX","Austin","Travis","48","453","30.35","-97.73","A","POB"
"78767","TX","Austin","Travis","48","453","30.27","-97.74","A","POB"
"78768","TX","Austin","Travis","48","453","30.27","-97.74","A","POB"
"78769","TX","Austin","Travis","48","453","30.31","-97.75","A","POB"
"78772","TX","Austin","Travis","48","453","30.22","-97.75","A","PVT"
"78773","TX","Austin","Travis","48","453","30.33","-97.7","A","PVT"
"78774","TX","Austin","Travis","48","453","30.28","-97.74","A","PVT"
"78778","TX","Austin","Travis","48","453","30.28","-97.74","A","PVT"
"78779","TX","Austin","Travis","48","453","30.35","-97.77","A","PVT"
"78783","TX","Austin","Travis","48","453","30.24","-97.77","A","PVT"
"78799","TX","Austin","Travis","48","453","30.27","-97.74","A","GD"
"78801","TX","Uvalde","Uvalde","48","463","29.28","-99.85","A","GD"
"78802","TX","Uvalde","Uvalde","48","463","29.17","-99.84","A","POB"
"78827","TX","Asherton","Dimmit","48","127","28.44","-99.75","A","GD"
"78828","TX","Barksdale","Edwards","48","137","29.83","-100","A","GD"
"78829","TX","Batesville","Zavala","48","507","28.89","-99.55","A","GD"
"78830","TX","Big Wells","Dimmit","48","127","28.55","-99.52","A","GD"
"78832","TX","Brackettville","Kinney","48","271","29.32","-100.43","A","GD"
"78833","TX","Camp Wood","Real","48","385","29.69","-99.99","A","GD"
"78834","TX","Carrizo Springs","Dimmit","48","127","28.52","-99.89","A","GD"
"78836","TX","Catarina","Dimmit","48","127","28.3","-99.67","A","POB"
"78837","TX","Comstock","Val Verde","48","465","29.8","-101.25","A","GD"
"78838","TX","Concan","Uvalde","48","463","29.55","-99.73","A","GD"
"78839","TX","Crystal City","Zavala","48","507","28.72","-99.82","A","GD"
"78840","TX","Del Rio","Val Verde","48","465","29.42","-100.91","A","GD"
"78841","TX","Del Rio","Val Verde","48","465","29.35","-100.91","A","POB"
"78842","TX","Del Rio","Val Verde","48","465","29.38","-100.9","A","POB"
"78843","TX","Laughlin Afb","Val Verde","48","465","29.35","-100.78","A","GD"
"78847","TX","Del Rio","Val Verde","48","465","29.38","-100.9","A","PVT"
"78850","TX","D Hanis","Medina","48","325","29.25","-99.3","A","GD"
"78851","TX","Dryden","Terrell","48","443","29.98","-101.94","A","GD"
"78852","TX","Eagle Pass","Maverick","48","323","28.72","-100.39","A","GD"
"78853","TX","Eagle Pass","Maverick","48","323","28.68","-100.48","A","POB"
"78860","TX","El Indio","Maverick","48","323","28.5","-100.31","A","POB"
"78861","TX","Hondo","Medina","48","325","29.36","-99.14","A","GD"
"78870","TX","Knippa","Uvalde","48","463","29.3","-99.63","A","GD"
"78871","TX","Langtry","Val Verde","48","465","29.98","-101.61","A","POB"
"78872","TX","La Pryor","Zavala","48","507","28.94","-99.86","A","POB"
"78873","TX","Leakey","Real","48","385","29.74","-99.76","A","GD"
"78877","TX","Quemado","Maverick","48","323","28.94","-100.61","A","GD"
"78879","TX","Rio Frio","Real","48","385","29.63","-99.7","A","GD"
"78880","TX","Rocksprings","Edwards","48","137","30.02","-100.2","A","GD"
"78881","TX","Sabinal","Uvalde","48","463","29.35","-99.5","A","GD"
"78883","TX","Tarpley","Bandera","48","19","29.69","-99.33","A","GD"
"78884","TX","Utopia","Uvalde","48","463","29.61","-99.51","A","GD"
"78885","TX","Vanderpool","Bandera","48","19","29.79","-99.55","A","GD"
"78886","TX","Yancey","Medina","48","325","29.13","-99.18","A","GD"
"78931","TX","Bleiblerville","Austin","48","15","30.02","-96.45","A","GD"
"78932","TX","Carmine","Fayette","48","149","30.15","-96.71","A","GD"
"78933","TX","Cat Spring","Austin","48","15","29.82","-96.35","A","GD"
"78934","TX","Columbus","Colorado","48","89","29.72","-96.56","A","GD"
"78935","TX","Alleyton","Colorado","48","89","29.68","-96.44","A","GD"
"78938","TX","Ellinger","Fayette","48","149","29.81","-96.7","A","GD"
"78940","TX","Fayetteville","Fayette","48","149","29.92","-96.67","A","GD"
"78941","TX","Flatonia","Fayette","48","149","29.72","-97.13","A","GD"
"78942","TX","Giddings","Lee","48","287","30.17","-96.93","A","GD"
"78943","TX","Glidden","Colorado","48","89","29.7","-96.59","A","GD"
"78944","TX","Industry","Austin","48","15","29.99","-96.5","A","GD"
"78945","TX","La Grange","Fayette","48","149","29.92","-96.88","A","GD"
"78946","TX","Ledbetter","Fayette","48","149","30.17","-96.77","A","GD"
"78947","TX","Lexington","Lee","48","287","30.41","-97.03","A","GD"
"78948","TX","Lincoln","Lee","48","287","30.3","-96.96","A","GD"
"78949","TX","Muldoon","Fayette","48","149","29.83","-97.08","A","GD"
"78950","TX","New Ulm","Austin","48","15","29.9","-96.48","A","GD"
"78951","TX","Oakland","Colorado","48","89","29.6","-96.83","A","POB"
"78952","TX","Plum","Fayette","48","149","29.93","-96.98","A","POB"
"78953","TX","Rosanky","Bastrop","48","21","29.84","-97.34","A","GD"
"78954","TX","Round Top","Fayette","48","149","30.04","-96.71","A","GD"
"78956","TX","Schulenburg","Fayette","48","149","29.69","-96.93","A","GD"
"78957","TX","Smithville","Bastrop","48","21","30.01","-97.16","A","GD"
"78959","TX","Waelder","Gonzales","48","177","29.7","-97.3","A","GD"
"78960","TX","Warda","Fayette","48","149","30.05","-96.91","A","POB"
"78961","TX","Warrenton","Fayette","48","149","30.06","-96.7","A","POB"
"78962","TX","Weimar","Colorado","48","89","29.7","-96.76","A","GD"
"78963","TX","West Point","Fayette","48","149","29.93","-97.03","A","GD"
"79001","TX","Adrian","Oldham","48","359","35.27","-102.75","A","GD"
"79002","TX","Alanreed","Gray","48","179","35.23","-100.6","A","POB"
"79003","TX","Allison","Wheeler","48","483","35.57","-100.1","A","POB"
"79005","TX","Booker","Lipscomb","48","295","36.41","-100.51","A","GD"
"79007","TX","Borger","Hutchinson","48","233","35.68","-101.4","A","GD"
"79008","TX","Borger","Hutchinson","48","233","35.67","-101.39","A","POB"
"79009","TX","Bovina","Parmer","48","369","34.51","-102.88","A","GD"
"79010","TX","Boys Ranch","Oldham","48","359","35.46","-102.15","A","POB"
"79011","TX","Briscoe","Wheeler","48","483","35.66","-100.23","A","GD"
"79012","TX","Bushland","Potter","48","375","35.21","-102.09","A","POB"
"79013","TX","Cactus","Moore","48","341","36.04","-102","A","GD"
"79014","TX","Canadian","Hemphill","48","211","35.87","-100.31","A","GD"
"79015","TX","Canyon","Randall","48","381","34.97","-101.92","A","GD"
"79016","TX","Canyon","Randall","48","381","34.98","-101.92","A","PVT"
"79018","TX","Channing","Hartley","48","205","35.71","-102.36","A","GD"
"79019","TX","Claude","Armstrong","48","11","35.06","-101.41","A","GD"
"79021","TX","Cotton Center","Hale","48","189","33.98","-102.03","A","POB"
"79022","TX","Dalhart","Dallam","48","111","36.07","-102.6","A","GD"
"79024","TX","Darrouzett","Lipscomb","48","295","36.45","-100.33","A","POB"
"79025","TX","Dawn","Deaf Smith","48","117","34.91","-102.2","A","POB"
"79027","TX","Dimmitt","Castro","48","69","34.52","-102.33","A","GD"
"79029","TX","Dumas","Moore","48","341","35.89","-101.98","A","GD"
"79031","TX","Earth","Lamb","48","279","34.26","-102.44","A","GD"
"79032","TX","Edmonson","Hale","48","189","34.29","-101.93","A","POB"
"79033","TX","Farnsworth","Ochiltree","48","357","36.32","-100.97","A","POB"
"79034","TX","Follett","Lipscomb","48","295","36.4","-100.16","A","GD"
"79035","TX","Friona","Parmer","48","369","34.64","-102.72","A","GD"
"79036","TX","Fritch","Hutchinson","48","233","35.64","-101.58","A","GD"
"79039","TX","Groom","Carson","48","65","35.25","-101.11","A","GD"
"79040","TX","Gruver","Hansford","48","195","36.29","-101.49","A","GD"
"79041","TX","Hale Center","Hale","48","189","34.04","-101.9","A","GD"
"79042","TX","Happy","Swisher","48","437","34.73","-101.87","A","GD"
"79043","TX","Hart","Castro","48","69","34.38","-102.13","A","GD"
"79044","TX","Hartley","Hartley","48","205","35.88","-102.39","A","GD"
"79045","TX","Hereford","Deaf Smith","48","117","34.84","-102.47","A","GD"
"79046","TX","Higgins","Lipscomb","48","295","36.14","-100.08","A","GD"
"79051","TX","Kerrick","Dallam","48","111","36.48","-102.26","A","POB"
"79052","TX","Kress","Swisher","48","437","34.36","-101.75","A","GD"
"79053","TX","Lazbuddie","Parmer","48","369","34.41","-102.57","A","POB"
"79054","TX","Lefors","Gray","48","179","35.44","-100.8","A","POB"
"79056","TX","Lipscomb","Lipscomb","48","295","36.22","-100.26","A","GD"
"79057","TX","Mclean","Gray","48","179","35.25","-100.63","A","GD"
"79058","TX","Masterson","Moore","48","341","35.63","-101.94","A","GD"
"79059","TX","Miami","Roberts","48","393","35.8","-100.73","A","GD"
"79061","TX","Mobeetie","Wheeler","48","483","35.52","-100.44","A","GD"
"79062","TX","Morse","Hansford","48","195","36.05","-101.5","A","GD"
"79063","TX","Nazareth","Castro","48","69","34.53","-102.1","A","GD"
"79064","TX","Olton","Lamb","48","279","34.19","-102.13","A","GD"
"79065","TX","Pampa","Gray","48","179","35.53","-100.95","A","GD"
"79066","TX","Pampa","Gray","48","179","35.53","-100.98","A","POB"
"79068","TX","Panhandle","Carson","48","65","35.34","-101.41","A","GD"
"79070","TX","Perryton","Ochiltree","48","357","36.36","-100.8","A","GD"
"79072","TX","Plainview","Hale","48","189","34.19","-101.73","A","GD"
"79073","TX","Plainview","Hale","48","189","34.19","-101.69","A","POB"
"79077","TX","Samnorwood","Collingsworth","48","87","35.05","-100.28","A","POB"
"79078","TX","Sanford","Hutchinson","48","233","35.7","-101.55","A","POB"
"79079","TX","Shamrock","Wheeler","48","483","35.23","-100.26","A","GD"
"79080","TX","Skellytown","Carson","48","65","35.68","-101.25","A","GD"
"79081","TX","Spearman","Hansford","48","195","36.27","-101.21","A","GD"
"79082","TX","Springlake","Lamb","48","279","34.24","-102.28","A","GD"
"79083","TX","Stinnett","Hutchinson","48","233","35.85","-101.49","A","GD"
"79084","TX","Stratford","Sherman","48","421","36.31","-102.02","A","GD"
"79085","TX","Summerfield","Castro","48","69","34.74","-102.51","A","GD"
"79086","TX","Sunray","Moore","48","341","36.03","-101.79","A","GD"
"79087","TX","Texline","Dallam","48","111","36.34","-102.97","A","GD"
"79088","TX","Tulia","Swisher","48","437","34.55","-101.73","A","GD"
"79091","TX","Umbarger","Randall","48","381","34.93","-102.12","A","POB"
"79092","TX","Vega","Oldham","48","359","35.24","-102.44","A","GD"
"79093","TX","Waka","Ochiltree","48","357","36.28","-101.05","A","POB"
"79094","TX","Wayside","Armstrong","48","11","34.86","-101.52","A","GD"
"79095","TX","Wellington","Collingsworth","48","87","34.88","-100.2","A","GD"
"79096","TX","Wheeler","Wheeler","48","483","35.46","-100.23","A","GD"
"79097","TX","White Deer","Carson","48","65","35.43","-101.18","A","GD"
"79098","TX","Wildorado","Oldham","48","359","35.17","-102.21","A","GD"
"79101","TX","Amarillo","Potter","48","375","35.21","-101.84","A","GD"
"79102","TX","Amarillo","Potter","48","375","35.2","-101.85","A","GD"
"79103","TX","Amarillo","Potter","48","375","35.19","-101.81","A","GD"
"79104","TX","Amarillo","Potter","48","375","35.2","-101.79","A","GD"
"79105","TX","Amarillo","Potter","48","375","35.67","-101.81","A","POB"
"79106","TX","Amarillo","Potter","48","375","35.2","-101.88","A","GD"
"79107","TX","Amarillo","Potter","48","375","35.23","-101.82","A","GD"
"79108","TX","Amarillo","Potter","48","375","35.3","-101.79","A","GD"
"79109","TX","Amarillo","Randall","48","381","35.17","-101.88","A","GD"
"79110","TX","Amarillo","Randall","48","381","35.16","-101.87","A","GD"
"79111","TX","Amarillo","Potter","48","375","35.23","-101.68","A","GD"
"79114","TX","Amarillo","Randall","48","381","35.16","-101.88","A","POB"
"79116","TX","Amarillo","Potter","48","375","35.21","-101.88","A","POB"
"79117","TX","Amarillo","Potter","48","375","35.22","-101.81","A","POB"
"79118","TX","Amarillo","Randall","48","381","35.12","-101.8","A","GD"
"79119","TX","Amarillo","Randall","48","381","35.11","-101.95","A","GD"
"79120","TX","Amarillo","Potter","48","375","35.2","-101.76","A","POB"
"79121","TX","Amarillo","Randall","48","381","35.18","-101.93","A","GD"
"79124","TX","Amarillo","Potter","48","375","35.25","-101.95","A","GD"
"79159","TX","Amarillo","Potter","48","375","35.24","-102.04","A","POB"
"79166","TX","Amarillo","Potter","48","375","35.2","-101.83","A","PVT"
"79168","TX","Amarillo","Potter","48","375","35.16","-101.8","A","PVT"
"79172","TX","Amarillo","Potter","48","375","35.2","-101.83","A","PVT"
"79174","TX","Amarillo","Potter","48","375","35.2","-101.83","A","PVT"
"79178","TX","Amarillo","Potter","48","375","35.19","-101.85","A","PVT"
"79185","TX","Amarillo","Potter","48","375","35.08","-101.92","A","PVT"
"79189","TX","Amarillo","Potter","48","375","35.2","-101.82","A","POB"
"79201","TX","Childress","Childress","48","75","34.44","-100.25","A","GD"
"79220","TX","Afton","Dickens","48","125","33.76","-100.79","A","GD"
"79221","TX","Aiken","Floyd","48","153","34.12","-101.45","A","POB"
"79223","TX","Cee Vee","Cottle","48","101","34.22","-100.45","A","GD"
"79225","TX","Chillicothe","Hardeman","48","197","34.26","-99.51","A","GD"
"79226","TX","Clarendon","Donley","48","129","34.94","-100.96","A","GD"
"79227","TX","Crowell","Foard","48","155","33.91","-99.76","A","GD"
"79229","TX","Dickens","Dickens","48","125","33.65","-100.73","A","GD"
"79230","TX","Dodson","Collingsworth","48","87","34.74","-100.04","A","GD"
"79231","TX","Dougherty","Floyd","48","153","33.92","-101.09","A","POB"
"79233","TX","Estelline","Hall","48","191","34.55","-100.49","A","POB"
"79234","TX","Flomot","Motley","48","345","34.24","-100.94","A","GD"
"79235","TX","Floydada","Floyd","48","153","33.96","-101.27","A","GD"
"79236","TX","Guthrie","King","48","269","33.63","-100.23","A","POB"
"79237","TX","Hedley","Donley","48","129","34.91","-100.65","A","GD"
"79239","TX","Lakeview","Hall","48","191","34.66","-100.75","A","GD"
"79240","TX","Lelia Lake","Donley","48","129","34.89","-100.76","A","GD"
"79241","TX","Lockney","Floyd","48","153","34.18","-101.42","A","GD"
"79243","TX","Mcadoo","Dickens","48","125","33.77","-101.01","A","GD"
"79244","TX","Matador","Motley","48","345","34.04","-100.83","A","GD"
"79245","TX","Memphis","Hall","48","191","34.78","-100.52","A","GD"
"79247","TX","Odell","Wilbarger","48","487","34.34","-99.42","A","GD"
"79248","TX","Paducah","Cottle","48","101","34.01","-100.29","A","GD"
"79250","TX","Petersburg","Hale","48","189","33.87","-101.6","A","GD"
"79251","TX","Quail","Collingsworth","48","87","34.94","-100.45","A","GD"
"79252","TX","Quanah","Hardeman","48","197","34.3","-99.78","A","GD"
"79255","TX","Quitaque","Briscoe","48","45","34.33","-101.05","A","GD"
"79256","TX","Roaring Springs","Motley","48","345","33.91","-100.78","A","GD"
"79257","TX","Silverton","Briscoe","48","45","34.46","-101.32","A","GD"
"79258","TX","South Plains","Floyd","48","153","34.24","-101.29","A","POB"
"79259","TX","Tell","Childress","48","75","34.4","-100.47","A","GD"
"79261","TX","Turkey","Hall","48","191","34.42","-100.83","A","GD"
"79311","TX","Abernathy","Hale","48","189","33.85","-101.88","A","GD"
"79312","TX","Amherst","Lamb","48","279","34.03","-102.39","A","GD"
"79313","TX","Anton","Hockley","48","219","33.81","-102.16","A","GD"
"79314","TX","Bledsoe","Cochran","48","79","33.62","-103.02","A","POB"
"79316","TX","Brownfield","Terry","48","445","33.16","-102.29","A","GD"
"79322","TX","Crosbyton","Crosby","48","107","33.67","-101.23","A","GD"
"79323","TX","Denver City","Yoakum","48","501","32.97","-102.85","A","GD"
"79324","TX","Enochs","Bailey","48","17","33.87","-102.68","A","GD"
"79325","TX","Farwell","Parmer","48","369","34.41","-102.95","A","GD"
"79326","TX","Fieldton","Lamb","48","279","34.06","-102.24","A","GD"
"79329","TX","Idalou","Lubbock","48","303","33.7","-101.69","A","GD"
"79330","TX","Justiceburg","Garza","48","169","33.05","-101.16","A","GD"
"79331","TX","Lamesa","Dawson","48","115","32.7","-101.97","A","GD"
"79336","TX","Levelland","Hockley","48","219","33.6","-102.42","A","GD"
"79338","TX","Levelland","Hockley","48","219","33.59","-102.36","A","POB"
"79339","TX","Littlefield","Lamb","48","279","33.9","-102.33","A","GD"
"79342","TX","Loop","Gaines","48","165","32.91","-102.34","A","GD"
"79343","TX","Lorenzo","Crosby","48","107","33.67","-101.53","A","GD"
"79344","TX","Maple","Bailey","48","17","33.84","-102.92","A","GD"
"79345","TX","Meadow","Terry","48","445","33.34","-102.29","A","GD"
"79346","TX","Morton","Cochran","48","79","33.69","-102.77","A","GD"
"79347","TX","Muleshoe","Bailey","48","17","34.22","-102.74","A","GD"
"79350","TX","New Deal","Lubbock","48","303","33.74","-101.84","A","POB"
"79351","TX","Odonnell","Lynn","48","305","32.94","-101.81","A","GD"
"79353","TX","Pep","Hockley","48","219","33.78","-102.59","A","GD"
"79355","TX","Plains","Yoakum","48","501","33.14","-102.85","A","GD"
"79356","TX","Post","Garza","48","169","33.23","-101.36","A","GD"
"79357","TX","Ralls","Crosby","48","107","33.64","-101.38","A","GD"
"79358","TX","Ropesville","Hockley","48","219","33.43","-102.18","A","GD"
"79359","TX","Seagraves","Gaines","48","165","32.96","-102.58","A","GD"
"79360","TX","Seminole","Gaines","48","165","32.7","-102.73","A","GD"
"79363","TX","Shallowater","Lubbock","48","303","33.7","-102.02","A","GD"
"79364","TX","Slaton","Lubbock","48","303","33.44","-101.65","A","GD"
"79366","TX","Ransom Canyon","Lubbock","48","303","33.53","-101.68","A","GD"
"79367","TX","Smyer","Hockley","48","219","33.6","-102.17","A","POB"
"79369","TX","Spade","Lamb","48","279","33.96","-102.15","A","POB"
"79370","TX","Spur","Dickens","48","125","33.5","-100.9","A","GD"
"79371","TX","Sudan","Lamb","48","279","34.01","-102.61","A","GD"
"79372","TX","Sundown","Hockley","48","219","33.45","-102.49","A","POB"
"79373","TX","Tahoka","Lynn","48","305","33.17","-101.81","A","GD"
"79376","TX","Tokio","Yoakum","48","501","33.22","-102.65","A","GD"
"79377","TX","Welch","Dawson","48","115","32.93","-102.13","A","GD"
"79378","TX","Wellman","Terry","48","445","33.06","-102.47","A","POB"
"79379","TX","Whiteface","Cochran","48","79","33.55","-102.64","A","POB"
"79380","TX","Whitharral","Hockley","48","219","33.73","-102.36","A","POB"
"79381","TX","Wilson","Lynn","48","305","33.33","-101.77","A","GD"
"79382","TX","Wolfforth","Lubbock","48","303","33.49","-102.01","A","GD"
"79383","TX","New Home","Lynn","48","305","33.2","-101.84","A","POB"
"79401","TX","Lubbock","Lubbock","48","303","33.59","-101.85","A","GD"
"79402","TX","Lubbock","Lubbock","48","303","33.59","-101.85","A","GD"
"79403","TX","Lubbock","Lubbock","48","303","33.62","-101.81","A","GD"
"79404","TX","Lubbock","Lubbock","48","303","33.55","-101.81","A","GD"
"79406","TX","Lubbock","Lubbock","48","303","33.58","-101.88","A","GD"
"79407","TX","Lubbock","Lubbock","48","303","33.57","-102","A","GD"
"79408","TX","Lubbock","Lubbock","48","303","33.58","-101.98","A","POB"
"79409","TX","Lubbock","Lubbock","48","303","33.59","-101.85","A","GD"
"79410","TX","Lubbock","Lubbock","48","303","33.57","-101.89","A","GD"
"79411","TX","Lubbock","Lubbock","48","303","33.57","-101.86","A","GD"
"79412","TX","Lubbock","Lubbock","48","303","33.55","-101.86","A","GD"
"79413","TX","Lubbock","Lubbock","48","303","33.55","-101.89","A","GD"
"79414","TX","Lubbock","Lubbock","48","303","33.55","-101.92","A","GD"
"79415","TX","Lubbock","Lubbock","48","303","33.63","-101.88","A","GD"
"79416","TX","Lubbock","Lubbock","48","303","33.59","-101.95","A","GD"
"79423","TX","Lubbock","Lubbock","48","303","33.5","-101.87","A","GD"
"79424","TX","Lubbock","Lubbock","48","303","33.51","-101.93","A","GD"
"79430","TX","Lubbock","Lubbock","48","303","33.59","-101.9","A","PVT"
"79452","TX","Lubbock","Lubbock","48","303","33.55","-101.85","A","POB"
"79453","TX","Lubbock","Lubbock","48","303","33.58","-101.85","A","POB"
"79457","TX","Lubbock","Lubbock","48","303","33.59","-101.85","A","PVT"
"79464","TX","Lubbock","Lubbock","48","303","33.53","-101.92","A","POB"
"79490","TX","Lubbock","Lubbock","48","303","33.57","-101.98","A","POB"
"79491","TX","Lubbock","Lubbock","48","303","33.5","-101.88","A","PVT"
"79493","TX","Lubbock","Lubbock","48","303","33.55","-101.88","A","POB"
"79499","TX","Lubbock","Lubbock","48","303","33.61","-101.91","A","POB"
"79501","TX","Anson","Jones","48","253","32.75","-99.9","A","GD"
"79502","TX","Aspermont","Stonewall","48","433","33.15","-100.23","A","GD"
"79503","TX","Avoca","Jones","48","253","32.88","-99.68","A","GD"
"79504","TX","Baird","Callahan","48","59","32.37","-99.37","A","GD"
"79505","TX","Benjamin","Knox","48","275","33.59","-99.8","A","GD"
"79506","TX","Blackwell","Nolan","48","353","32.09","-100.31","A","GD"
"79508","TX","Buffalo Gap","Taylor","48","441","32.28","-99.83","A","GD"
"79510","TX","Clyde","Callahan","48","59","32.33","-99.52","A","GD"
"79511","TX","Coahoma","Howard","48","227","32.38","-101.27","A","GD"
"79512","TX","Colorado City","Mitchell","48","335","32.37","-100.91","A","GD"
"79516","TX","Dunn","Scurry","48","415","32.57","-100.89","A","POB"
"79517","TX","Fluvanna","Scurry","48","415","32.88","-101.21","A","GD"
"79518","TX","Girard","Kent","48","263","33.34","-100.7","A","GD"
"79519","TX","Goldsboro","Coleman","48","83","32.07","-99.68","A","GD"
"79520","TX","Hamlin","Jones","48","253","32.88","-100.14","A","GD"
"79521","TX","Haskell","Haskell","48","207","33.13","-99.68","A","GD"
"79525","TX","Hawley","Jones","48","253","32.62","-99.83","A","GD"
"79526","TX","Hermleigh","Scurry","48","415","32.62","-100.74","A","GD"
"79527","TX","Ira","Scurry","48","415","32.6","-101.13","A","GD"
"79528","TX","Jayton","Kent","48","263","33.24","-100.73","A","GD"
"79529","TX","Knox City","Knox","48","275","33.42","-99.82","A","GD"
"79530","TX","Lawn","Taylor","48","441","32.12","-99.75","A","GD"
"79532","TX","Loraine","Mitchell","48","335","32.42","-100.71","A","GD"
"79533","TX","Lueders","Jones","48","253","32.85","-99.57","A","GD"
"79534","TX","Mc Caulley","Fisher","48","151","32.77","-100.21","A","GD"
"79535","TX","Maryneal","Nolan","48","353","32.24","-100.47","A","GD"
"79536","TX","Merkel","Taylor","48","441","32.47","-100.03","A","GD"
"79537","TX","Nolan","Nolan","48","353","32.29","-100.21","A","GD"
"79538","TX","Novice","Coleman","48","83","31.98","-99.67","A","GD"
"79539","TX","O Brien","Haskell","48","207","33.38","-99.9","A","GD"
"79540","TX","Old Glory","Stonewall","48","433","33.17","-100.04","A","GD"
"79541","TX","Ovalo","Taylor","48","441","32.16","-99.86","A","GD"
"79543","TX","Roby","Fisher","48","151","32.73","-100.38","A","GD"
"79544","TX","Rochester","Haskell","48","207","33.31","-99.86","A","GD"
"79545","TX","Roscoe","Nolan","48","353","32.44","-100.56","A","GD"
"79546","TX","Rotan","Fisher","48","151","32.87","-100.49","A","GD"
"79547","TX","Rule","Haskell","48","207","33.2","-99.91","A","GD"
"79548","TX","Rule","Haskell","48","207","33.06","-99.91","A","GD"
"79549","TX","Snyder","Scurry","48","415","32.8","-100.91","A","GD"
"79550","TX","Snyder","Scurry","48","415","32.72","-100.92","A","POB"
"79553","TX","Stamford","Jones","48","253","32.94","-99.81","A","GD"
"79556","TX","Sweetwater","Nolan","48","353","32.46","-100.39","A","GD"
"79560","TX","Sylvester","Fisher","48","151","32.69","-100.23","A","GD"
"79561","TX","Trent","Taylor","48","441","32.5","-100.17","A","GD"
"79562","TX","Tuscola","Taylor","48","441","32.24","-99.87","A","GD"
"79563","TX","Tye","Taylor","48","441","32.44","-99.87","A","GD"
"79565","TX","Westbrook","Mitchell","48","335","32.38","-101.04","A","GD"
"79566","TX","Wingate","Runnels","48","399","32.1","-100.12","A","GD"
"79567","TX","Winters","Runnels","48","399","31.97","-99.96","A","GD"
"79601","TX","Abilene","Taylor","48","441","32.51","-99.7","A","GD"
"79602","TX","Abilene","Taylor","48","441","32.41","-99.71","A","GD"
"79603","TX","Abilene","Taylor","48","441","32.46","-99.77","A","GD"
"79604","TX","Abilene","Taylor","48","441","32.45","-99.73","A","POB"
"79605","TX","Abilene","Taylor","48","441","32.43","-99.77","A","GD"
"79606","TX","Abilene","Taylor","48","441","32.38","-99.8","A","GD"
"79607","TX","Dyess Afb","Taylor","48","441","32.43","-99.82","A","GD"
"79608","TX","Abilene","Taylor","48","441","32.42","-99.75","A","POB"
"79697","TX","Abilene","Taylor","48","441","32.43","-99.75","A","PVT"
"79698","TX","Abilene","Taylor","48","441","32.47","-99.73","A","PVT"
"79699","TX","Abilene","Taylor","48","441","32.46","-99.72","A","PVT"
"79701","TX","Midland","Midland","48","329","32","-102.08","A","GD"
"79702","TX","Midland","Midland","48","329","31.98","-102.08","A","POB"
"79703","TX","Midland","Midland","48","329","31.98","-102.13","A","GD"
"79704","TX","Midland","Midland","48","329","31.91","-102.12","A","POB"
"79705","TX","Midland","Midland","48","329","32.03","-102.09","A","GD"
"79706","TX","Midland","Midland","48","329","31.91","-102.02","A","GD"
"79707","TX","Midland","Midland","48","329","32.02","-102.16","A","GD"
"79708","TX","Midland","Midland","48","329","32.02","-102.13","A","POB"
"79710","TX","Midland","Midland","48","329","32.06","-102.02","A","POB"
"79711","TX","Midland","Midland","48","329","32","-102.08","A","POB"
"79712","TX","Midland","Midland","48","329","31.95","-102.17","A","POB"
"79713","TX","Ackerly","Martin","48","317","32.52","-101.74","A","GD"
"79714","TX","Andrews","Andrews","48","3","32.32","-102.59","A","GD"
"79718","TX","Balmorhea","Reeves","48","389","30.99","-103.74","A","GD"
"79719","TX","Barstow","Ward","48","475","31.46","-103.4","A","POB"
"79720","TX","Big Spring","Howard","48","227","32.24","-101.47","A","GD"
"79721","TX","Big Spring","Howard","48","227","32.25","-101.46","A","POB"
"79730","TX","Coyanosa","Pecos","48","371","31.2","-103.08","A","POB"
"79731","TX","Crane","Crane","48","103","31.41","-102.4","A","GD"
"79733","TX","Forsan","Howard","48","227","32.11","-101.37","A","POB"
"79734","TX","Fort Davis","Jeff Davis","48","243","30.63","-103.98","A","GD"
"79735","TX","Fort Stockton","Pecos","48","371","30.85","-102.86","A","GD"
"79738","TX","Gail","Borden","48","33","32.75","-101.53","A","GD"
"79739","TX","Garden City","Glasscock","48","173","31.78","-101.56","A","GD"
"79740","TX","Girvin","Pecos","48","371","31.06","-102.39","A","GD"
"79741","TX","Goldsmith","Ector","48","135","31.96","-102.63","A","GD"
"79742","TX","Grandfalls","Ward","48","475","31.35","-102.88","A","POB"
"79743","TX","Imperial","Pecos","48","371","31.22","-102.67","A","POB"
"79744","TX","Iraan","Pecos","48","371","30.9","-101.97","A","POB"
"79745","TX","Kermit","Winkler","48","495","31.87","-103.11","A","GD"
"79748","TX","Knott","Howard","48","227","32.41","-101.64","A","GD"
"79749","TX","Lenorah","Martin","48","317","32.3","-101.88","A","GD"
"79752","TX","Mc Camey","Upton","48","461","31.15","-102.23","A","GD"
"79754","TX","Mentone","Loving","48","301","31.74","-103.59","A","POB"
"79755","TX","Midkiff","Upton","48","461","31.53","-101.87","A","GD"
"79756","TX","Monahans","Ward","48","475","31.56","-102.9","A","GD"
"79758","TX","Gardendale","Ector","48","135","32.02","-102.35","A","GD"
"79759","TX","Notrees","Ector","48","135","31.8","-102.67","A","POB"
"79760","TX","Odessa","Ector","48","135","31.83","-102.43","A","POB"
"79761","TX","Odessa","Ector","48","135","31.86","-102.36","A","GD"
"79762","TX","Odessa","Ector","48","135","31.89","-102.35","A","GD"
"79763","TX","Odessa","Ector","48","135","31.83","-102.43","A","GD"
"79764","TX","Odessa","Ector","48","135","31.87","-102.45","A","GD"
"79765","TX","Odessa","Ector","48","135","31.91","-102.3","A","GD"
"79766","TX","Odessa","Ector","48","135","31.74","-102.37","A","GD"
"79768","TX","Odessa","Ector","48","135","31.85","-102.37","A","POB"
"79769","TX","Odessa","Ector","48","135","31.85","-102.37","A","POB"
"79770","TX","Orla","Reeves","48","389","31.88","-103.93","A","POB"
"79772","TX","Pecos","Reeves","48","389","31.4","-103.54","A","GD"
"79776","TX","Penwell","Ector","48","135","31.74","-102.59","A","POB"
"79777","TX","Pyote","Ward","48","475","31.53","-103.14","A","POB"
"79778","TX","Rankin","Upton","48","461","31.22","-101.94","A","POB"
"79780","TX","Saragosa","Reeves","48","389","31.07","-103.62","A","POB"
"79781","TX","Sheffield","Pecos","48","371","30.6","-101.81","A","POB"
"79782","TX","Stanton","Martin","48","317","32.13","-101.83","A","GD"
"79783","TX","Tarzan","Martin","48","317","32.34","-102.04","A","GD"
"79785","TX","Toyah","Reeves","48","389","31.32","-103.84","A","POB"
"79786","TX","Toyahvale","Reeves","48","389","30.94","-103.77","A","POB"
"79788","TX","Wickett","Ward","48","475","31.57","-103","A","POB"
"79789","TX","Wink","Winkler","48","495","31.76","-103.16","A","POB"
"79821","TX","Anthony","El Paso","48","141","31.98","-106.6","A","GD"
"79830","TX","Alpine","Brewster","48","43","30.05","-103.48","A","GD"
"79831","TX","Alpine","Brewster","48","43","30.47","-103.39","A","POB"
"79832","TX","Alpine","Brewster","48","43","30.36","-103.67","A","PVT"
"79834","TX","Big Bend National Park","Brewster","48","43","29.32","-103.21","A","POB"
"79835","TX","Canutillo","El Paso","48","141","31.93","-106.59","A","GD"
"79836","TX","Clint","El Paso","48","141","31.58","-106.22","A","GD"
"79837","TX","Dell City","Hudspeth","48","229","31.94","-105.19","A","POB"
"79838","TX","Fabens","El Paso","48","141","31.5","-106.16","A","POB"
"79839","TX","Fort Hancock","Hudspeth","48","229","31.18","-105.72","A","GD"
"79842","TX","Marathon","Brewster","48","43","30.14","-103.23","A","POB"
"79843","TX","Marfa","Presidio","48","377","30.2","-104.12","A","GD"
"79845","TX","Presidio","Presidio","48","377","29.63","-104.4","A","POB"
"79846","TX","Redford","Presidio","48","377","29.46","-104.04","A","POB"
"79847","TX","Salt Flat","Hudspeth","48","229","31.82","-105.12","A","GD"
"79848","TX","Sanderson","Terrell","48","443","30.24","-102.31","A","POB"
"79849","TX","San Elizario","El Paso","48","141","31.57","-106.26","A","GD"
"79851","TX","Sierra Blanca","Hudspeth","48","229","31.23","-105.32","A","POB"
"79852","TX","Terlingua","Brewster","48","43","29.42","-103.59","A","GD"
"79853","TX","Tornillo","El Paso","48","141","31.44","-106.08","A","POB"
"79854","TX","Valentine","Presidio","48","377","30.61","-104.59","A","GD"
"79855","TX","Van Horn","Culberson","48","109","31.06","-104.73","A","POB"
"79901","TX","El Paso","El Paso","48","141","31.76","-106.48","A","GD"
"79902","TX","El Paso","El Paso","48","141","31.78","-106.49","A","GD"
"79903","TX","El Paso","El Paso","48","141","31.79","-106.44","A","GD"
"79904","TX","El Paso","El Paso","48","141","31.85","-106.44","A","GD"
"79905","TX","El Paso","El Paso","48","141","31.77","-106.43","A","GD"
"79906","TX","El Paso","El Paso","48","141","31.81","-106.42","A","GD"
"79907","TX","El Paso","El Paso","48","141","31.71","-106.33","A","GD"
"79908","TX","El Paso","El Paso","48","141","31.83","-106.39","A","GD"
"79910","TX","El Paso","El Paso","48","141","31.77","-106.43","A","GD"
"79911","TX","El Paso","El Paso","48","141","31.88","-106.56","A","GD"
"79912","TX","El Paso","El Paso","48","141","31.85","-106.54","A","GD"
"79913","TX","El Paso","El Paso","48","141","31.84","-106.57","A","POB"
"79914","TX","El Paso","El Paso","48","141","31.9","-106.41","A","POB"
"79915","TX","El Paso","El Paso","48","141","31.75","-106.37","A","GD"
"79916","TX","Fort Bliss","El Paso","48","141","31.81","-106.42","A","GD"
"79917","TX","El Paso","El Paso","48","141","31.71","-106.33","A","POB"
"79918","TX","Fort Bliss","El Paso","48","141","31.85","-106.38","A","GD"
"79920","TX","El Paso","El Paso","48","141","31.83","-106.45","A","POB"
"79922","TX","El Paso","El Paso","48","141","31.82","-106.57","A","GD"
"79923","TX","El Paso","El Paso","48","141","31.78","-106.46","A","POB"
"79924","TX","El Paso","El Paso","48","141","31.9","-106.41","A","GD"
"79925","TX","El Paso","El Paso","48","141","31.78","-106.37","A","GD"
"79926","TX","El Paso","El Paso","48","141","31.72","-106.3","A","POB"
"79927","TX","El Paso","El Paso","48","141","31.65","-106.28","A","GD"
"79928","TX","El Paso","El Paso","48","141","31.67","-106.18","A","GD"
"79929","TX","El Paso","El Paso","48","141","31.69","-106.16","A","POB"
"79930","TX","El Paso","El Paso","48","141","31.81","-106.46","A","GD"
"79931","TX","El Paso","El Paso","48","141","31.81","-106.44","A","POB"
"79932","TX","El Paso","El Paso","48","141","31.87","-106.6","A","GD"
"79934","TX","El Paso","El Paso","48","141","31.94","-106.42","A","GD"
"79935","TX","El Paso","El Paso","48","141","31.77","-106.33","A","GD"
"79936","TX","El Paso","El Paso","48","141","31.77","-106.3","A","GD"
"79937","TX","El Paso","El Paso","48","141","31.78","-106.34","A","POB"
"79938","TX","El Paso","El Paso","48","141","31.83","-106.14","A","GD"
"79940","TX","El Paso","El Paso","48","141","31.77","-106.43","A","POB"
"79941","TX","El Paso","El Paso","48","141","31.76","-106.48","A","POB"
"79942","TX","El Paso","El Paso","48","141","30.57","-101.34","A","POB"
"79943","TX","El Paso","El Paso","48","141","31.76","-106.48","A","POB"
"79944","TX","El Paso","El Paso","48","141","31.76","-106.48","A","POB"
"79945","TX","El Paso","El Paso","48","141","31.76","-106.48","A","POB"
"79946","TX","El Paso","El Paso","48","141","31.76","-106.48","A","POB"
"79947","TX","El Paso","El Paso","48","141","31.76","-106.48","A","POB"
"79948","TX","El Paso","El Paso","48","141","31.76","-106.48","A","POB"
"79949","TX","El Paso","El Paso","48","141","31.76","-106.48","A","POB"
"79950","TX","El Paso","El Paso","48","141","31.76","-106.48","A","POB"
"79951","TX","El Paso","El Paso","48","141","31.76","-106.49","A","POB"
"79952","TX","El Paso","El Paso","48","141","31.76","-106.48","A","POB"
"79953","TX","El Paso","El Paso","48","141","31.76","-106.48","A","POB"
"79954","TX","El Paso","El Paso","48","141","31.76","-106.49","A","POB"
"79955","TX","El Paso","El Paso","48","141","31.76","-106.48","A","POB"
"79958","TX","El Paso","El Paso","48","141","31.76","-106.49","A","PVT"
"79960","TX","El Paso","El Paso","48","141","31.76","-106.49","A","PVT"
"79961","TX","El Paso","El Paso","48","141","31.77","-106.37","A","PVT"
"79968","TX","El Paso","El Paso","48","141","31.77","-106.5","A","PVT"
"79976","TX","El Paso","El Paso","48","141","31.82","-106.44","A","PVT"
"79978","TX","El Paso","El Paso","48","141","31.76","-106.49","A","PVT"
"79980","TX","El Paso","El Paso","48","141","31.75","-106.38","A","PVT"
"79990","TX","El Paso","El Paso","48","141","31.85","-106.44","A","POB"
"79995","TX","El Paso","El Paso","48","141","31.77","-106.42","A","POB"
"79996","TX","El Paso","El Paso","48","141","31.85","-106.44","A","POB"
"79997","TX","El Paso","El Paso","48","141","31.77","-106.42","A","POB"
"79998","TX","El Paso","El Paso","48","141","31.77","-106.43","A","POB"
"79999","TX","El Paso","El Paso","48","141","31.77","-106.43","A","POB"
"88510","TX","El Paso","El Paso","48","141","31.81","-106.42","A","POB"
"88511","TX","El Paso","El Paso","48","141","31.81","-106.42","A","POB"
"88512","TX","El Paso","El Paso","48","141","31.81","-106.42","A","POB"
"88513","TX","El Paso","El Paso","48","141","31.81","-106.42","A","POB"
"88514","TX","El Paso","El Paso","48","141","31.81","-106.42","A","POB"
"88515","TX","El Paso","El Paso","48","141","31.81","-106.42","A","POB"
"88517","TX","El Paso","El Paso","48","141","31.81","-106.42","A","POB"
"88518","TX","El Paso","El Paso","48","141","31.81","-106.42","A","POB"
"88519","TX","El Paso","El Paso","48","141","31.81","-106.42","A","POB"
"88520","TX","El Paso","El Paso","48","141","31.81","-106.42","A","POB"
"88521","TX","El Paso","El Paso","48","141","31.81","-106.42","A","POB"
"88523","TX","El Paso","El Paso","48","141","31.81","-106.42","A","POB"
"88524","TX","El Paso","El Paso","48","141","31.81","-106.42","A","POB"
"88525","TX","El Paso","El Paso","48","141","31.81","-106.42","A","POB"
"88526","TX","El Paso","El Paso","48","141","31.81","-106.42","A","POB"
"88527","TX","El Paso","El Paso","48","141","31.81","-106.42","A","POB"
"88528","TX","El Paso","El Paso","48","141","31.81","-106.42","A","POB"
"88529","TX","El Paso","El Paso","48","141","31.81","-106.42","A","POB"
"88530","TX","El Paso","El Paso","48","141","31.81","-106.42","A","POB"
"88531","TX","El Paso","El Paso","48","141","31.81","-106.42","A","POB"
"88532","TX","El Paso","El Paso","48","141","31.81","-106.42","A","POB"
"88533","TX","El Paso","El Paso","48","141","31.81","-106.42","A","POB"
"88534","TX","El Paso","El Paso","48","141","31.81","-106.42","A","POB"
"88535","TX","El Paso","El Paso","48","141","31.81","-106.42","A","POB"
"88536","TX","El Paso","El Paso","48","141","31.81","-106.42","A","POB"
"88538","TX","El Paso","El Paso","48","141","31.81","-106.42","A","POB"
"88539","TX","El Paso","El Paso","48","141","31.81","-106.42","A","POB"
"88540","TX","El Paso","El Paso","48","141","31.85","-106.44","A","POB"
"88541","TX","El Paso","El Paso","48","141","31.77","-106.43","A","POB"
"88542","TX","El Paso","El Paso","48","141","31.77","-106.43","A","POB"
"88543","TX","El Paso","El Paso","48","141","31.77","-106.43","A","POB"
"88544","TX","El Paso","El Paso","48","141","31.77","-106.43","A","POB"
"88545","TX","El Paso","El Paso","48","141","31.77","-106.33","A","POB"
"88546","TX","El Paso","El Paso","48","141","31.77","-106.33","A","POB"
"88547","TX","El Paso","El Paso","48","141","31.77","-106.33","A","POB"
"88548","TX","El Paso","El Paso","48","141","31.77","-106.33","A","POB"
"88549","TX","El Paso","El Paso","48","141","31.77","-106.33","A","POB"
"88550","TX","El Paso","El Paso","48","141","31.77","-106.43","A","POB"
"88553","TX","El Paso","El Paso","48","141","31.77","-106.33","A","POB"
"88554","TX","El Paso","El Paso","48","141","31.77","-106.33","A","POB"
"88555","TX","El Paso","El Paso","48","141","31.77","-106.33","A","POB"
"88556","TX","El Paso","El Paso","48","141","31.77","-106.33","A","POB"
"88557","TX","El Paso","El Paso","48","141","31.77","-106.33","A","POB"
"88558","TX","El Paso","El Paso","48","141","31.77","-106.33","A","POB"
"88559","TX","El Paso","El Paso","48","141","31.77","-106.33","A","POB"
"88560","TX","El Paso","El Paso","48","141","31.77","-106.33","A","POB"
"88561","TX","El Paso","El Paso","48","141","31.77","-106.33","A","POB"
"88562","TX","El Paso","El Paso","48","141","31.77","-106.33","A","POB"
"88563","TX","El Paso","El Paso","48","141","31.77","-106.33","A","POB"
"88565","TX","El Paso","El Paso","48","141","31.77","-106.33","A","POB"
"88566","TX","El Paso","El Paso","48","141","31.77","-106.33","A","POB"
"88567","TX","El Paso","El Paso","48","141","31.77","-106.33","A","POB"
"88568","TX","El Paso","El Paso","48","141","31.77","-106.33","A","POB"
"88569","TX","El Paso","El Paso","48","141","31.77","-106.33","A","POB"
"88570","TX","El Paso","El Paso","48","141","31.77","-106.33","A","POB"
"88571","TX","El Paso","El Paso","48","141","31.77","-106.33","A","POB"
"88572","TX","El Paso","El Paso","48","141","31.77","-106.33","A","POB"
"88573","TX","El Paso","El Paso","48","141","31.77","-106.33","A","POB"
"88574","TX","El Paso","El Paso","48","141","31.77","-106.33","A","POB"
"88575","TX","El Paso","El Paso","48","141","31.77","-106.33","A","POB"
"88576","TX","El Paso","El Paso","48","141","31.77","-106.33","A","POB"
"88577","TX","El Paso","El Paso","48","141","31.77","-106.33","A","POB"
"88578","TX","El Paso","El Paso","48","141","31.77","-106.33","A","POB"
"88579","TX","El Paso","El Paso","48","141","31.77","-106.33","A","POB"
"88580","TX","El Paso","El Paso","48","141","31.77","-106.33","A","POB"
"88581","TX","El Paso","El Paso","48","141","31.77","-106.33","A","POB"
"88582","TX","El Paso","El Paso","48","141","31.77","-106.33","A","POB"
"88583","TX","El Paso","El Paso","48","141","31.77","-106.33","A","POB"
"88584","TX","El Paso","El Paso","48","141","31.77","-106.33","A","POB"
"88585","TX","El Paso","El Paso","48","141","31.77","-106.33","A","POB"
"88586","TX","El Paso","El Paso","48","141","31.77","-106.33","A","POB"
"88587","TX","El Paso","El Paso","48","141","31.81","-106.42","A","POB"
"88588","TX","El Paso","El Paso","48","141","31.77","-106.43","A","POB"
"88589","TX","El Paso","El Paso","48","141","31.81","-106.42","A","POB"
"88590","TX","El Paso","El Paso","48","141","31.77","-106.43","A","POB"
"88595","TX","El Paso","El Paso","48","141","31.77","-106.43","A","POB"
